{"version": 0.6, "generator": "Overpass API 0.7.61.5 4133829e", "osm3s": {"timestamp_osm_base": "2023-09-28T01:18:57Z", "copyright": "The data included in this document is from www.openstreetmap.org. The data is made available under ODbL."}, "elements": [{"type": "node", "id": 922749514, "lat": -22.8215709, "lon": -47.0826566, "tags": {"amenity": "fast_food", "drive_through": "no", "name": "Pra\u00e7a do Coco", "takeaway": "no"}}, {"type": "node", "id": 979969361, "lat": -22.8236852, "lon": -47.07063, "tags": {"amenity": "restaurant", "name": "Bardana"}}, {"type": "node", "id": 1013918955, "lat": -22.8283654, "lon": -47.0812334, "tags": {"addr:city": "Campinas", "addr:housenumber": "153", "addr:street": "Rua Benedito Alves Aranha", "addr:suburb": "Bar\u00e3o Geraldo", "amenity": "restaurant", "cuisine": "chinese", "name": "L\u00f3tus Restaurante"}}, {"type": "node", "id": 1039608694, "lat": -22.9055177, "lon": -47.0461705, "tags": {"amenity": "fast_food", "brand": "McDonald's", "brand:wikidata": "Q38076", "brand:wikipedia": "en:McDonald's", "cuisine": "burger", "name": "McDonald's", "takeaway": "yes"}}, {"type": "node", "id": 1042064618, "lat": -22.8987228, "lon": -47.055343, "tags": {"addr:city": "Campinas", "addr:street": "Avenida J\u00falio de Mesquita", "addr:suburb": "Cambu\u00ed", "amenity": "restaurant", "cuisine": "pizza", "name": "Monte Bello"}}, {"type": "node", "id": 1106897366, "lat": -22.817207, "lon": -47.0719744}, {"type": "node", "id": 1106897393, "lat": -22.8179271, "lon": -47.0723574}, {"type": "node", "id": 1106897401, "lat": -22.8177786, "lon": -47.0718485}, {"type": "node", "id": 1106897447, "lat": -22.817311, "lon": -47.0725007}, {"type": "node", "id": 1143263856, "lat": -22.8844989, "lon": -47.0679765, "tags": {"amenity": "restaurant", "name": "Akitkab's"}}, {"type": "node", "id": 1143276687, "lat": -22.8257522, "lon": -47.0795145}, {"type": "node", "id": 1143281454, "lat": -22.8344576, "lon": -47.0786505, "tags": {"amenity": "fast_food", "cuisine": "arab", "name": "Ponto da Esfiha"}}, {"type": "node", "id": 1143282936, "lat": -22.8333069, "lon": -47.0787173, "tags": {"addr:city": "Campinas", "addr:housenumber": "584", "addr:postcode": "13084-008", "addr:street": "Avenida Albino Jos\u00e9 Barbosa de Oliveira", "addr:suburb": "Barao Geraldo", "amenity": "restaurant", "cuisine": "italian", "name": "Est\u00e2ncia D'Oliveira", "phone": "+55 19 3289-5369, +55 3249-1510", "website": "http://estanciadoliveirabarao.com.br/"}}, {"type": "node", "id": 1143377663, "lat": -22.8363723, "lon": -47.0803859, "tags": {"addr:city": "Campinas", "addr:housenumber": "271", "addr:street": "Avenida Albino Jos\u00e9 Barbosa de Oliveira", "amenity": "restaurant", "cuisine": "steak_house", "name": "Est\u00e2ncia Grill"}}, {"type": "node", "id": 1176146931, "lat": -22.818675, "lon": -47.0695984, "tags": {"amenity": "cafe", "name": "Cantina do IB"}}, {"type": "node", "id": 1176146935, "lat": -22.8178289, "lon": -47.0713332, "tags": {"amenity": "cafe", "name": "Cantina do DCE"}}, {"type": "node", "id": 1176146953, "lat": -22.8151128, "lon": -47.0641539, "tags": {"amenity": "cafe", "name": "Cantina do Gatti"}}, {"type": "node", "id": 1253474591, "lat": -22.8284033, "lon": -47.0789274, "tags": {"amenity": "restaurant", "name": "Emp\u00f3rio do Nono"}}, {"type": "node", "id": 1253474631, "lat": -22.8282006, "lon": -47.0788495, "tags": {"addr:city": "Campinas", "addr:housenumber": "20", "addr:street": "Cec\u00edlia Feres Zogbi", "addr:suburb": "Barao Geraldo", "amenity": "restaurant", "name": "Restaurante Salsa e Cebolinha"}}, {"type": "node", "id": 1350777810, "lat": -22.8916088, "lon": -47.079586, "tags": {"amenity": "restaurant", "cuisine": "regional", "name": "Casa d'Av\u00f3"}}, {"type": "node", "id": 1350777816, "lat": -22.8912054, "lon": -47.07845, "tags": {"amenity": "restaurant", "name": "Panela de Barro"}}, {"type": "node", "id": 1350800736, "lat": -22.889632, "lon": -47.0765712, "tags": {"amenity": "cafe", "cuisine": "coffee_shop", "name": "Nico Paneteria", "shop": "bakery", "wheelchair": "limited", "wifi": "no"}}, {"type": "node", "id": 1403336265, "lat": -22.8909258, "lon": -47.0769785, "tags": {"amenity": "fast_food", "brand": "Subway", "brand:wikidata": "Q244457", "cuisine": "sandwich", "name": "Subway", "takeaway": "yes"}}, {"type": "node", "id": 1403336282, "lat": -22.8895869, "lon": -47.0780803, "tags": {"amenity": "restaurant", "cuisine": "japanese", "name": "Restaurante Sakae"}}, {"type": "node", "id": 1426476372, "lat": -22.8189998, "lon": -47.0730951, "tags": {"addr:housenumber": "940", "addr:street": "Avenida Prof. At\u00edlio Martini", "amenity": "pub", "name": "Embrev"}}, {"type": "node", "id": 1481964064, "lat": -22.8918833, "lon": -47.0729373, "tags": {"addr:city": "Campinas", "addr:housenumber": "418", "addr:postcode": "13070-118", "addr:street": "Rua Barbosa de Andrade", "addr:suburb": "Jardim Guanabara", "amenity": "restaurant", "name": "Rota do Sol", "phone": "+55 19 33683348"}}, {"type": "node", "id": 1520334788, "lat": -22.8884822, "lon": -47.065262, "tags": {"amenity": "fast_food", "brand": "McDonald's", "brand:wikidata": "Q38076", "brand:wikipedia": "en:McDonald's", "cuisine": "burger", "name": "McDonald's", "takeaway": "yes"}}, {"type": "node", "id": 1520334818, "lat": -22.889227, "lon": -47.0653069, "tags": {"amenity": "restaurant", "name": "Mag Dog"}}, {"type": "node", "id": 1520334870, "lat": -22.8896739, "lon": -47.0675617, "tags": {"addr:city": "Campinas", "addr:housenumber": "164", "addr:street": "Rua Albano de Almeida Lima", "amenity": "restaurant", "cuisine": "barbecue", "name": "Churrascaria R\u00e3-Chu"}}, {"type": "node", "id": 1520334895, "lat": -22.8907994, "lon": -47.0677144, "tags": {"amenity": "restaurant", "name": "Nono Miquele Restaurantes"}}, {"type": "node", "id": 1523533378, "lat": -22.8895084, "lon": -47.0733109, "tags": {"amenity": "pub", "name": "Bar 1\u00b0 de Abril"}}, {"type": "node", "id": 1523533431, "lat": -22.8914366, "lon": -47.0690259, "tags": {"amenity": "restaurant", "name": "Casa Bonin Restaurante Bar"}}, {"type": "node", "id": 1523533462, "lat": -22.8914035, "lon": -47.0687564, "tags": {"amenity": "restaurant", "cuisine": "italian", "name": "Corina Rotisseria e Pastif\u00edcio"}}, {"type": "node", "id": 1534604861, "lat": -22.8875553, "lon": -47.0477898, "tags": {"amenity": "fast_food", "cuisine": "burger", "name": "Lanch\u00e3o"}}, {"type": "node", "id": 1548792790, "lat": -22.8831855, "lon": -47.0657381, "tags": {"amenity": "bar", "name": "Edu Bambu"}}, {"type": "node", "id": 1551747111, "lat": -22.8908198, "lon": -47.0779581, "tags": {"amenity": "restaurant", "cuisine": "pizza", "name": "Villa di Siena"}}, {"type": "node", "id": 1553111871, "lat": -22.9195638, "lon": -47.1095462, "tags": {"amenity": "fast_food", "branch": "John Boyd Dunlop", "brand": "Habib's", "brand:wikidata": "Q2504930", "cuisine": "middle_eastern", "name": "Habib's", "name:pt": "Habib's", "source": "Telelistas", "takeaway": "yes"}}, {"type": "node", "id": 1589705343, "lat": -22.8973243, "lon": -47.0649336, "tags": {"addr:housenumber": "2125", "addr:street": "Avenida Francisco Glic\u00e9rio", "amenity": "restaurant", "cuisine": "chinese", "delivery": "yes", "name": "Chin Brasil Delivery", "takeaway": "yes"}}, {"type": "node", "id": 1594736158, "lat": -22.8970143, "lon": -47.0650644, "tags": {"amenity": "restaurant", "cuisine": "regional", "name": "Restaurante Marinare"}}, {"type": "node", "id": 1594750493, "lat": -22.8948379, "lon": -47.0713705, "tags": {"amenity": "restaurant", "cuisine": "chinese", "name": "Yakisoba Ten"}}, {"type": "node", "id": 1603681911, "lat": -22.8957978, "lon": -47.0738858, "tags": {"amenity": "pub", "name": "Rancho 2000"}}, {"type": "node", "id": 1603681966, "lat": -22.8960792, "lon": -47.0742541, "tags": {"amenity": "restaurant", "cuisine": "regional", "name": "A Cantina"}}, {"type": "node", "id": 1603738078, "lat": -22.9061417, "lon": -47.0635193, "tags": {"addr:city": "Campinas", "addr:street": "Avenida Doutor Campos Sales", "amenity": "cafe", "name": "Lanchonete Lua de Mel", "smoking": "outside"}}, {"type": "node", "id": 1603760144, "lat": -22.9056617, "lon": -47.0592253, "tags": {"addr:city": "Campinas", "addr:suburb": "Centro", "amenity": "fast_food", "brand": "McDonald's", "brand:wikidata": "Q38076", "brand:wikipedia": "en:McDonald's", "cuisine": "burger", "name": "McDonald's", "takeaway": "yes"}}, {"type": "node", "id": 1603874315, "lat": -22.9057941, "lon": -47.0591445, "tags": {"amenity": "fast_food", "brand": "Habib's", "brand:wikidata": "Q2504930", "brand:wikipedia": "en:Habib's", "cuisine": "middle_eastern", "name": "Habib's", "takeaway": "yes"}}, {"type": "node", "id": 1603874447, "lat": -22.9037832, "lon": -47.0596805, "tags": {"addr:city": "Campinas", "addr:housenumber": "1059", "addr:street": "Rua General Os\u00f3rio", "addr:suburb": "Centro", "amenity": "pub", "name": "Giovanetti", "phone": "+55(19) 3231-2830", "smoking": "no", "website": "https://www.giovannetti.com.br/"}}, {"type": "node", "id": 1603874570, "lat": -22.9034009, "lon": -47.0594621, "tags": {"amenity": "fast_food", "name": "Lanch\u00e3o e Cia"}}, {"type": "node", "id": 1603874688, "lat": -22.9022525, "lon": -47.0596565, "tags": {"amenity": "bar", "name": "Bis Lanches"}}, {"type": "node", "id": 1605858810, "lat": -22.8898775, "lon": -47.0763356, "tags": {"addr:city": "Campinas", "addr:housenumber": "376", "addr:postcode": "13070-148", "addr:street": "Rua Oliveira Cardoso", "addr:suburb": "Jardim Chapad\u00e3o", "amenity": "restaurant", "cuisine": "burger", "name": "Big Jack", "phone": "+55 19 32133025", "website": "https://www.bigjackhamburgueria.com.br/"}}, {"type": "node", "id": 1605890019, "lat": -22.9188263, "lon": -47.0597913, "tags": {"amenity": "restaurant", "cuisine": "barbecue", "name": "Trilegal"}}, {"type": "node", "id": 1605890021, "lat": -22.9190994, "lon": -47.059917, "tags": {"amenity": "restaurant", "cuisine": "barbecue", "name": "O matuto"}}, {"type": "node", "id": 1605890022, "lat": -22.9192152, "lon": -47.0597643, "tags": {"amenity": "restaurant", "cuisine": "barbecue", "name": "Hereford's"}}, {"type": "node", "id": 1607028823, "lat": -22.8989896, "lon": -47.0669635, "tags": {"addr:housenumber": "485", "addr:street": "Rua Dr. Ant\u00f4nio \u00c1lvares Lobo", "amenity": "restaurant", "name": "Camon\u00ed"}}, {"type": "node", "id": 1607028855, "lat": -22.8983645, "lon": -47.0649892, "tags": {"addr:housenumber": "21", "addr:street": "Rua Bar\u00e3o Geraldo de Resende", "amenity": "restaurant", "cuisine": "pizza", "delivery": "yes", "name": "Marcante Pizza", "opening_hours": "Mo-Th 18:04-22:56; Fr,Sa 18:07-23:53; Su 18:02-22:58", "takeaway": "yes"}}, {"type": "node", "id": 1607028929, "lat": -22.9020554, "lon": -47.0595724, "tags": {"amenity": "restaurant", "cuisine": "arab", "name": "Papai Salim"}}, {"type": "node", "id": 1607433111, "lat": -22.9407075, "lon": -47.1221434, "tags": {"addr:street": "Rua Jos\u00e9 Louren\u00e7o de S\u00e1", "amenity": "restaurant", "name": "Pastel & cia"}}, {"type": "node", "id": 1607649931, "lat": -22.8993692, "lon": -47.0834389, "tags": {"addr:street": "Avenida Governador Pedro de Toledo", "amenity": "restaurant", "cuisine": "regional", "name": "Tempero Caseiro"}}, {"type": "node", "id": 1607850282, "lat": -22.9413054, "lon": -47.1223899, "tags": {"addr:housenumber": "1406", "addr:street": "Rua Paulo Viana de Souza", "amenity": "restaurant", "cuisine": "pizza", "name": "Pizzaria do Gordo"}}, {"type": "node", "id": 1607871215, "lat": -22.8993276, "lon": -47.082519, "tags": {"addr:street": "Avenida Governador Pedro de Toledo", "amenity": "restaurant", "cuisine": "sandwich", "name": "Tropical Lanches"}}, {"type": "node", "id": 1607932762, "lat": -22.8999762, "lon": -47.066671, "tags": {"amenity": "pub", "name": "Furlan", "wheelchair": "no"}}, {"type": "node", "id": 1609407451, "lat": -22.9021114, "lon": -47.0610441, "tags": {"amenity": "cafe", "name": "Esta\u00e7\u00e3o Glic\u00e9rio"}}, {"type": "node", "id": 1611095367, "lat": -22.8948557, "lon": -47.058602, "tags": {"addr:street": "Rua Major Solon", "amenity": "fast_food", "bench": "yes", "shelter": "yes"}}, {"type": "node", "id": 1611101453, "lat": -22.8887704, "lon": -47.0657561, "tags": {"amenity": "fast_food", "brand": "Burger King", "brand:wikidata": "Q177054", "brand:wikipedia": "en:Burger King", "cuisine": "burger", "name": "Burger King", "takeaway": "yes"}}, {"type": "node", "id": 1612268226, "lat": -22.9100138, "lon": -47.0926366, "tags": {"amenity": "fast_food", "brand": "McDonald's", "brand:wikidata": "Q38076", "brand:wikipedia": "en:McDonald's", "cuisine": "burger", "name": "McDonald's", "takeaway": "yes"}}, {"type": "node", "id": 1613154916, "lat": -22.9074599, "lon": -47.0963004, "tags": {"amenity": "restaurant", "cuisine": "pizza", "name": "Espa\u00e7o Nobre"}}, {"type": "node", "id": 1613690753, "lat": -22.8821165, "lon": -47.0659132, "tags": {"amenity": "restaurant", "cuisine": "pizza", "drive_through": "no", "name": "Roots", "takeaway": "yes"}}, {"type": "node", "id": 1613690761, "lat": -22.8820357, "lon": -47.0546214, "tags": {"addr:housenumber": "138", "addr:street": "Avenida Nossa Senhora de F\u00e1tima", "amenity": "restaurant", "cuisine": "japanese", "name": "Casa do Yakisoba - Higa Ten", "website": "www.acasadoyakisoba.com.br"}}, {"type": "node", "id": 1615035314, "lat": -22.8985106, "lon": -47.0527426, "tags": {"addr:housenumber": "1067", "addr:postcode": "13025-002", "addr:street": "Rua Coronel Quirino", "amenity": "cafe", "brand": "Starbucks", "brand:wikidata": "Q37158", "brand:wikipedia": "en:Starbucks", "cuisine": "coffee_shop", "name": "Starbucks", "official_name": "Starbucks Coffee", "takeaway": "yes", "website": "https://www.starbucks.com.br/"}}, {"type": "node", "id": 1615043216, "lat": -22.8319574, "lon": -47.0762652, "tags": {"addr:housenumber": "368", "addr:street": "Avenida Dr. Romeu de Tortima", "amenity": "restaurant", "name": "Casa de Maria - Bistr\u00f4 Contempor\u00e2neo", "website": "http://www.casademariabistro.com.br/"}}, {"type": "node", "id": 1615087896, "lat": -22.8979718, "lon": -47.0870246, "tags": {"amenity": "fast_food", "cuisine": "sandwich", "name": "Pastelaria"}}, {"type": "node", "id": 1615087897, "lat": -22.8979518, "lon": -47.0873068, "tags": {"amenity": "restaurant", "cuisine": "regional", "name": "Espet\u00e3o na Brasa", "source": "Bing"}}, {"type": "node", "id": 1615087907, "lat": -22.8979447, "lon": -47.0874965, "tags": {"amenity": "pub", "name": "Keven's Bar"}}, {"type": "node", "id": 1617880282, "lat": -22.8951023, "lon": -47.0638267, "tags": {"addr:housenumber": "393", "addr:street": "Rua Barata Ribeiro", "amenity": "restaurant", "cuisine": "brazilian", "diet:vegetarian": "yes", "name": "Villani", "website": "http://www.villanicafe.com.br/", "wheelchair": "yes"}}, {"type": "node", "id": 1617880287, "lat": -22.8935124, "lon": -47.0636409, "tags": {"addr:street": "Rua Tiradentes", "amenity": "cafe", "name": "Villani Caf\u00e9", "website": "http://www.villanicafe.com.br/"}}, {"type": "node", "id": 1622921464, "lat": -22.900128, "lon": -47.065672, "tags": {"amenity": "restaurant", "cuisine": "regional", "name": "Restaurante Stangherlin"}}, {"type": "node", "id": 1622921827, "lat": -22.8944674, "lon": -47.0623166, "tags": {"amenity": "restaurant", "cuisine": "regional", "name": "Dom Caseiro"}}, {"type": "node", "id": 1622921836, "lat": -22.8963829, "lon": -47.0638041, "tags": {"amenity": "restaurant", "cuisine": "pizza", "name": "Bar\u00e3o do Sabor"}}, {"type": "node", "id": 1622921841, "lat": -22.896475, "lon": -47.0638903, "tags": {"amenity": "restaurant", "cuisine": "barbecue", "diet:vegetarian": "yes", "name": "Mataroboi"}}, {"type": "node", "id": 1629161116, "lat": -22.8254841, "lon": -47.0671842, "tags": {"amenity": "restaurant", "cuisine": "steak_house", "name": "Campus Grill"}}, {"type": "node", "id": 1629161117, "lat": -22.8223765, "lon": -47.0701695, "tags": {"amenity": "cafe", "name": "Pastelaria Tropical"}}, {"type": "node", "id": 1629161119, "lat": -22.8241219, "lon": -47.0682759, "tags": {"amenity": "restaurant", "name": "Del Sol"}}, {"type": "node", "id": 1629161120, "lat": -22.8221021, "lon": -47.0701668, "tags": {"amenity": "pub", "name": "MuseuM Pub & Bar"}}, {"type": "node", "id": 1629174862, "lat": -22.8326952, "lon": -47.0785326, "tags": {"amenity": "restaurant", "cuisine": "pizza", "name": "Vila-R\u00e9"}}, {"type": "node", "id": 1629174863, "lat": -22.8330693, "lon": -47.0780813, "tags": {"amenity": "restaurant", "cuisine": "steak_house", "name": "Solar Ga\u00facho Grill"}}, {"type": "node", "id": 1629174864, "lat": -22.8342328, "lon": -47.0784844, "tags": {"amenity": "bar", "name": "Maria Bonjour"}}, {"type": "node", "id": 1642528434, "lat": -22.9032302, "lon": -47.0595548, "tags": {"addr:housenumber": "1302", "addr:street": "Rua Bar\u00e3o de Jaguar\u00e1", "amenity": "cafe", "name": "Caf\u00e9 Regina"}}, {"type": "node", "id": 1642528475, "lat": -22.9042019, "lon": -47.0607396, "tags": {"amenity": "restaurant", "name": "Ros\u00e1rio"}}, {"type": "node", "id": 1642528484, "lat": -22.9033409, "lon": -47.051944, "tags": {"amenity": "pub", "name": "Piola", "wheelchair": "no"}}, {"type": "node", "id": 1670800281, "lat": -22.8992373, "lon": -47.0539654, "tags": {"addr:housenumber": "1900", "addr:street": "Rua Barreto Leme", "amenity": "restaurant", "cuisine": "barbecue", "name": "Rancho Colonial Grill", "website": "http://www.ranchocolonialgrill.com.br/"}}, {"type": "node", "id": 1670800308, "lat": -22.8987799, "lon": -47.0528586, "tags": {"addr:housenumber": "1960", "addr:street": "Rua Barreto Leme", "amenity": "restaurant", "cuisine": "regional", "name": "Restaurante Tempero Cambu\u00ed", "website": "http://www.temperomanero.com.br"}}, {"type": "node", "id": 1700076207, "lat": -22.9060912, "lon": -47.0958674, "tags": {"amenity": "restaurant", "cuisine": "pizza", "name": "Expresso Pizza", "takeaway": "only", "website": "www.expressopizza.com.br"}}, {"type": "node", "id": 1700396658, "lat": -22.9058863, "lon": -47.096221, "tags": {"amenity": "restaurant", "cuisine": "sandwich", "name": "Aur\u00e9lia - Lanches e Por\u00e7\u00f5es"}}, {"type": "node", "id": 1700436582, "lat": -22.9047769, "lon": -47.0958057, "tags": {"addr:street": "Avenida Jos\u00e9 Pancetti", "amenity": "restaurant", "cuisine": "pizza", "name": "Pizza Nobre", "takeaway": "only"}}, {"type": "node", "id": 1700454147, "lat": -22.8795414, "lon": -47.0629853, "tags": {"amenity": "fast_food", "name": "Barraca de Pastel, Caldo de Cana e \u00c1gua de Coco"}}, {"type": "node", "id": 1712160743, "lat": -22.9023146, "lon": -47.052357, "tags": {"amenity": "cafe", "brand": "Fran's Caf\u00e9", "brand:website": "http://www.franscafe.com.br", "brand:wikidata": "Q62075645", "cuisine": "coffee_shop", "name": "Fran's Caf\u00e9", "takeaway": "yes", "wheelchair": "yes"}}, {"type": "node", "id": 1712160744, "lat": -22.9018533, "lon": -47.0526272, "tags": {"amenity": "restaurant", "cuisine": "pizza", "name": "Pizzaria Ritorno"}}, {"type": "node", "id": 1712160763, "lat": -22.9014099, "lon": -47.053814, "tags": {"amenity": "pub", "name": "City Bar", "wheelchair": "no"}}, {"type": "node", "id": 1712160769, "lat": -22.9008542, "lon": -47.0541434, "tags": {"amenity": "pub", "name": "Spaghetti sports bar", "wheelchair": "limited"}}, {"type": "node", "id": 1713465470, "lat": -22.9015305, "lon": -47.0562075, "tags": {"amenity": "pub", "cuisine": "regional", "name": "Giovanetti", "wheelchair": "limited"}}, {"type": "node", "id": 1715213906, "lat": -22.9043308, "lon": -47.0487136, "tags": {"addr:housenumber": "119", "addr:street": "Rua Coronel Francisco de Andrade Coutinho", "amenity": "restaurant", "cuisine": "pizza", "name": "Pizzaria Ritorno II", "phone": "019 3254 4010"}}, {"type": "node", "id": 1719982542, "lat": -22.9054363, "lon": -47.0472577, "tags": {"addr:housenumber": "299", "addr:street": "Rua Coronel Francisco de Andrade Coutinho", "amenity": "restaurant", "name": "Cathedral do Chopp", "website": "https://www.catedraldochopp.com.br/", "wheelchair": "limited"}}, {"type": "node", "id": 1724548698, "lat": -22.8919218, "lon": -47.0792952, "tags": {"amenity": "restaurant", "cuisine": "ice_cream", "name": "Sabor e Sonho"}}, {"type": "node", "id": 1724557561, "lat": -22.8918612, "lon": -47.0792294, "tags": {"amenity": "restaurant", "cuisine": "pizza", "name": "Vila Toscana Pizza e Bar"}}, {"type": "node", "id": 1731207464, "lat": -22.8898642, "lon": -47.0781708, "tags": {"amenity": "restaurant", "cuisine": "pizza", "name": "Serata Pizza Bar"}}, {"type": "node", "id": 1734559119, "lat": -22.8918341, "lon": -47.06352, "tags": {"amenity": "restaurant", "cuisine": "regional", "name": "Casablanca"}}, {"type": "node", "id": 1734559380, "lat": -22.8833931, "lon": -47.0569359, "tags": {"addr:housenumber": "2662", "addr:street": "Avenida Bar\u00e3o de Itapura", "amenity": "restaurant", "cuisine": "pizza", "name": "Bonelli"}}, {"type": "node", "id": 1734559522, "lat": -22.8828945, "lon": -47.0552446, "tags": {"amenity": "pub", "name": "Bar do Nicola"}}, {"type": "node", "id": 1756542458, "lat": -22.8956375, "lon": -47.0793405, "tags": {"amenity": "restaurant", "cuisine": "pizza", "name": "Via Castelo", "takeaway": "only"}}, {"type": "node", "id": 1756542459, "lat": -22.8943823, "lon": -47.078686, "tags": {"amenity": "restaurant", "name": "Cascata Esfihas", "source": "Bing"}}, {"type": "node", "id": 1760449191, "lat": -22.9102215, "lon": -47.092786, "tags": {"amenity": "restaurant", "cuisine": "chinese", "name": "China in Box", "takeaway": "yes"}}, {"type": "node", "id": 1760467302, "lat": -22.9185554, "lon": -47.1085867, "tags": {"amenity": "restaurant", "cuisine": "regional", "name": "Londres Churrascaria"}}, {"type": "node", "id": 1774083173, "lat": -22.884133, "lon": -46.9722366, "tags": {"amenity": "restaurant", "name": "Galp\u00e3o"}}, {"type": "node", "id": 1774092451, "lat": -22.8886501, "lon": -46.9784512, "tags": {"amenity": "restaurant", "name": "Barlacobaco", "wheelchair": "limited"}}, {"type": "node", "id": 1799695175, "lat": -22.826622, "lon": -47.0299835, "tags": {"amenity": "bar", "name": "Arquitetos da Pizza Alphaville", "website": "https://www.facebook.com/ArquitetosDaPizzaRestauranteAlphaville"}}, {"type": "node", "id": 1799695181, "lat": -22.824185, "lon": -47.0349383, "tags": {"amenity": "cafe", "name": "Caf\u00e9 Pontini"}}, {"type": "node", "id": 1799695183, "lat": -22.8239897, "lon": -47.0354184, "tags": {"amenity": "fast_food", "cuisine": "pizza", "name": "Originale Pizzas"}}, {"type": "node", "id": 1809412538, "lat": -22.9010104, "lon": -47.0528828, "tags": {"amenity": "restaurant", "cuisine": "regional", "name": "Ca\u00e7arola"}}, {"type": "node", "id": 1823589137, "lat": -22.869295, "lon": -47.045005, "tags": {"addr:housenumber": "11", "addr:postcode": "13088-010", "addr:street": "Rua Luiz Ot\u00e1vio", "amenity": "restaurant", "name": "Restaurante Gigabyte"}}, {"type": "node", "id": 1825278070, "lat": -22.8942734, "lon": -47.0777752, "tags": {"addr:housenumber": "1067", "amenity": "pub", "name": "Bar do Carioca", "phone": "019 3243 5811", "website": "http://bardocarioca.com.br/"}}, {"type": "node", "id": 1833666038, "lat": -22.9042437, "lon": -47.0676574, "tags": {"amenity": "restaurant", "name": "P\u00e9 de Feij\u00e3o Restaurante"}}, {"type": "node", "id": 1833673416, "lat": -22.8936506, "lon": -47.0483479, "tags": {"addr:housename": "Travessa Cambu\u00ed", "addr:housenumber": "104", "addr:street": "Rua Jo\u00e3o Mendes J\u00fanior", "amenity": "restaurant", "cuisine": "regional", "name": "Travessa Cambu\u00ed"}}, {"type": "node", "id": 1887692543, "lat": -22.8245278, "lon": -47.0797378, "tags": {"amenity": "fast_food", "brand": "Subway", "brand:wikidata": "Q244457", "brand:wikipedia": "en:Subway (restaurant)", "cuisine": "sandwich", "name": "Suc\u00e3o", "takeaway": "yes"}}, {"type": "node", "id": 1954777615, "lat": -22.8871084, "lon": -47.0790242, "tags": {"amenity": "restaurant", "cuisine": "nordeste", "name": "Restaurante & Bar Feij\u00e3o de Corda"}}, {"type": "node", "id": 1991029748, "lat": -22.8906434, "lon": -47.0774443, "tags": {"amenity": "fast_food", "cuisine": "ice_cream", "name": "La Rondinella"}}, {"type": "node", "id": 1994665743, "lat": -22.8941124, "lon": -47.0567496, "tags": {"addr:city": "Campinas", "addr:country": "BR", "addr:housenumber": "217", "addr:street": "Rua Olavo Bilac", "amenity": "restaurant", "cuisine": "argentine", "name": "La Gula", "phone": "+55 19 3295-5344", "takeaway": "yes", "website": "http://www.lagula.com.br"}}, {"type": "node", "id": 2011278643, "lat": -22.9157949, "lon": -47.101689}, {"type": "node", "id": 2011278647, "lat": -22.9157242, "lon": -47.1015803}, {"type": "node", "id": 2011278651, "lat": -22.9158782, "lon": -47.1014624}, {"type": "node", "id": 2011305799, "lat": -22.9149337, "lon": -47.102927, "tags": {"amenity": "restaurant", "cuisine": "steak_house", "name": "Casa da Picanha"}}, {"type": "node", "id": 2011316060, "lat": -22.9144619, "lon": -47.1036941, "tags": {"amenity": "restaurant", "cuisine": "pizza", "name": "Nossa Pizza", "takeaway": "only"}}, {"type": "node", "id": 2012313397, "lat": -22.9193188, "lon": -47.1031206, "tags": {"amenity": "restaurant", "cuisine": "regional", "name": "Casa de Frango AKI", "takeaway": "only"}}, {"type": "node", "id": 2012313401, "lat": -22.9198549, "lon": -47.1039064, "tags": {"amenity": "restaurant", "cuisine": "regional", "name": "Camafeu's"}}, {"type": "node", "id": 2012320400, "lat": -22.9179946, "lon": -47.1075972, "tags": {"amenity": "restaurant", "cuisine": "regional", "name": "Restaurante UAI - Comida Mineira"}}, {"type": "node", "id": 2012466836, "lat": -22.8919555, "lon": -47.0511609, "tags": {"amenity": "bar", "name": "Dom Quixote"}}, {"type": "node", "id": 2012466839, "lat": -22.8917825, "lon": -47.0509141, "tags": {"addr:street": "Rua Doutor Sampaio Ferraz", "amenity": "bar", "name": "Da Vinci"}}, {"type": "node", "id": 2012466841, "lat": -22.8857681, "lon": -47.0577537, "tags": {"amenity": "restaurant", "cuisine": "german", "name": "Rei do joelho"}}, {"type": "node", "id": 2012466844, "lat": -22.8917183, "lon": -47.05159, "tags": {"addr:street": "Rua Doutor Sampaio Ferraz", "amenity": "bar", "name": "Sociedade Alternativa"}}, {"type": "node", "id": 2032819894, "lat": -22.9178142, "lon": -47.0443075, "tags": {"addr:housenumber": "625", "addr:postcode": "13026-137", "addr:street": "Avenida Princesa D'Oeste", "amenity": "restaurant", "cuisine": "regional", "name": "Emp\u00f3rio Dona Bella"}}, {"type": "node", "id": 2338684000, "lat": -22.8908007, "lon": -47.0629568, "tags": {"amenity": "fast_food", "brand": "Habib's", "brand:wikidata": "Q2504930", "brand:wikipedia": "en:Habib's", "cuisine": "middle_eastern", "drive_through": "yes", "name": "Habib's", "takeaway": "yes"}}, {"type": "node", "id": 2338684004, "lat": -22.8979257, "lon": -47.0625747, "tags": {"amenity": "fast_food", "brand": "Subway", "brand:wikidata": "Q244457", "brand:wikipedia": "en:Subway (restaurant)", "cuisine": "sandwich", "name": "Subway", "takeaway": "yes"}}, {"type": "node", "id": 2338684005, "lat": -22.8980265, "lon": -47.0651927, "tags": {"amenity": "pub", "food": "yes", "name": "Preste Aten\u00e7\u00e3o", "outdoor_seating": "yes"}}, {"type": "node", "id": 2354979108, "lat": -22.8242245, "lon": -47.0351959, "tags": {"amenity": "restaurant", "cuisine": "japanese", "name": "Temakeria Makis Place", "source": "http://www.makisplace.com.br/home.asp?idioma=br"}}, {"type": "node", "id": 2354979113, "lat": -22.819501, "lon": -47.0351834, "tags": {"amenity": "restaurant", "cuisine": "burger", "name": "Lanch\u00e3o e Compania"}}, {"type": "node", "id": 2354979115, "lat": -22.8195183, "lon": -47.0350922, "tags": {"amenity": "restaurant"}}, {"type": "node", "id": 2354979117, "lat": -22.8192636, "lon": -47.0353631, "tags": {"amenity": "cafe"}}, {"type": "node", "id": 2354979129, "lat": -22.8241067, "lon": -47.0353041, "tags": {"amenity": "fast_food", "brand": "Subway", "brand:wikidata": "Q244457", "brand:wikipedia": "en:Subway (restaurant)", "cuisine": "sandwich", "name": "Subway", "takeaway": "yes"}}, {"type": "node", "id": 2380763891, "lat": -22.823888, "lon": -47.0347105, "tags": {"addr:housenumber": "116", "addr:street": "Rua Cumaru", "amenity": "restaurant", "name": "Tasty Restaurante", "source": "https://www.facebook.com/pages/Tasty-Restaurante-AlphaVille/382582031791772"}}, {"type": "node", "id": 2436049233, "lat": -22.8353806, "lon": -47.0347565, "tags": {"addr:city": "Campinas", "addr:housenumber": "1", "addr:postcode": "13087-549", "addr:street": "Rua Manoel dos Santos", "amenity": "restaurant", "cuisine": "churrasco", "name": "Churrascaria Moinhos e Eventos", "phone": "(19) 3256-8799", "website": "http://www.moinhoseeventos.com.br/"}}, {"type": "node", "id": 2436081252, "lat": -22.8637038, "lon": -47.0437965, "tags": {"addr:city": "Campinas", "addr:housenumber": "651", "addr:postcode": "13087-560", "addr:street": "Rua Lu\u00eds Ot\u00e1vio", "amenity": "restaurant", "cuisine": "churrasco", "name": "O Matuto Churrascaria", "phone": "(19) 3256-8689", "website": "http://www.omatuto.com.br/taquaral"}}, {"type": "node", "id": 2623646042, "lat": -22.8273665, "lon": -47.0790555, "tags": {"addr:city": "Campinas", "addr:housenumber": "1240", "addr:postcode": "13084-008", "addr:street": "Avenida Albino Jos\u00e9 Barbosa de Oliveira", "amenity": "restaurant", "cuisine": "international", "name": "Lado B", "website": "http://www.almanaquecafe.com.br"}}, {"type": "node", "id": 2623711320, "lat": -22.8265514, "lon": -47.0795479, "tags": {"amenity": "bar", "name": "Bar do Z\u00e9"}}, {"type": "node", "id": 2637626391, "lat": -22.8835514, "lon": -46.9722059, "tags": {"amenity": "restaurant", "cuisine": "pizza", "name": "Vila Monte Viso", "wheelchair": "limited"}}, {"type": "node", "id": 2637649019, "lat": -22.8886051, "lon": -46.9817418, "tags": {"amenity": "restaurant", "cuisine": "pizza", "name": "Emp\u00f3rio da Pizza"}}, {"type": "node", "id": 2639671903, "lat": -22.8279415, "lon": -47.0797686, "tags": {"amenity": "bar", "name": "Eskina Bar"}}, {"type": "node", "id": 2639671904, "lat": -22.8284598, "lon": -47.0795205, "tags": {"amenity": "bar", "name": "Esta\u00e7\u00e3o Bar\u00e3o Bar e Restaurante"}}, {"type": "node", "id": 2663261570, "lat": -22.871119, "lon": -46.9661786, "tags": {"amenity": "restaurant", "name": "Assim Assado"}}, {"type": "node", "id": 2681466133, "lat": -22.8926898, "lon": -47.0802881, "tags": {"amenity": "restaurant", "cuisine": "regional", "name": "Boca de Mel"}}, {"type": "node", "id": 2681482513, "lat": -22.8880717, "lon": -47.0765019, "tags": {"amenity": "fast_food", "cuisine": "burger", "name": "Lanch\u00e3o"}}, {"type": "node", "id": 2681488532, "lat": -22.891447, "lon": -47.073281, "tags": {"addr:city": "Campinas", "addr:housenumber": "239", "addr:postcode": "13070-118", "addr:street": "Rua Doutor Miguel Penteado", "addr:suburb": "Jardim Chapad\u00e3o", "amenity": "restaurant", "cuisine": "regional", "name": "Rancho do Frango (Frango Atropleado)", "phone": "+55 19 32134330", "website": "http://www.ranchodofrango.com.br/"}}, {"type": "node", "id": 2749759023, "lat": -22.8224543, "lon": -47.0652258}, {"type": "node", "id": 2749759024, "lat": -22.8223063, "lon": -47.0650369}, {"type": "node", "id": 2749759025, "lat": -22.8224665, "lon": -47.0648892}, {"type": "node", "id": 2749759026, "lat": -22.8225632, "lon": -47.0650126}, {"type": "node", "id": 2749759027, "lat": -22.8225289, "lon": -47.0650443}, {"type": "node", "id": 2749759028, "lat": -22.8225801, "lon": -47.0651098}, {"type": "node", "id": 2749776739, "lat": -22.8145786, "lon": -47.0653388, "tags": {"amenity": "cafe", "name": "Cantina do Instituto de Economia"}}, {"type": "node", "id": 2755032600, "lat": -22.8151011, "lon": -47.0625684}, {"type": "node", "id": 2755032605, "lat": -22.8154739, "lon": -47.0624904}, {"type": "node", "id": 2755032608, "lat": -22.8154207, "lon": -47.0621915}, {"type": "node", "id": 2755032611, "lat": -22.8150479, "lon": -47.0622695}, {"type": "node", "id": 2799737249, "lat": -22.8787459, "lon": -47.0340304, "tags": {"addr:city": "Campinas", "addr:street": "Rua Boa Esperan\u00e7a", "amenity": "bar", "name": "Azul", "smoking": "outside"}}, {"type": "node", "id": 2800311245, "lat": -22.8797136, "lon": -47.0368575, "tags": {"addr:city": "Campinas", "addr:housenumber": "166", "addr:postcode": "13091-150", "addr:street": "Avenida Palestina", "amenity": "pub", "name": "Bar do V\u00f4 Mir\u00e3o"}}, {"type": "node", "id": 2804074982, "lat": -22.8778713, "lon": -47.0364153, "tags": {"addr:city": "Campinas", "addr:housenumber": "338", "addr:street": "Rua Ermani Pereira Lopes", "amenity": "bar", "name": "Do Coxa", "smoking": "outside"}}, {"type": "node", "id": 2822017934, "lat": -22.8960191, "lon": -47.0717531, "tags": {"amenity": "restaurant", "cuisine": "regional", "name": "Esta\u00e7\u00e3o Mogiana"}}, {"type": "node", "id": 2822017936, "lat": -22.9040003, "lon": -47.0603261, "tags": {"amenity": "fast_food", "brand": "Bob's", "brand:wikidata": "Q1392113", "brand:wikipedia": "en:Bob's", "cuisine": "burger", "name": "Bob's", "takeaway": "yes"}}, {"type": "node", "id": 2822027007, "lat": -22.8327265, "lon": -47.0768492, "tags": {"addr:housenumber": "304", "amenity": "restaurant", "cuisine": "japanese", "name": "Sumir\u00ea", "website": "http://www.restaurantesumire.com.br/"}}, {"type": "node", "id": 2894371310, "lat": -22.9004782, "lon": -47.0515939, "tags": {"addr:city": "Campinas", "addr:housenumber": "1961", "addr:street": "Rua General Os\u00f3rio", "amenity": "cafe", "cuisine": "ice_cream", "internet_access": "yes", "name": "Bella Idea", "phone": "(19) 3327-2574", "website": "http://www.gelatobellaidea.com.br/index.html"}}, {"type": "node", "id": 2910015448, "lat": -22.849868, "lon": -47.1200168, "tags": {"amenity": "restaurant", "cuisine": "steak_house", "name": "Churrascaria Gauch\u00e3o"}}, {"type": "node", "id": 3014194435, "lat": -22.9291233, "lon": -47.0546927, "tags": {"addr:city": "Campinas", "addr:housenumber": "1466", "addr:postcode": "13042105", "addr:street": "Avenida Washington Luis", "addr:suburb": "Vila Marieta", "amenity": "restaurant", "cuisine": "p\u00e3o", "name": "Panificadora Funchal", "opening_hours": "06:00-21:00"}}, {"type": "node", "id": 3235156669, "lat": -22.9757021, "lon": -47.1392278, "tags": {"addr:city": "Campinas", "addr:postcode": "13056-399", "addr:street": "Rua Igarap\u00e9", "addr:suburb": "DIC I", "amenity": "bar", "name": "Boteco do Bolinha"}}, {"type": "node", "id": 3235289368, "lat": -22.9634346, "lon": -47.134383}, {"type": "node", "id": 3235289369, "lat": -22.9633902, "lon": -47.1343427}, {"type": "node", "id": 3235289370, "lat": -22.963484, "lon": -47.1342676}, {"type": "node", "id": 3235289371, "lat": -22.9635087, "lon": -47.1343052}, {"type": "node", "id": 3235290962, "lat": -22.9634519, "lon": -47.1343052}, {"type": "node", "id": 3235290963, "lat": -22.9634371, "lon": -47.1342837}, {"type": "node", "id": 3235318769, "lat": -22.9637446, "lon": -47.1339806}, {"type": "node", "id": 3235318770, "lat": -22.9637347, "lon": -47.1339431}, {"type": "node", "id": 3235318771, "lat": -22.9636952, "lon": -47.1339565}, {"type": "node", "id": 3235318772, "lat": -22.9636977, "lon": -47.1339914}, {"type": "node", "id": 3243131823, "lat": -23.0407312, "lon": -47.0680371, "tags": {"amenity": "restaurant"}}, {"type": "node", "id": 3243794141, "lat": -22.9641046, "lon": -47.1351891}, {"type": "node", "id": 3243794142, "lat": -22.9641367, "lon": -47.1351649}, {"type": "node", "id": 3243794143, "lat": -22.9641565, "lon": -47.1352025}, {"type": "node", "id": 3243794144, "lat": -22.9641293, "lon": -47.1352266}, {"type": "node", "id": 3243830585, "lat": -22.9630215, "lon": -47.1336023}, {"type": "node", "id": 3243830586, "lat": -22.9632141, "lon": -47.1332804}, {"type": "node", "id": 3243830587, "lat": -22.9632586, "lon": -47.1332509}, {"type": "node", "id": 3243830588, "lat": -22.9633228, "lon": -47.1332884}, {"type": "node", "id": 3243830589, "lat": -22.9632265, "lon": -47.1333877}, {"type": "node", "id": 3243830590, "lat": -22.9631993, "lon": -47.133436}, {"type": "node", "id": 3243830591, "lat": -22.9632536, "lon": -47.1334816}, {"type": "node", "id": 3243830592, "lat": -22.9631474, "lon": -47.133672}, {"type": "node", "id": 3243830593, "lat": -22.9631301, "lon": -47.1336881}, {"type": "node", "id": 3243830594, "lat": -22.9630808, "lon": -47.1336693}, {"type": "node", "id": 3243830595, "lat": -22.9630363, "lon": -47.1336371}, {"type": "node", "id": 3243834833, "lat": -22.9642831, "lon": -47.1347364}, {"type": "node", "id": 3243834834, "lat": -22.9642769, "lon": -47.1347136}, {"type": "node", "id": 3243834835, "lat": -22.9643059, "lon": -47.1347042}, {"type": "node", "id": 3243834836, "lat": -22.9643103, "lon": -47.134727}, {"type": "node", "id": 3243846770, "lat": -22.9663613, "lon": -47.1359789}, {"type": "node", "id": 3243846771, "lat": -22.9663119, "lon": -47.1357831}, {"type": "node", "id": 3243846772, "lat": -22.9663736, "lon": -47.1357456}, {"type": "node", "id": 3243846773, "lat": -22.9664279, "lon": -47.1357858}, {"type": "node", "id": 3243846774, "lat": -22.9664477, "lon": -47.1358073}, {"type": "node", "id": 3243846775, "lat": -22.96646, "lon": -47.1359306}, {"type": "node", "id": 3243899488, "lat": -22.9765373, "lon": -47.1399783}, {"type": "node", "id": 3243899489, "lat": -22.9764447, "lon": -47.1398791}, {"type": "node", "id": 3243899490, "lat": -22.9763274, "lon": -47.1400118}, {"type": "node", "id": 3243899491, "lat": -22.9763657, "lon": -47.1400547}, {"type": "node", "id": 3243899492, "lat": -22.9764299, "lon": -47.1400024}, {"type": "node", "id": 3243899493, "lat": -22.9764385, "lon": -47.1400105}, {"type": "node", "id": 3243899494, "lat": -22.9764533, "lon": -47.139985}, {"type": "node", "id": 3243899495, "lat": -22.9765076, "lon": -47.1400212}, {"type": "node", "id": 3252963763, "lat": -22.9656103, "lon": -47.1343773, "tags": {"addr:city": "Campinas", "amenity": "restaurant", "phone": "+55 19 3224 0955"}}, {"type": "node", "id": 3306879950, "lat": -22.9667101, "lon": -47.1327403, "tags": {"addr:city": "Campinas", "addr:street": "Rua Alaor Correa Telles", "amenity": "bar", "name": "da Tia Nina"}}, {"type": "node", "id": 3404416089, "lat": -22.818666, "lon": -47.0695938, "tags": {"amenity": "cafe", "name": "Cantina da Biologia"}}, {"type": "node", "id": 3404766100, "lat": -22.8292875, "lon": -47.0786915, "tags": {"amenity": "fast_food", "brand": "Burger King", "brand:wikidata": "Q177054", "brand:wikipedia": "en:Burger King", "cuisine": "burger", "delivery": "no", "name": "Burger King", "takeaway": "yes"}}, {"type": "node", "id": 3407169172, "lat": -22.8248663, "lon": -47.0792731, "tags": {"amenity": "fast_food", "cuisine": "hot_dog", "name": "Hot Dog Tia Maria", "opening_hours": "18:00-23:00"}}, {"type": "node", "id": 3413174663, "lat": -22.8216773, "lon": -47.0767896, "tags": {"addr:city": "Campinas", "addr:housenumber": "469", "addr:street": "Avenida Professor At\u00edlio Martini", "addr:suburb": "Bar\u00e3o Geraldo", "amenity": "bar", "name": "Metropoly Bar", "opening_hours": "Su 18:00-00:00"}}, {"type": "node", "id": 3415165829, "lat": -22.8280217, "lon": -47.0795394, "tags": {"addr:city": "Campinas", "addr:housenumber": "n/a", "addr:street": "Rua Hor\u00e1cio Leonardi", "amenity": "fast_food", "cuisine": "hot_dog", "name": "Dog Central - Hot Dog"}}, {"type": "node", "id": 3459677730, "lat": -22.8139775, "lon": -47.0453661, "tags": {"amenity": "restaurant", "name": "Nono"}}, {"type": "node", "id": 3459677731, "lat": -22.8141754, "lon": -47.045228, "tags": {"amenity": "restaurant", "name": "Thiane"}}, {"type": "node", "id": 3497770584, "lat": -22.7953584, "lon": -47.0726285, "tags": {"amenity": "fast_food", "cuisine": "pastel", "name": "Pastelaria do Guar\u00e1"}}, {"type": "node", "id": 3611196776, "lat": -22.8784343, "lon": -46.9580695, "tags": {"amenity": "restaurant", "cuisine": "mineira", "name": "Fog\u00e3o Mineiro"}}, {"type": "node", "id": 3611196779, "lat": -22.8787564, "lon": -46.956001, "tags": {"amenity": "restaurant", "name": "Malagueta"}}, {"type": "node", "id": 3651286762, "lat": -22.8249418, "lon": -47.0673742}, {"type": "node", "id": 3651286763, "lat": -22.8250743, "lon": -47.0675319}, {"type": "node", "id": 3651286764, "lat": -22.824974, "lon": -47.0676311}, {"type": "node", "id": 3651286765, "lat": -22.8248416, "lon": -47.0674734}, {"type": "node", "id": 3674172916, "lat": -22.8217204, "lon": -47.0822526, "tags": {"addr:city": "Campinas", "addr:housenumber": "6", "addr:street": "Av. Maria Ferreira Antunes", "addr:suburb": "Bar\u00e3o Geraldo", "amenity": "restaurant", "cuisine": "international", "name": "Praia da Pipa", "smoking": "no", "takeaway": "no", "website": "http://cafeearte.com.br/"}}, {"type": "node", "id": 3683149578, "lat": -22.8016546, "lon": -47.077213, "tags": {"addr:city": "Campinas", "addr:street": "Rua Giuseppe M\u00e1ximo Scolfaro", "addr:suburb": "Cidade Universitaria 2", "amenity": "fast_food", "cuisine": "Caldo_de_cana", "delivery": "no", "name": "Ponto do Sabor", "opening_hours": "08:00-18:00", "takeaway": "yes"}}, {"type": "node", "id": 3683152700, "lat": -22.9106348, "lon": -47.0868398, "tags": {"addr:city": "Campinas", "addr:housenumber": "217", "addr:street": "Rua Breno Duarte Souza Camargo", "addr:suburb": "Vila Teixeira", "amenity": "restaurant", "cuisine": "pizza", "delivery": "yes", "name": "Pizzaria Super Borda", "takeaway": "yes"}}, {"type": "node", "id": 3684850095, "lat": -22.9051246, "lon": -47.075437}, {"type": "node", "id": 3684850096, "lat": -22.9050505, "lon": -47.0753471}, {"type": "node", "id": 3684850097, "lat": -22.9051111, "lon": -47.0752894}, {"type": "node", "id": 3684850098, "lat": -22.9051864, "lon": -47.075378}, {"type": "node", "id": 3684855916, "lat": -22.9034727, "lon": -47.0740748, "tags": {"amenity": "fast_food", "cuisine": "Lanches", "delivery": "no", "drive_through": "yes", "name": "Ponto Certo"}}, {"type": "node", "id": 3686259917, "lat": -22.9038401, "lon": -47.0751569}, {"type": "node", "id": 3686271827, "lat": -22.9041212, "lon": -47.0749808}, {"type": "node", "id": 3686271828, "lat": -22.9040534, "lon": -47.0752263}, {"type": "node", "id": 3686271829, "lat": -22.903891, "lon": -47.0749725}, {"type": "node", "id": 3686271830, "lat": -22.9039391, "lon": -47.0749882}, {"type": "node", "id": 3686271831, "lat": -22.903956, "lon": -47.074927}, {"type": "node", "id": 3699226670, "lat": -22.8152428, "lon": -47.0456962}, {"type": "node", "id": 3699226671, "lat": -22.8152217, "lon": -47.0455836}, {"type": "node", "id": 3699226672, "lat": -22.8153367, "lon": -47.0455594}, {"type": "node", "id": 3699226673, "lat": -22.8153602, "lon": -47.0456747}, {"type": "node", "id": 3699227518, "lat": -22.815731, "lon": -47.0474007}, {"type": "node", "id": 3699227519, "lat": -22.8158201, "lon": -47.0471808}, {"type": "node", "id": 3699227520, "lat": -22.8158398, "lon": -47.0471889}, {"type": "node", "id": 3699227521, "lat": -22.8159498, "lon": -47.0471661}, {"type": "node", "id": 3699227522, "lat": -22.8159325, "lon": -47.0471164}, {"type": "node", "id": 3699227523, "lat": -22.8159177, "lon": -47.0470695}, {"type": "node", "id": 3699227524, "lat": -22.8157867, "lon": -47.0471017}, {"type": "node", "id": 3699227725, "lat": -22.8156865, "lon": -47.04704}, {"type": "node", "id": 3699227726, "lat": -22.8156148, "lon": -47.0470749}, {"type": "node", "id": 3699227727, "lat": -22.8155555, "lon": -47.0471044}, {"type": "node", "id": 3699227728, "lat": -22.8154875, "lon": -47.0472599}, {"type": "node", "id": 3699307265, "lat": -22.8896752, "lon": -46.9369242, "tags": {"addr:city": "Campinas", "addr:housenumber": "29", "addr:street": "Rua Manuel Saturnino Amaral", "addr:suburb": "Joaquim Eg\u00eddio", "amenity": "restaurant", "contact:email": "restaurante@estacaomarupiara.com.br", "contact:facebook": "https://www.facebook.com/EstacaoMarupiara/", "contact:instagram": "https://www.instagram.com/estacaomarupiara/", "contact:phone": "+55 19 404 26161", "contact:website": "http://estacaomarupiara.com.br/", "cuisine": "brazilian", "delivery": "no", "name": "Esta\u00e7\u00e3o Marupiara", "opening_hours": "Th,Fr 19:00-24:00; Sa 12:00-17:00,19:00-24:00; PH,Su 12:00-17:00", "smoking": "no", "takeaway": "no"}}, {"type": "node", "id": 3699307266, "lat": -22.8866989, "lon": -46.9438845, "tags": {"addr:city": "Campinas", "addr:housenumber": "1113", "addr:street": "Rua Doutor Heitor Penteado", "addr:suburb": "Joaquim Eg\u00eddio", "amenity": "restaurant", "contact:facebook": "http://www.facebook.com/bardomarcelinocaixote", "contact:phone": "+55 19 320 38525", "contact:website": "http://bardomarcelino.com.br/", "contact:whatsapp": "+55 19 994 197575", "cuisine": "brazilian", "delivery": "yes", "name": "Bar do Marcelino", "opening_hours": "We-Fr 11:00-14:00; Sa,Su 11:00-15:00"}}, {"type": "node", "id": 3699315768, "lat": -22.8840059, "lon": -47.0359282, "tags": {"addr:city": "Campinas", "addr:housenumber": "1246", "addr:postcode": "Rua Morro Agudo", "addr:street": "Rua Mogi Gua\u00e7u", "addr:suburb": "Ch\u00e1cara da Barra", "amenity": "restaurant", "cuisine": "Frutos_do_Mar;seafood", "delivery": "yes", "name": "Mukeka", "phone": "+55 19 3294-7854", "website": "http://www.casadamoqueca.com.br/", "wheelchair": "limited"}}, {"type": "node", "id": 3699318507, "lat": -22.9054403, "lon": -47.0469886, "tags": {"addr:city": "Campinas", "addr:housenumber": "43", "addr:street": "Avenida Jos\u00e9 de Souza Campos", "amenity": "restaurant", "cuisine": "pizza", "name": "Pizzadoro", "smoking": "no", "website": "http://www.pizzadoro.com.br/"}}, {"type": "node", "id": 3881223677, "lat": -22.8522894, "lon": -47.1516366, "tags": {"amenity": "restaurant", "cuisine": "regional", "name": "Feij\u00e3o com Pimenta"}}, {"type": "node", "id": 3881223678, "lat": -22.8527425, "lon": -47.1534933, "tags": {"amenity": "restaurant", "name": "Strogo&Nof"}}, {"type": "node", "id": 3901953706, "lat": -22.8969245, "lon": -47.0629691, "tags": {"amenity": "restaurant", "cuisine": "regional"}}, {"type": "node", "id": 3901953707, "lat": -22.8956769, "lon": -47.0632378, "tags": {"amenity": "restaurant", "cuisine": "regional", "name": "Amadeus"}}, {"type": "node", "id": 3901953708, "lat": -22.8959746, "lon": -47.0621812, "tags": {"amenity": "restaurant", "cuisine": "regional"}}, {"type": "node", "id": 3901953709, "lat": -22.8986036, "lon": -47.0645689, "tags": {"amenity": "restaurant", "cuisine": "regional;sandwich", "delivery": "yes", "name": "Paparico Dog", "takeaway": "yes"}}, {"type": "node", "id": 3901953710, "lat": -22.8971426, "lon": -47.0664133, "tags": {"amenity": "restaurant", "cuisine": "sausage;sandwich", "name": "Linguiceria", "website": "http://www.linguiceria.com/"}}, {"type": "node", "id": 3901953711, "lat": -22.896893, "lon": -47.0655911, "tags": {"amenity": "fast_food", "cuisine": "fried_food", "takeaway": "yes"}}, {"type": "node", "id": 3901953712, "lat": -22.8981484, "lon": -47.0652334, "tags": {"amenity": "fast_food", "cuisine": "sandwich", "name": "Gord\u00e3o"}}, {"type": "node", "id": 3901964414, "lat": -22.9033866, "lon": -47.05476, "tags": {"addr:housenumber": "511", "addr:street": "Rua Concei\u00e7\u00e3o", "amenity": "restaurant", "contact:facebook": "https://www.facebook.com/Restaurante-Castelo-de-aleppo-317919015075184/", "cuisine": "arab", "diet:vegan": "yes", "diet:vegetarian": "yes", "internet_access": "wlan", "name": "Lig Lig", "phone": "+55 19 3381-7012", "self_service": "yes"}}, {"type": "node", "id": 3944724749, "lat": -22.892389, "lon": -47.054361, "tags": {"addr:city": "Campinas", "addr:housenumber": "1768", "addr:street": "Rua Coronel Quirino", "addr:suburb": "Cambu\u00ed", "amenity": "bar", "name": "Bar Azui", "smoking": "outside"}}, {"type": "node", "id": 3944737364, "lat": -22.8935911, "lon": -47.0556257, "tags": {"addr:city": "Campinas", "addr:housenumber": "153", "addr:street": "Rua Doutor Vieira Bueno", "addr:suburb": "Cambu\u00ed", "amenity": "cafe", "cuisine": "coffee_shop", "internet_access": "yes", "name": "Cafeteria Cambu\u00ed", "phone": "+55-19-3342-2797", "smoking": "no", "website": "https://www.facebook.com/cafeteriacambui"}}, {"type": "node", "id": 3944779703, "lat": -22.8890976, "lon": -47.0537093, "tags": {"addr:city": "Campinas", "addr:housenumber": "1742", "addr:street": "Rua Maria Monteiro", "addr:suburb": "Cambu\u00ed", "amenity": "cafe", "cuisine": "coffee_shop", "internet_access": "yes", "name": "Gato Mia Caf\u00e9 Divertido", "smoking": "no", "website": "http://gatomiacafe.com.br/"}}, {"type": "node", "id": 3944779704, "lat": -22.8921801, "lon": -47.0543933, "tags": {"addr:city": "Campinas", "addr:housenumber": "109", "addr:street": "Rua dos Bandeirantes", "amenity": "restaurant", "cuisine": "ice_cream", "name": "Color\u00ea Sorvetes", "smoking": "no", "takeaway": "yes", "website": "http://www.sorvetescolore.com.br/"}}, {"type": "node", "id": 3950017703, "lat": -22.8970927, "lon": -47.0664929, "tags": {"addr:housenumber": "230", "amenity": "pub", "food": "yes", "name": "Charlie's Pub", "opening_hours": "Fr-Sa 18:00+", "website": "http://charliespub.com.br"}}, {"type": "node", "id": 3992423424, "lat": -22.9025788, "lon": -47.0459566, "tags": {"amenity": "fast_food", "brand": "Subway", "brand:wikidata": "Q244457", "brand:wikipedia": "en:Subway (restaurant)", "cuisine": "sandwich", "name": "Subway", "opening_hours": "10:00-23:00", "phone": "(19) 3253-7364", "takeaway": "yes"}}, {"type": "node", "id": 4039215110, "lat": -22.8912304, "lon": -47.049917, "tags": {"addr:housenumber": "1080", "addr:street": "Rua Ant\u00f4nio Lapa", "amenity": "cafe", "cuisine": "coffee_shop", "email": "contato@cafecontainer.com.br", "internet_access": "wlan", "name": "Caf\u00e9 Container", "phone": "+55 19 3367 2005", "shop": "coffee", "website": "http://www.cafecontainer.com.br/"}}, {"type": "node", "id": 4041827988, "lat": -22.8940947, "lon": -47.05346, "tags": {"amenity": "restaurant", "cuisine": "a\u00e7a\u00ed", "name": "A\u00e7a\u00ednow", "website": "http://acainow.com.br/"}}, {"type": "node", "id": 4041829389, "lat": -22.8951531, "lon": -47.0556538, "tags": {"amenity": "restaurant", "name": "Pizza Crek", "phone": "+55 19 32550683"}}, {"type": "node", "id": 4041829392, "lat": -22.8946881, "lon": -47.0568543, "tags": {"addr:street": "Rua Olavo Bilac", "amenity": "restaurant", "cuisine": "ice_cream", "name": "Sonho de Ver\u00e3o", "phone": "+55 19 32544590", "smoking": "no", "takeaway": "yes"}}, {"type": "node", "id": 4042200990, "lat": -22.9048454, "lon": -47.0579064, "tags": {"amenity": "bar", "name": "Facca Bar e Restaurante"}}, {"type": "node", "id": 4042222176, "lat": -22.9025721, "lon": -47.0574301, "tags": {"addr:city": "Campinas", "addr:housenumber": "35", "addr:street": "Avenida Anchieta", "addr:suburb": "Centro", "amenity": "restaurant", "cuisine": "pastel", "name": "Voga", "outdoor_seating": "yes", "smoking": "no", "takeaway": "yes", "website": "http://vogabar.blogspot.com.br"}}, {"type": "node", "id": 4068926817, "lat": -22.9038387, "lon": -47.0592609}, {"type": "node", "id": 4068926818, "lat": -22.903766, "lon": -47.0590855}, {"type": "node", "id": 4068926819, "lat": -22.9038196, "lon": -47.0590481}, {"type": "node", "id": 4068926820, "lat": -22.9038361, "lon": -47.0590664}, {"type": "node", "id": 4068926821, "lat": -22.903902, "lon": -47.0590273}, {"type": "node", "id": 4068926822, "lat": -22.9039684, "lon": -47.0591961}, {"type": "node", "id": 4068942863, "lat": -22.8274899, "lon": -47.0794089, "tags": {"amenity": "cafe", "cuisine": "coffee_shop", "name": "Mother's"}}, {"type": "node", "id": 4068942865, "lat": -22.8254292, "lon": -47.0816138}, {"type": "node", "id": 4068942866, "lat": -22.8254813, "lon": -47.0816346}, {"type": "node", "id": 4068942867, "lat": -22.8256333, "lon": -47.0815292}, {"type": "node", "id": 4068942868, "lat": -22.8255691, "lon": -47.0814192}, {"type": "node", "id": 4068942869, "lat": -22.8253857, "lon": -47.0815416}, {"type": "node", "id": 4068942870, "lat": -22.8259411, "lon": -47.082244}, {"type": "node", "id": 4068942871, "lat": -22.8258731, "lon": -47.0820925}, {"type": "node", "id": 4068942872, "lat": -22.8259843, "lon": -47.0820294}, {"type": "node", "id": 4068942873, "lat": -22.8260412, "lon": -47.0822145}, {"type": "node", "id": 4068942874, "lat": -22.8259621, "lon": -47.0822574}, {"type": "node", "id": 4068942875, "lat": -22.8257878, "lon": -47.0821461}, {"type": "node", "id": 4068942876, "lat": -22.8259312, "lon": -47.0822413}, {"type": "node", "id": 4068942877, "lat": -22.825857, "lon": -47.0822708}, {"type": "node", "id": 4068942878, "lat": -22.8264491, "lon": -47.0835248}, {"type": "node", "id": 4068942879, "lat": -22.8265752, "lon": -47.0834792}, {"type": "node", "id": 4068942880, "lat": -22.8265356, "lon": -47.0832579}, {"type": "node", "id": 4068942881, "lat": -22.8264095, "lon": -47.0833223}, {"type": "node", "id": 4068942882, "lat": -22.8261055, "lon": -47.0838909}, {"type": "node", "id": 4068942883, "lat": -22.826166, "lon": -47.0839915}, {"type": "node", "id": 4068942884, "lat": -22.8262353, "lon": -47.0839405}, {"type": "node", "id": 4068942885, "lat": -22.8262513, "lon": -47.0837729}, {"type": "node", "id": 4068942886, "lat": -22.8236907, "lon": -47.0832927, "tags": {"addr:city": "Campinas", "addr:housenumber": "199", "addr:street": "Rua Agostinho Pattaro", "addr:suburb": "Bar\u00e3o Geraldo", "amenity": "restaurant", "cuisine": "burger", "name": "Bronco Burguer"}}, {"type": "node", "id": 4069975907, "lat": -22.8291151, "lon": -47.0783181, "tags": {"amenity": "restaurant", "name": "Mortadela e Companhia"}}, {"type": "node", "id": 4070144560, "lat": -22.8931371, "lon": -47.0546507}, {"type": "node", "id": 4070144561, "lat": -22.8930447, "lon": -47.0546436}, {"type": "node", "id": 4070144568, "lat": -22.893252, "lon": -47.0544791}, {"type": "node", "id": 4070144569, "lat": -22.8934175, "lon": -47.0545542}, {"type": "node", "id": 4070144570, "lat": -22.893436, "lon": -47.0544884}, {"type": "node", "id": 4070144571, "lat": -22.8932631, "lon": -47.0544093}, {"type": "node", "id": 4070144572, "lat": -22.892927, "lon": -47.054758}, {"type": "node", "id": 4070144573, "lat": -22.8931321, "lon": -47.0547795}, {"type": "node", "id": 4070144574, "lat": -22.892927, "lon": -47.0546346}, {"type": "node", "id": 4070144576, "lat": -22.8932853, "lon": -47.0548572, "tags": {"amenity": "restaurant", "cuisine": "international", "name": "Strognoff"}}, {"type": "node", "id": 4070195691, "lat": -22.8945273, "lon": -47.0550155, "tags": {"addr:street": "Rua Gustavo Enge", "amenity": "fast_food", "brand": "China in Box", "brand:wikidata": "Q18463999", "brand:wikipedia": "pt:China in Box", "cuisine": "chinese", "name": "China in Box", "takeaway": "yes"}}, {"type": "node", "id": 4072059928, "lat": -22.8922776, "lon": -47.0524223, "tags": {"amenity": "restaurant", "name": "L'Autore"}}, {"type": "node", "id": 4072083900, "lat": -22.8832395, "lon": -47.0614484, "tags": {"amenity": "bar", "name": "Zin Bar"}}, {"type": "node", "id": 4075462295, "lat": -22.8847323, "lon": -47.0594814, "tags": {"addr:street": "Rua C\u00f4nego Nery", "amenity": "restaurant", "cuisine": "brazilian", "delivery": "yes", "name": "Prontinha da Villa", "smoking": "no", "takeaway": "yes"}}, {"type": "node", "id": 4075462303, "lat": -22.8838946, "lon": -47.0498203, "tags": {"addr:city": "Campinas", "addr:housenumber": "122", "addr:street": "Rua Lopes Trov\u00e3o", "addr:suburb": "Vila Isa", "amenity": "bar", "name": "Bar do Jackson", "phone": "+55193294-1437", "smoking": "no"}}, {"type": "node", "id": 4092964141, "lat": -22.8965775, "lon": -47.0453526, "tags": {"amenity": "bar", "name": "Quiosque da Horta"}}, {"type": "node", "id": 4100792700, "lat": -22.9200977, "lon": -47.0584341, "tags": {"amenity": "restaurant", "cuisine": "italian", "name": "Macarronada Italiana"}}, {"type": "node", "id": 4100792791, "lat": -22.8864605, "lon": -46.9746816, "tags": {"amenity": "bar", "name": "Cartum"}}, {"type": "node", "id": 4100837090, "lat": -22.8863573, "lon": -46.9752373, "tags": {"amenity": "fast_food", "brand": "Subway", "brand:wikidata": "Q244457", "cuisine": "sandwich", "name": "Subway", "website": "https://www.subway.com"}}, {"type": "node", "id": 4100837091, "lat": -22.8869397, "lon": -46.9754808, "tags": {"amenity": "restaurant", "name": "Lanch\u00e3o & Cia"}}, {"type": "node", "id": 4100837092, "lat": -22.8868233, "lon": -46.9751024, "tags": {"amenity": "restaurant", "name": "Vira Lata"}}, {"type": "node", "id": 4100837094, "lat": -22.8823777, "lon": -46.9711546, "tags": {"amenity": "restaurant", "cuisine": "steak_house", "name": "Sulina"}}, {"type": "node", "id": 4205522891, "lat": -22.8966968, "lon": -47.0568606, "tags": {"addr:city": "Campinas", "addr:housenumber": "1057", "addr:street": "Avenida J\u00falio de Mesquita", "addr:suburb": "Cambu\u00ed", "amenity": "restaurant", "cuisine": "italian", "delivery": "yes", "name": "Brunelli", "phone": "+551933259500", "smoking": "no", "takeaway": "yes"}}, {"type": "node", "id": 4205522902, "lat": -22.8984385, "lon": -47.055811, "tags": {"addr:city": "Campinas", "addr:housenumber": "813", "addr:street": "Avenida J\u00falio de Mesquita", "addr:suburb": "Cambu\u00ed", "amenity": "restaurant", "cuisine": "japanese", "name": "Morie Sachie"}}, {"type": "node", "id": 4205522912, "lat": -22.9028974, "lon": -47.0555003, "tags": {"addr:city": "Campinas", "addr:housenumber": "1121", "addr:street": "Rua Padre Vieira", "amenity": "restaurant", "contact:facebook": "https://www.facebook.com/vegetalle.restaurante/", "diet:vegan": "only", "name": "Vegetalle", "opening_hours": "Tu-Sa 11:30-14:30; Su 11:30-15:00", "outdoor_seating": "no", "smoking": "no"}}, {"type": "node", "id": 4253474590, "lat": -22.8433391, "lon": -47.0541401, "tags": {"amenity": "bar", "name": "Campinas Hall"}}, {"type": "node", "id": 4295479050, "lat": -22.825567, "lon": -47.0792016}, {"type": "node", "id": 4295479051, "lat": -22.8256479, "lon": -47.0795538}, {"type": "node", "id": 4295479052, "lat": -22.825677, "lon": -47.0791818}, {"type": "node", "id": 4299340323, "lat": -22.8239353, "lon": -47.0884994}, {"type": "node", "id": 4299340325, "lat": -22.8240145, "lon": -47.0885973}, {"type": "node", "id": 4299340326, "lat": -22.8239836, "lon": -47.088439}, {"type": "node", "id": 4299340327, "lat": -22.8240739, "lon": -47.0885369}, {"type": "node", "id": 4360725413, "lat": -22.8905502, "lon": -47.0551215, "tags": {"addr:city": "Campinas", "addr:housenumber": "1977", "addr:street": "Rua Coronel Quirino", "addr:suburb": "Cambu\u00ed", "amenity": "restaurant", "cuisine": "natural", "delivery": "no", "name": "Sweemy", "smoking": "no", "takeaway": "no"}}, {"type": "node", "id": 4362220292, "lat": -22.878942, "lon": -46.9651384, "tags": {"amenity": "bar", "name": "Skin\u00e3o"}}, {"type": "node", "id": 4362220429, "lat": -22.8943828, "lon": -47.0525493, "tags": {"addr:city": "Campinas", "addr:housenumber": "1122", "addr:street": "Rua Maria Monteiro", "addr:suburb": "Cambu\u00ed", "amenity": "restaurant", "cuisine": "chinese", "delivery": "yes", "name": "Garden", "smoking": "no", "takeaway": "yes"}}, {"type": "node", "id": 4390411844, "lat": -22.9329308, "lon": -47.0814976}, {"type": "node", "id": 4390411845, "lat": -22.9329154, "lon": -47.0816071}, {"type": "node", "id": 4390411846, "lat": -22.9329504, "lon": -47.0816146}, {"type": "node", "id": 4390411847, "lat": -22.9329722, "lon": -47.0816088}, {"type": "node", "id": 4390411848, "lat": -22.9329903, "lon": -47.0816019}, {"type": "node", "id": 4390411849, "lat": -22.9330025, "lon": -47.0815927}, {"type": "node", "id": 4390411850, "lat": -22.9330115, "lon": -47.0815789}, {"type": "node", "id": 4390411851, "lat": -22.9330179, "lon": -47.0815616}, {"type": "node", "id": 4390411852, "lat": -22.93302, "lon": -47.081542}, {"type": "node", "id": 4390411853, "lat": -22.9330221, "lon": -47.0815229}, {"type": "node", "id": 4390411854, "lat": -22.9330226, "lon": -47.081512}, {"type": "node", "id": 4431489401, "lat": -22.9352677, "lon": -47.0661539, "tags": {"addr:housenumber": "728", "addr:street": "Avenida Estados Unidos", "amenity": "bar", "name": "Miki Bar"}}, {"type": "node", "id": 4433388334, "lat": -23.0074184, "lon": -47.1493181, "tags": {"amenity": "food_court", "name": "Pra\u00e7a de alimenta\u00e7\u00e3o", "operator": "Viracopos", "smoking": "no", "takeaway": "yes"}}, {"type": "node", "id": 4454954190, "lat": -22.8938611, "lon": -47.0578923, "tags": {"addr:city": "Campinas", "addr:housenumber": "242", "addr:street": "Rua Doutor Ant\u00f4nio da Costa Carvalho", "addr:suburb": "Cambu\u00ed", "amenity": "restaurant", "cuisine": "japanese", "name": "Yukusue", "smoking": "no"}}, {"type": "node", "id": 4454960984, "lat": -22.8923131, "lon": -47.0548502, "tags": {"addr:city": "Campinas", "addr:housenumber": "66", "addr:street": "Rua dos Bandeirantes", "addr:suburb": "Cambu\u00ed", "amenity": "restaurant", "cuisine": "international", "name": "Lume", "smoking": "no"}}, {"type": "node", "id": 4520101500, "lat": -23.0393788, "lon": -47.1283191, "tags": {"addr:city": "Campinas", "addr:housenumber": "238", "addr:postcode": "13053-111", "addr:street": "Rua. La\u00e9rcio de Oliveira", "addr:suburb": "Jardim Fernanda", "amenity": "restaurant", "cuisine": "culin\u00e1ria_Nordestina", "name": "Tapioca do Tio Nego"}}, {"type": "node", "id": 4526254289, "lat": -22.9245115, "lon": -47.121754, "tags": {"addr:housenumber": "993", "addr:postcode": "13060800", "addr:street": "Rua Hermano Penteado", "amenity": "bar", "email": "vladrogerio28@gmail.com", "internet_access": "wlan", "phone": "19991041005"}}, {"type": "node", "id": 4549160279, "lat": -22.8959158, "lon": -47.0583626, "tags": {"addr:city": "Campinas", "addr:housenumber": "26", "addr:street": "Rua Irm\u00e3os Bierrembach", "addr:suburb": "Cambu\u00ed", "amenity": "restaurant", "name": "Bate Papo"}}, {"type": "node", "id": 4549160283, "lat": -22.8844179, "lon": -47.0629133, "tags": {"amenity": "cafe", "name": "Caf\u00e9 Cazonatto"}}, {"type": "node", "id": 4549160284, "lat": -22.8915688, "lon": -47.0558818, "tags": {"amenity": "restaurant", "name": "Caf\u00e9 Antonello"}}, {"type": "node", "id": 4549175797, "lat": -22.8943167, "lon": -47.0549267, "tags": {"addr:housenumber": "48", "addr:street": "Rua Gustavo Enge", "amenity": "restaurant", "cuisine": "italian", "name": "Duo Bruscheteria"}}, {"type": "node", "id": 4549175807, "lat": -22.8934913, "lon": -47.0556198, "tags": {"addr:housenumber": "160", "addr:street": "Rua Doutor Vieira Bueno", "amenity": "restaurant", "cuisine": "burger", "name": "Mr. Beard"}}, {"type": "node", "id": 4549175812, "lat": -22.8956542, "lon": -47.0588304, "tags": {"amenity": "restaurant", "name": "Papa Tutti"}}, {"type": "node", "id": 4549175813, "lat": -22.8876977, "lon": -47.0482937, "tags": {"amenity": "restaurant", "name": "Piu Piu"}}, {"type": "node", "id": 4549175816, "lat": -22.8910782, "lon": -47.0474241, "tags": {"addr:housenumber": "427", "addr:street": "Rua Jo\u00e3o Mendes J\u00fanior", "amenity": "restaurant", "cuisine": "japanese", "name": "Ryuu"}}, {"type": "node", "id": 4550029887, "lat": -22.8903816, "lon": -47.0523683, "tags": {"addr:housenumber": "146", "addr:street": "Rua Doutor Sampaio Peixoto", "amenity": "restaurant", "cuisine": "pizza", "delivery": "yes", "name": "Fascina Pizza", "phone": "+551932015700", "smoking": "no", "takeaway": "yes"}}, {"type": "node", "id": 4550044696, "lat": -22.8902012, "lon": -47.0513697, "tags": {"addr:street": "Rua Heitor Leme de Paula", "amenity": "restaurant", "name": "Mesa III"}}, {"type": "node", "id": 4550044702, "lat": -22.8914052, "lon": -47.0542408, "tags": {"addr:street": "Rua Doutor Sampaio Ferraz", "amenity": "restaurant", "name": "Theo Medeiros"}}, {"type": "node", "id": 4559125368, "lat": -22.8128967, "lon": -47.079695, "tags": {"amenity": "fast_food", "name": "Blitz"}}, {"type": "node", "id": 4559125369, "lat": -22.8250591, "lon": -47.067259, "tags": {"addr:housenumber": "1782", "amenity": "restaurant", "name": "Moria"}}, {"type": "node", "id": 4559198084, "lat": -22.9046434, "lon": -47.0482433, "tags": {"addr:street": "Rua Paulo Lobo", "addr:suburb": "Cambu\u00ed", "amenity": "restaurant", "cuisine": "international", "name": "Baracat"}}, {"type": "node", "id": 4559198087, "lat": -22.9030146, "lon": -47.0505607, "tags": {"addr:housenumber": "532", "addr:street": "Rua Coronel Quirino", "addr:suburb": "Cambu\u00ed", "amenity": "restaurant", "cuisine": "burger", "name": "Big Jack"}}, {"type": "node", "id": 4559198490, "lat": -22.9008838, "lon": -47.0520104, "tags": {"amenity": "restaurant", "name": "Broune"}}, {"type": "node", "id": 4559198491, "lat": -22.9003707, "lon": -47.0535425, "tags": {"amenity": "restaurant", "name": "Br\u00e1z"}}, {"type": "node", "id": 4559198492, "lat": -22.9023713, "lon": -47.0510156, "tags": {"addr:housenumber": "600", "addr:street": "Rua Coronel Quirino", "addr:suburb": "Cambu\u00ed", "amenity": "restaurant", "cuisine": "burger", "name": "Burger & Beer"}}, {"type": "node", "id": 4559198501, "lat": -22.8846163, "lon": -47.063279, "tags": {"addr:housenumber": "597", "addr:street": "Rua Carolina Florence", "amenity": "ice_cream", "name": "Caselato"}}, {"type": "node", "id": 4559198510, "lat": -22.8967378, "lon": -47.0532456, "tags": {"addr:housenumber": "1267", "addr:street": "Rua Coronel Quirino", "addr:suburb": "Cambu\u00ed", "amenity": "restaurant", "name": "Tasty Poke"}}, {"type": "node", "id": 4559198518, "lat": -22.8978652, "lon": -47.0533059, "tags": {"addr:street": "Rua Prisciliana Soares", "amenity": "restaurant", "cuisine": "pizza", "name": "Engenho Paulista"}}, {"type": "node", "id": 4559198530, "lat": -22.8981046, "lon": -47.0528938, "tags": {"addr:street": "Rua Coronel Quirino", "addr:suburb": "Cambu\u00ed", "amenity": "cafe", "brand": "Havanna", "brand:wikidata": "Q2900869", "brand:wikipedia": "es:Havanna", "cuisine": "coffee_shop", "name": "Havanna", "takeaway": "yes"}}, {"type": "node", "id": 4559198533, "lat": -22.9016104, "lon": -47.0515234, "tags": {"addr:housenumber": "710", "addr:street": "Rua Coronel Quirino", "amenity": "cafe", "name": "Italian Coffee"}}, {"type": "node", "id": 4559198536, "lat": -22.8931628, "lon": -47.054074, "tags": {"amenity": "bar", "name": "Juema"}}, {"type": "node", "id": 4559198539, "lat": -22.8839007, "lon": -47.064526, "tags": {"amenity": "restaurant", "name": "Lanchonete Asa Branca"}}, {"type": "node", "id": 4559198547, "lat": -22.8936037, "lon": -47.0547435, "tags": {"amenity": "restaurant", "cuisine": "pizza", "name": "Melenzana"}}, {"type": "node", "id": 4559198553, "lat": -22.9011036, "lon": -47.0519595, "tags": {"addr:street": "Rua Coronel Quirino", "amenity": "restaurant", "cuisine": "japanese", "name": "Okaya"}}, {"type": "node", "id": 4559198554, "lat": -22.892324, "lon": -47.0526588, "tags": {"addr:housenumber": "291", "addr:street": "Rua dos Bandeirantes", "amenity": "restaurant", "cuisine": "japanese", "name": "Oke"}}, {"type": "node", "id": 4559198561, "lat": -22.8991431, "lon": -47.0525917, "tags": {"addr:street": "Rua Coronel Quirino", "amenity": "restaurant", "name": "Prime Italian"}}, {"type": "node", "id": 4559198579, "lat": -22.8936342, "lon": -47.0546082, "tags": {"amenity": "bar", "name": "Tr3s"}}, {"type": "node", "id": 4559198585, "lat": -22.88209, "lon": -47.065956, "tags": {"amenity": "restaurant", "cuisine": "pizza", "name": "Zini"}}, {"type": "node", "id": 4566864809, "lat": -22.885416, "lon": -47.0713985, "tags": {"addr:city": "Campinas", "addr:housenumber": "953", "addr:street": "Rua Doutor Miguel Penteado", "addr:suburb": "Guanabara", "amenity": "restaurant", "cuisine": "barbecue", "name": "Churrascaria Sorriso", "smoking": "no", "takeaway": "yes", "website": "https://www.churrascariasorriso.com.br/"}}, {"type": "node", "id": 4566874111, "lat": -22.8989866, "lon": -47.0588714, "tags": {"addr:housenumber": "243", "addr:street": "Rua Quatorze de Dezembro", "amenity": "cafe", "name": "Caf\u00e9 Cultura"}}, {"type": "node", "id": 4566874118, "lat": -22.9019217, "lon": -47.0598882, "tags": {"addr:housenumber": "114", "addr:street": "Rua Sacramento", "amenity": "restaurant", "name": "Japapop", "opening_hours": "Mo-Sa 11:00-14:30, Mo-Fr 18:00-21:30"}}, {"type": "node", "id": 4566874120, "lat": -22.9016085, "lon": -47.0600077, "tags": {"addr:housenumber": "154", "addr:street": "Rua Sacramento", "amenity": "restaurant", "name": "Kinoa"}}, {"type": "node", "id": 4566874125, "lat": -22.9007881, "lon": -47.0595187, "tags": {"amenity": "restaurant", "diet:vegetarian": "yes", "name": "Nutrir"}}, {"type": "node", "id": 4587811474, "lat": -22.8960835, "lon": -47.0549609, "tags": {"addr:street": "Rua Doutor Guilherme da Silva", "amenity": "restaurant", "name": "Spice"}}, {"type": "node", "id": 4587828638, "lat": -22.8956285, "lon": -47.0590019, "tags": {"addr:city": "Campinas", "addr:street": "Rua Jos\u00e9 Villagelim J\u00fanior", "addr:suburb": "Cambu\u00ed", "amenity": "fast_food", "cuisine": "burger", "drive_through": "no", "name": "Bronco Burguer", "takeaway": "yes"}}, {"type": "node", "id": 4589621377, "lat": -22.8957452, "lon": -47.0564156, "tags": {"addr:housenumber": "60", "addr:street": "Avenida Coronel Silva Teles", "amenity": "restaurant", "name": "Creps"}}, {"type": "node", "id": 4589621760, "lat": -22.8957917, "lon": -47.0565117, "tags": {"addr:housenumber": "54", "addr:street": "Avenida Coronel Silva Teles", "amenity": "restaurant", "name": "Makis Place"}}, {"type": "node", "id": 4589621771, "lat": -22.8955397, "lon": -47.0561676, "tags": {"addr:housenumber": "103", "addr:street": "Avenida Coronel Silva Teles", "amenity": "restaurant", "name": "Yakisoba Factory"}}, {"type": "node", "id": 4589623289, "lat": -22.8956561, "lon": -47.056443, "tags": {"addr:housenumber": "75c", "addr:street": "Avenida Coronel Silva Teles", "amenity": "restaurant", "cuisine": "italian", "email": "labellacucina75@gmail.com", "internet_access": "wlan", "name": "La Pasta Gialla", "name:en": "La Bella Cucina", "name:pt": "La Bella Cucina", "opening_hours": "Mo-Su 12:00-22:30", "operator": "Rubens", "phone": "1932941414", "website": "http://Facebook.com/labellacucina"}}, {"type": "node", "id": 4589623290, "lat": -22.8956983, "lon": -47.056332, "tags": {"amenity": "restaurant", "name": "Pizzame"}}, {"type": "node", "id": 4715759316, "lat": -22.8864887, "lon": -46.9440634, "tags": {"addr:city": "Campinas", "addr:housenumber": "1085", "addr:postcode": "13108002", "addr:street": "Rua Doutor Heitor Penteado", "addr:suburb": "Joaquim Eg\u00eddio", "amenity": "cafe", "cuisine": "regional", "internet_access": "yes", "internet_access:fee": "no", "name": "A Cabrita", "opening_hours": "Fr-Su 09:00-18:00", "outdoor_seating": "yes", "phone": "+551933950335", "smoking": "no"}}, {"type": "node", "id": 4715761272, "lat": -22.8868179, "lon": -46.9441976, "tags": {"amenity": "restaurant", "cuisine": "brazilian", "name": "Velho Valentim"}}, {"type": "node", "id": 4722400989, "lat": -22.8883701, "lon": -46.9809597, "tags": {"amenity": "fast_food", "cuisine": "paatelaria", "drive_through": "no", "name": "pastel de feira"}}, {"type": "node", "id": 4738539922, "lat": -22.8881602, "lon": -46.9807944, "tags": {"amenity": "restaurant", "cuisine": "variados", "name": "reataurante tfk(restaurante no interior do mercado)"}}, {"type": "node", "id": 4743708984, "lat": -22.896113, "lon": -47.0468272, "tags": {"amenity": "fast_food", "brand": "Habib's", "brand:wikidata": "Q2504930", "brand:wikipedia": "en:Habib's", "cuisine": "middle_eastern", "fixme": "check exact position", "name": "Habib's", "takeaway": "yes", "website": "https://www.habibs.com.br/"}}, {"type": "node", "id": 4750212445, "lat": -22.8883538, "lon": -46.9810002}, {"type": "node", "id": 4750212447, "lat": -22.8884047, "lon": -46.9809693}, {"type": "node", "id": 4750212448, "lat": -22.8883864, "lon": -46.9809238}, {"type": "node", "id": 4750212449, "lat": -22.8883385, "lon": -46.9809481}, {"type": "node", "id": 4756320906, "lat": -22.8326148, "lon": -47.0771911, "tags": {"amenity": "cafe", "cuisine": "coffee_shop", "name": "Virg\u00ednia Coffee Roasters"}}, {"type": "node", "id": 4767935715, "lat": -22.8221681, "lon": -47.0826269, "tags": {"amenity": "ice_cream", "name": "Raspa do Alasca"}}, {"type": "node", "id": 4767950230, "lat": -22.9325066, "lon": -47.0647007, "tags": {"amenity": "restaurant", "name": "Cozinha Viana's"}}, {"type": "node", "id": 4767950231, "lat": -22.9111658, "lon": -47.062709, "tags": {"amenity": "restaurant", "name": "Panela V\u00e9ia"}}, {"type": "node", "id": 4816797042, "lat": -22.817512, "lon": -47.0719035}, {"type": "node", "id": 4816797044, "lat": -22.817261, "lon": -47.0722476}, {"type": "node", "id": 4839131970, "lat": -22.8258825, "lon": -47.0827468, "tags": {"addr:housenumber": "94", "addr:street": "Rua Ant\u00f4nio Pierozzi", "amenity": "restaurant", "diet:vegan": "yes", "diet:vegetarian": "only", "name": "Ra\u00edzes Zen", "website": "https://www.raizeszen.com.br/barao_geraldo/index"}}, {"type": "node", "id": 4848476311, "lat": -22.847315, "lon": -47.08452, "tags": {"amenity": "food_court", "name": "Pra\u00e7a de Alimenta\u00e7\u00e3o"}}, {"type": "node", "id": 4851822116, "lat": -22.8931017, "lon": -47.0548548, "tags": {"amenity": "restaurant", "name": "Black Beef Burguer"}}, {"type": "node", "id": 4851829230, "lat": -22.9028338, "lon": -47.049965, "tags": {"amenity": "cafe", "name": "Caf\u00e9 Julieta"}}, {"type": "node", "id": 4851832784, "lat": -22.8995209, "lon": -47.0497024, "tags": {"amenity": "restaurant", "name": "Ruazinha"}}, {"type": "node", "id": 4851833248, "lat": -22.8995526, "lon": -47.0501781, "tags": {"amenity": "restaurant", "name": "Seo Rosa"}}, {"type": "node", "id": 4851834244, "lat": -22.8905475, "lon": -47.0386309, "tags": {"amenity": "restaurant", "name": "Frango Atropelado"}}, {"type": "node", "id": 4879494624, "lat": -22.8584239, "lon": -47.1508705, "tags": {"addr:street": "Rua Dom Alu\u00edsio Lorcheider", "amenity": "fast_food", "name": "Avalanche", "name:pt": "Avalanche"}}, {"type": "node", "id": 4879495121, "lat": -22.858328, "lon": -47.1555737, "tags": {"addr:housenumber": "469", "addr:street": "Rua Armantino de Freitas", "amenity": "restaurant", "cuisine": "brazilian;burger", "name": "Lanchonete do Jeff\u00e3o", "name:en": "Jeff\u00e3o's", "name:pt": "Lanchonete do Jeff\u00e3o", "opening_hours": "Tu-Su 10:00-23:00"}}, {"type": "node", "id": 4879495123, "lat": -22.8562977, "lon": -47.1327214, "tags": {"addr:street": "Acesso ao Posto BR", "amenity": "restaurant", "name": "Frango Assado", "name:pt": "Frango Assado"}}, {"type": "node", "id": 5053546521, "lat": -22.93075, "lon": -47.0912867, "tags": {"amenity": "restaurant", "name": "Restaurante do Alem\u00e3o", "name:pt": "Restaurante do Alem\u00e3o"}}, {"type": "node", "id": 5053847525, "lat": -22.9246203, "lon": -47.1281836, "tags": {"amenity": "fast_food", "brand": "McDonald's", "brand:wikidata": "Q38076", "brand:wikipedia": "en:McDonald's", "cuisine": "burger", "name": "McDonald's", "name:pt": "MCDONALD'S", "takeaway": "yes"}}, {"type": "node", "id": 5053899139, "lat": -22.9258442, "lon": -47.1269395, "tags": {"amenity": "restaurant", "cuisine": "steak_house", "name": "Matuto", "name:pt": "Matuto"}}, {"type": "node", "id": 5054016821, "lat": -22.9244346, "lon": -47.128243, "tags": {"amenity": "restaurant", "name": "Matuto", "name:pt": "Matuto"}}, {"type": "node", "id": 5054190621, "lat": -22.9329081, "lon": -47.0785597, "tags": {"amenity": "fast_food", "brand": "McDonald's", "brand:wikidata": "Q38076", "brand:wikipedia": "en:McDonald's", "cuisine": "burger", "name": "McDonald's", "name:pt": "McDonald's", "takeaway": "yes"}}, {"type": "node", "id": 5054987023, "lat": -22.939009, "lon": -47.1557627, "tags": {"addr:street": "Rua Vicente de Marchi", "amenity": "restaurant", "contact:mobile": "+55 19 97825 4895", "cuisine": "pizza", "mobile": "+55 19 98377 4026", "name": "Esta\u00e7\u00e3o Florence Pizzaria & Chporia"}}, {"type": "node", "id": 5059094122, "lat": -22.9302978, "lon": -47.094507, "tags": {"amenity": "fast_food", "brand": "Domino's", "brand:wikidata": "Q839466", "brand:wikipedia": "en:Domino's Pizza", "cuisine": "pizza", "name": "Domino's", "name:pt": "Domin\u00f3s Pizza", "takeaway": "yes"}}, {"type": "node", "id": 5059095922, "lat": -22.909815, "lon": -47.0923249, "tags": {"amenity": "fast_food", "brand": "Burger King", "brand:wikidata": "Q177054", "brand:wikipedia": "en:Burger King", "cuisine": "burger", "name": "Burger King", "name:pt": "Burguer King", "takeaway": "yes"}}, {"type": "node", "id": 5059119425, "lat": -22.9182304, "lon": -47.1096665, "tags": {"amenity": "pub", "name": "Altas Horas", "name:pt": "Altas Horas"}}, {"type": "node", "id": 5059158321, "lat": -22.9204708, "lon": -47.0753635, "tags": {"amenity": "fast_food", "brand": "McDonald's", "brand:wikidata": "Q38076", "brand:wikipedia": "en:McDonald's", "cuisine": "burger", "name": "McDonald's", "name:pt": "McDonald's", "takeaway": "yes"}}, {"type": "node", "id": 5059162829, "lat": -22.9487782, "lon": -47.1872319, "tags": {"amenity": "fast_food"}}, {"type": "node", "id": 5059164524, "lat": -22.9472128, "lon": -47.1868775, "tags": {"amenity": "fast_food", "name": "Ponto da Esfiha", "name:pt": "Ponto da Esfiha"}}, {"type": "node", "id": 5059185923, "lat": -22.9417408, "lon": -47.1818352, "tags": {"amenity": "fast_food", "name": "Lanch\u00e3o", "name:pt": "Lanch\u00e3o"}}, {"type": "node", "id": 5059192323, "lat": -22.9509003, "lon": -47.1872913, "tags": {"amenity": "restaurant", "name": "Restaurante Campo Grande", "name:pt": "Campo Grande"}}, {"type": "node", "id": 5060488724, "lat": -22.9471357, "lon": -47.1871459, "tags": {"amenity": "fast_food", "name": "Sorvetes Sergel", "name:pt": "Sorvetes - Sergel"}}, {"type": "node", "id": 5060619727, "lat": -22.9259275, "lon": -47.1267821, "tags": {"amenity": "fast_food", "cuisine": "italian", "name": "Ragazzo", "name:pt": "Ragazzo"}}, {"type": "node", "id": 5060673827, "lat": -22.9263177, "lon": -47.1254258, "tags": {"amenity": "fast_food", "cuisine": "a\u00e7a\u00ed", "name": "A\u00e7a\u00ed Deck", "name:pt": "A\u00e7a\u00ed Deck"}}, {"type": "node", "id": 5062087622, "lat": -22.9253303, "lon": -47.1259861, "tags": {"amenity": "cafe"}}, {"type": "node", "id": 5062102123, "lat": -22.9246902, "lon": -47.1261529, "tags": {"amenity": "cafe"}}, {"type": "node", "id": 5062102124, "lat": -22.9245236, "lon": -47.1260625, "tags": {"amenity": "cafe"}}, {"type": "node", "id": 5062178449, "lat": -22.9489879, "lon": -47.1872465, "tags": {"amenity": "fast_food", "name": "Milk-Shake"}}, {"type": "node", "id": 5062178450, "lat": -22.9496083, "lon": -47.1868132, "tags": {"amenity": "fast_food", "name": "Thalita Milk-Shake"}}, {"type": "node", "id": 5062178452, "lat": -22.9536327, "lon": -47.18985, "tags": {"amenity": "fast_food"}}, {"type": "node", "id": 5062178457, "lat": -22.9446705, "lon": -47.187231, "tags": {"amenity": "fast_food"}}, {"type": "node", "id": 5062191724, "lat": -22.9536223, "lon": -47.1900448, "tags": {"amenity": "restaurant"}}, {"type": "node", "id": 5062245921, "lat": -22.9488644, "lon": -47.1867169, "tags": {"amenity": "fast_food", "name": "Rocha Sorvetes", "name:pt": "Rocha Sorvetes"}}, {"type": "node", "id": 5082730125, "lat": -22.8768921, "lon": -47.043762, "tags": {"amenity": "fast_food", "brand": "McDonald's", "brand:wikidata": "Q38076", "brand:wikipedia": "en:McDonald's", "cuisine": "burger", "name": "McDonald's", "takeaway": "yes"}}, {"type": "node", "id": 5097952522, "lat": -22.9245175, "lon": -47.1282052, "tags": {"amenity": "fast_food", "brand": "Burger King", "brand:wikidata": "Q177054", "brand:wikipedia": "en:Burger King", "cuisine": "burger", "name": "Burger King", "name:pt": "Burguer King", "takeaway": "yes"}}, {"type": "node", "id": 5097952523, "lat": -22.9246814, "lon": -47.1281822, "tags": {"amenity": "restaurant", "cuisine": "mineira", "name": "Fog\u00e3o Mineiro", "name:pt": "Fog\u00e3o Mineiro"}}, {"type": "node", "id": 5097952530, "lat": -22.9293172, "lon": -47.1002632, "tags": {"amenity": "bar", "name": "Bar Do Birosca", "name:pt": "Bar Do Birosca"}}, {"type": "node", "id": 5097952623, "lat": -22.9438229, "lon": -47.1849677, "tags": {"amenity": "restaurant"}}, {"type": "node", "id": 5097957921, "lat": -22.9245814, "lon": -47.1281111, "tags": {"amenity": "fast_food", "name": "Lanch\u00e3o", "name:pt": "Lanch\u00e3o"}}, {"type": "node", "id": 5188986350, "lat": -22.8330201, "lon": -47.04448}, {"type": "node", "id": 5188986351, "lat": -22.8328819, "lon": -47.0446071}, {"type": "node", "id": 5188986352, "lat": -22.8330486, "lon": -47.0448205}, {"type": "node", "id": 5188986353, "lat": -22.8331868, "lon": -47.0446934}, {"type": "node", "id": 5188986354, "lat": -22.832937, "lon": -47.0440049}, {"type": "node", "id": 5188986355, "lat": -22.833084, "lon": -47.044216}, {"type": "node", "id": 5188986356, "lat": -22.8332889, "lon": -47.0440482}, {"type": "node", "id": 5188986357, "lat": -22.833142, "lon": -47.043837}, {"type": "node", "id": 5188987337, "lat": -22.8329705, "lon": -47.0447205}, {"type": "node", "id": 5191804037, "lat": -23.0075283, "lon": -47.1490332, "tags": {"amenity": "cafe", "brand": "Starbucks", "brand:wikidata": "Q37158", "brand:wikipedia": "en:Starbucks", "cuisine": "coffee_shop", "name": "Starbucks", "official_name": "Starbucks Coffee", "takeaway": "yes"}}, {"type": "node", "id": 5191804038, "lat": -23.0075968, "lon": -47.1494, "tags": {"amenity": "fast_food", "brand": "Subway", "brand:wikidata": "Q244457", "brand:wikipedia": "en:Subway (restaurant)", "cuisine": "sandwich", "name": "Subway", "takeaway": "yes"}}, {"type": "node", "id": 5191804039, "lat": -23.0075486, "lon": -47.1494938, "tags": {"amenity": "fast_food", "brand": "Giraffas", "brand:wikidata": "Q5564100", "name": "Giraffas"}}, {"type": "node", "id": 5191804040, "lat": -23.007343, "lon": -47.1491877, "tags": {"amenity": "restaurant", "cuisine": "pizza", "name": "Piazza"}}, {"type": "node", "id": 5191804041, "lat": -23.0054647, "lon": -47.1474862, "tags": {"amenity": "fast_food", "name": "Casa do P\u00e3o de Queijo"}}, {"type": "node", "id": 5191804042, "lat": -23.0044443, "lon": -47.1489202, "tags": {"amenity": "cafe", "name": "Octavio Caf\u00e9"}}, {"type": "node", "id": 5191804043, "lat": -23.0055459, "lon": -47.1477372, "tags": {"amenity": "fast_food", "cuisine": "hot_dog", "name": "Grab a Dog"}}, {"type": "node", "id": 5191804044, "lat": -23.0043554, "lon": -47.1493945, "tags": {"amenity": "fast_food", "name": "Juice & Toast"}}, {"type": "node", "id": 5191804045, "lat": -23.0055484, "lon": -47.1475441, "tags": {"amenity": "fast_food", "cuisine": "pizza", "name": "Pizza Crek"}}, {"type": "node", "id": 5191804046, "lat": -23.0075054, "lon": -47.149582, "tags": {"amenity": "restaurant", "cuisine": "italian", "name": "Napolitano"}}, {"type": "node", "id": 5191804047, "lat": -23.0072922, "lon": -47.1492731, "tags": {"amenity": "fast_food", "cuisine": "sushi", "name": "Koni"}}, {"type": "node", "id": 5202141308, "lat": -22.8298319, "lon": -47.0632322, "tags": {"amenity": "fast_food", "layer": "-1", "name": "Lanchonete e Fast Food (FCM)"}}, {"type": "node", "id": 5202608334, "lat": -22.8161681, "lon": -47.0656821, "tags": {"amenity": "restaurant", "name": "Restaurante e Lanchonete"}}, {"type": "node", "id": 5202759544, "lat": -22.8194632, "lon": -47.0602924, "tags": {"amenity": "fast_food", "name": "Lanchonete e fast food (FEAGRI)"}}, {"type": "node", "id": 5217911401, "lat": -22.8186436, "lon": -47.0735826}, {"type": "node", "id": 5217911402, "lat": -22.8187179, "lon": -47.073499}, {"type": "node", "id": 5217911403, "lat": -22.8185867, "lon": -47.0733618}, {"type": "node", "id": 5217911404, "lat": -22.8185124, "lon": -47.0734453}, {"type": "node", "id": 5256433765, "lat": -22.9729652, "lon": -47.1457637}, {"type": "node", "id": 5256433766, "lat": -22.9729333, "lon": -47.1458161}, {"type": "node", "id": 5256433767, "lat": -22.9728662, "lon": -47.1457634}, {"type": "node", "id": 5256433768, "lat": -22.972891, "lon": -47.1457247}, {"type": "node", "id": 5283904936, "lat": -22.9578589, "lon": -47.1193422}, {"type": "node", "id": 5283904937, "lat": -22.9578318, "lon": -47.1194281}, {"type": "node", "id": 5283904938, "lat": -22.9577256, "lon": -47.1193798}, {"type": "node", "id": 5283904939, "lat": -22.9577503, "lon": -47.1192832}, {"type": "node", "id": 5287223121, "lat": -22.9039496, "lon": -47.0600355, "tags": {"addr:street": "Rua General Os\u00f3rio", "amenity": "restaurant", "cuisine": "fine_dining", "name": "Restaurante Ros\u00e1rio", "name:pt": "Restaurante Ros\u00e1rio"}}, {"type": "node", "id": 5287223324, "lat": -22.8561673, "lon": -47.1582092, "tags": {"addr:street": "Rua Santa Luzia", "amenity": "fast_food", "name": "Bis Burger", "name:pt": "Bis Burger"}}, {"type": "node", "id": 5300746526, "lat": -22.955107, "lon": -47.0544836}, {"type": "node", "id": 5300746527, "lat": -22.9551449, "lon": -47.0545229}, {"type": "node", "id": 5300746528, "lat": -22.9551863, "lon": -47.0544855}, {"type": "node", "id": 5300746529, "lat": -22.9551484, "lon": -47.0544425}, {"type": "node", "id": 5355122003, "lat": -22.819591, "lon": -47.0656647, "tags": {"amenity": "restaurant"}}, {"type": "node", "id": 5355259092, "lat": -22.8224905, "lon": -47.0651924, "tags": {"entrance": "main"}}, {"type": "node", "id": 5355259655, "lat": -22.8283992, "lon": -47.0659098, "tags": {"amenity": "restaurant"}}, {"type": "node", "id": 5355259660, "lat": -22.8281153, "lon": -47.063633, "tags": {"amenity": "restaurant"}}, {"type": "node", "id": 5366584713, "lat": -22.8185799, "lon": -47.069497}, {"type": "node", "id": 5366584714, "lat": -22.8187555, "lon": -47.069501}, {"type": "node", "id": 5366584715, "lat": -22.8187523, "lon": -47.0696622}, {"type": "node", "id": 5366584716, "lat": -22.8185768, "lon": -47.0696582}, {"type": "node", "id": 5408044517, "lat": -22.8472043, "lon": -47.0631523}, {"type": "node", "id": 5408044518, "lat": -22.8473716, "lon": -47.0636031}, {"type": "node", "id": 5408044519, "lat": -22.847547, "lon": -47.0640577}, {"type": "node", "id": 5408044520, "lat": -22.847741, "lon": -47.0642857}, {"type": "node", "id": 5408044821, "lat": -22.8479716, "lon": -47.0641908}, {"type": "node", "id": 5408044822, "lat": -22.8480067, "lon": -47.0639041}, {"type": "node", "id": 5408044823, "lat": -22.8478522, "lon": -47.0634335}, {"type": "node", "id": 5408044824, "lat": -22.8476775, "lon": -47.0629647}, {"type": "node", "id": 5408044825, "lat": -22.8474112, "lon": -47.0629489}, {"type": "node", "id": 5408044841, "lat": -22.8480581, "lon": -47.0640638}, {"type": "node", "id": 5408044842, "lat": -22.8476264, "lon": -47.0642549}, {"type": "node", "id": 5408044843, "lat": -22.8472768, "lon": -47.0630172}, {"type": "node", "id": 5408044844, "lat": -22.8475765, "lon": -47.0628895}, {"type": "node", "id": 5411404496, "lat": -22.8362788, "lon": -47.0801225}, {"type": "node", "id": 5411404497, "lat": -22.8362548, "lon": -47.0801697}, {"type": "node", "id": 5411404498, "lat": -22.8362113, "lon": -47.0801453}, {"type": "node", "id": 5411404499, "lat": -22.8361978, "lon": -47.0801649}, {"type": "node", "id": 5411404500, "lat": -22.8361483, "lon": -47.0801323}, {"type": "node", "id": 5411404501, "lat": -22.8361092, "lon": -47.0802007}, {"type": "node", "id": 5411404502, "lat": -22.8361678, "lon": -47.0802349}, {"type": "node", "id": 5411404503, "lat": -22.8361603, "lon": -47.0802691}, {"type": "node", "id": 5411404504, "lat": -22.8364814, "lon": -47.0804612}, {"type": "node", "id": 5411404505, "lat": -22.8364319, "lon": -47.0805866}, {"type": "node", "id": 5411404506, "lat": -22.8365009, "lon": -47.0806322}, {"type": "node", "id": 5411404507, "lat": -22.836561, "lon": -47.0804922}, {"type": "node", "id": 5411404508, "lat": -22.8365805, "lon": -47.0804987}, {"type": "node", "id": 5411404509, "lat": -22.836618, "lon": -47.0804189}, {"type": "node", "id": 5411404510, "lat": -22.836648, "lon": -47.0804319}, {"type": "node", "id": 5411404511, "lat": -22.8367035, "lon": -47.0802984}, {"type": "node", "id": 5411404512, "lat": -22.8365445, "lon": -47.0802137}, {"type": "node", "id": 5411404513, "lat": -22.8365249, "lon": -47.0802577}, {"type": "node", "id": 5411405524, "lat": -22.8273606, "lon": -47.0801491, "tags": {"amenity": "pub", "name": "Korova 71"}}, {"type": "node", "id": 5411405525, "lat": -22.8253892, "lon": -47.0814856, "tags": {"addr:housenumber": "288", "addr:postcode": "13084-110", "addr:street": "Rua Jer\u00f4nimo Pattaro", "amenity": "ice_cream", "name": "Sorvete em Camadas", "opening_hours": "Mo-Su 12:00-19:00", "phone": "01932492936", "website": "http://sorveteemcamadas.com.br"}}, {"type": "node", "id": 5411405526, "lat": -22.8242746, "lon": -47.0825665, "tags": {"amenity": "bar", "leisure": "dance", "name": "Rud\u00e1 Bar"}}, {"type": "node", "id": 5411405540, "lat": -22.8176074, "lon": -47.0814578, "tags": {"amenity": "restaurant", "name": "Battataria Su\u00ed\u00e7a"}}, {"type": "node", "id": 5417654847, "lat": -22.8199573, "lon": -47.0902118, "tags": {"amenity": "pub", "name": "Bar do Ademir"}}, {"type": "node", "id": 5417654854, "lat": -22.819094, "lon": -47.0925154, "tags": {"amenity": "restaurant", "name": "Churrascaria Econ\u00f4mica do Brasil"}}, {"type": "node", "id": 5417654855, "lat": -22.818582, "lon": -47.0927634, "tags": {"amenity": "pub", "name": "Bar dos Gringos"}}, {"type": "node", "id": 5417654866, "lat": -22.8309579, "lon": -47.0759875, "tags": {"amenity": "pub", "name": "Kabana"}}, {"type": "node", "id": 5417654867, "lat": -22.8301123, "lon": -47.0754298, "tags": {"amenity": "bar", "name": "Vila das Brejas"}}, {"type": "node", "id": 5417654868, "lat": -22.8240447, "lon": -47.0802948, "tags": {"amenity": "restaurant", "name": "GUA.CO"}}, {"type": "node", "id": 5420534247, "lat": -22.8959923, "lon": -47.0309293, "tags": {"addr:city": "Campinas", "addr:housenumber": "2208", "addr:postcode": "13092-305", "addr:street": "Avenida Jos\u00e9 Bonif\u00e1cio", "addr:suburb": "Jardim das Paineiras", "amenity": "restaurant", "contact:facebook": "https://www.facebook.com/pg/nashiremporiorestaurante", "cuisine": "japanese", "name": "Nashi Emp\u00f3rio Oriental", "outdoor_seating": "no", "smoking": "outside"}}, {"type": "node", "id": 5430424989, "lat": -22.8297302, "lon": -47.0821771, "tags": {"amenity": "restaurant", "name": "Toca do Tatu"}}, {"type": "node", "id": 5436124174, "lat": -22.8968368, "lon": -47.050409, "tags": {"addr:city": "Campinas", "addr:housenumber": "251", "addr:postcode": "13025-230", "addr:street": "R. Am\u00e9rico Brasiliense", "addr:suburb": "Cambu\u00ed", "amenity": "bar", "brewery": "yes;various", "name": "Frei Caneca", "outdoor_seating": "no"}}, {"type": "node", "id": 5436124175, "lat": -22.8974253, "lon": -47.050028, "tags": {"amenity": "restaurant", "name": "Villani"}}, {"type": "node", "id": 5436124376, "lat": -22.8984746, "lon": -47.0494704, "tags": {"amenity": "restaurant", "name": "Brech\u00f3"}}, {"type": "node", "id": 5436124377, "lat": -22.89804, "lon": -47.0496933, "tags": {"amenity": "restaurant", "name": "Lima Restobar"}}, {"type": "node", "id": 5436431442, "lat": -22.8276819, "lon": -47.0790253, "tags": {"amenity": "fast_food", "name": "Lanch\u00e3o"}}, {"type": "node", "id": 5436431444, "lat": -22.8285398, "lon": -47.0789085, "tags": {"amenity": "restaurant", "cuisine": "pizza", "name": "Pizzaria Esp\u00f3sito"}}, {"type": "node", "id": 5436431446, "lat": -22.8324312, "lon": -47.0766492, "tags": {"amenity": "restaurant", "cuisine": "japanese", "name": "Hondai Japanese"}}, {"type": "node", "id": 5436431448, "lat": -22.8269844, "lon": -47.0806191, "tags": {"amenity": "restaurant", "cuisine": "burger", "name": "Hamburgueria do Bar\u00e3o"}}, {"type": "node", "id": 5436431455, "lat": -22.8267917, "lon": -47.0808654, "tags": {"amenity": "pub", "name": "Bar do Frango"}}, {"type": "node", "id": 5436431459, "lat": -22.8253059, "lon": -47.0820912, "tags": {"amenity": "restaurant", "cuisine": "burger", "name": "Roots Hamburgueria"}}, {"type": "node", "id": 5436431460, "lat": -22.8238798, "lon": -47.0833186, "tags": {"amenity": "restaurant", "cuisine": "pizza", "name": "Pizzaria Lastro"}}, {"type": "node", "id": 5436431461, "lat": -22.8225346, "lon": -47.0828518, "tags": {"amenity": "pub", "name": "Buthecos"}}, {"type": "node", "id": 5436431462, "lat": -22.8224196, "lon": -47.0828022, "tags": {"amenity": "bar", "leisure": "dance", "name": "Echos"}}, {"type": "node", "id": 5436431463, "lat": -22.8205634, "lon": -47.0828864, "tags": {"amenity": "restaurant", "name": "Pier 4"}}, {"type": "node", "id": 5436431485, "lat": -22.821225, "lon": -47.0821024, "tags": {"amenity": "restaurant", "cuisine": "arab", "name": "Bagd\u00e1 Cozinha \u00c1rabe"}}, {"type": "node", "id": 5449319867, "lat": -22.8611416, "lon": -47.1042994, "tags": {"amenity": "fast_food"}}, {"type": "node", "id": 5531054521, "lat": -22.9217642, "lon": -47.0628383, "tags": {"addr:city": "Campinas", "addr:housenumber": "11", "addr:postcode": "13041-318", "addr:street": "Rua Ibitinga", "addr:suburb": "Vila Jo\u00e3o Jorge", "amenity": "restaurant", "cuisine": "steak_house;japanese", "delivery": "yes", "name": "Churrascaria \"O MATUTO\""}}, {"type": "node", "id": 5534661452, "lat": -22.9776775, "lon": -47.1290249, "tags": {"amenity": "fast_food", "cuisine": "hot_dog"}}, {"type": "node", "id": 5534942022, "lat": -22.9899325, "lon": -47.1184141}, {"type": "node", "id": 5534942023, "lat": -22.9898881, "lon": -47.1183739}, {"type": "node", "id": 5534942024, "lat": -22.9899337, "lon": -47.1183122}, {"type": "node", "id": 5534942025, "lat": -22.9899523, "lon": -47.1183376}, {"type": "node", "id": 5534942026, "lat": -22.9899498, "lon": -47.1183926}, {"type": "node", "id": 5559966321, "lat": -22.9384282, "lon": -47.1557592, "tags": {"amenity": "ice_cream", "name": "Sorvetes Cristal"}}, {"type": "node", "id": 5580848411, "lat": -22.8939247, "lon": -47.030333, "tags": {"addr:city": "Campinas", "addr:housenumber": "556", "addr:street": "Avenida Iguatemi", "addr:suburb": "Vila Brandina", "amenity": "restaurant", "cuisine": "japanese", "name": "Kaizen Japanese Food", "outdoor_seating": "yes"}}, {"type": "node", "id": 5582834613, "lat": -22.8899402, "lon": -47.0337614}, {"type": "node", "id": 5582834614, "lat": -22.8900973, "lon": -47.0336237}, {"type": "node", "id": 5582834615, "lat": -22.8899488, "lon": -47.0334882}, {"type": "node", "id": 5582834616, "lat": -22.8899166, "lon": -47.0334999}, {"type": "node", "id": 5582834617, "lat": -22.8898886, "lon": -47.0335232}, {"type": "node", "id": 5582834618, "lat": -22.8898757, "lon": -47.0335536}, {"type": "node", "id": 5582834619, "lat": -22.8898714, "lon": -47.0335816}, {"type": "node", "id": 5582834620, "lat": -22.8899228, "lon": -47.0336866}, {"type": "node", "id": 5582838721, "lat": -22.8899561, "lon": -47.0337356}, {"type": "node", "id": 5582838722, "lat": -22.8900744, "lon": -47.0336247}, {"type": "node", "id": 5582838723, "lat": -22.890026, "lon": -47.0335768}, {"type": "node", "id": 5861004554, "lat": -22.8862132, "lon": -46.9447569, "tags": {"amenity": "bar", "name": "On\u00e7a"}}, {"type": "node", "id": 5861004555, "lat": -22.8863168, "lon": -46.9445971, "tags": {"addr:housenumber": "1019", "amenity": "restaurant", "name": "Costela da Trilha"}}, {"type": "node", "id": 5861004671, "lat": -22.8864372, "lon": -46.9443971, "tags": {"addr:housenumber": "1039", "amenity": "bar", "name": "Boteco do Andr\u00e9"}}, {"type": "node", "id": 5861004830, "lat": -22.8865577, "lon": -46.9442503, "tags": {"amenity": "restaurant", "name": "Country bar"}}, {"type": "node", "id": 5893476587, "lat": -22.9304475, "lon": -47.0917513, "tags": {"addr:postcode": "13050-470", "addr:street": "Av. Mirand\u00f3polis, 667 - Vila Pomp\u00e9ia", "amenity": "fast_food", "name": "Ponto da Esfiha", "opening_hours": "Mo-Su 08:00-00:00", "phone": "(19) 3397-6758"}}, {"type": "node", "id": 5894283287, "lat": -22.9210979, "lon": -47.1081178, "tags": {"amenity": "bar"}}, {"type": "node", "id": 5894300891, "lat": -22.9096534, "lon": -47.0947557, "tags": {"amenity": "ice_cream", "name": "Chiquinho Sorvetes"}}, {"type": "node", "id": 5894300892, "lat": -22.9093022, "lon": -47.0937766, "tags": {"amenity": "fast_food", "brand": "McDonald's", "brand:wikidata": "Q38076", "brand:wikipedia": "en:McDonald's", "cuisine": "burger", "name": "McDonald's", "takeaway": "yes"}}, {"type": "node", "id": 5894306088, "lat": -22.8971085, "lon": -47.096093, "tags": {"addr:postcode": "13033-390", "addr:street": "R. Jo\u00e3o Gutemberg, 155 - Jardim Bandeirantes", "amenity": "ice_cream", "name": "Sergel", "name:pt": "Sorvetes Sergel", "opening_hours": "Mo-Su 12:00-22:00", "phone": "(19) 3241-2244", "website": "http://www.sergel.com.br"}}, {"type": "node", "id": 5906752385, "lat": -22.9328232, "lon": -47.078297, "tags": {"amenity": "restaurant", "name": "Matuto"}}, {"type": "node", "id": 5908141486, "lat": -22.9304376, "lon": -47.0899069, "tags": {"amenity": "bar", "name": "Kaiaque"}}, {"type": "node", "id": 5909660886, "lat": -22.9269662, "lon": -47.1259846, "tags": {"amenity": "fast_food"}}, {"type": "node", "id": 5909660888, "lat": -22.9512925, "lon": -47.1859732, "tags": {"amenity": "bar"}}, {"type": "node", "id": 5911459786, "lat": -22.9307811, "lon": -47.0931843, "tags": {"amenity": "bar", "name": "Bar do Ponto"}}, {"type": "node", "id": 5911866977, "lat": -22.8103107, "lon": -47.0757776}, {"type": "node", "id": 5911866978, "lat": -22.8103225, "lon": -47.0758196}, {"type": "node", "id": 5911866979, "lat": -22.8103753, "lon": -47.0757682}, {"type": "node", "id": 5911866980, "lat": -22.8103494, "lon": -47.0757356}, {"type": "node", "id": 5916647788, "lat": -22.9057449, "lon": -47.0706299, "tags": {"amenity": "fast_food", "brand": "McDonald's", "brand:wikidata": "Q38076", "brand:wikipedia": "en:McDonald's", "cuisine": "burger", "name": "McDonald's", "takeaway": "yes"}}, {"type": "node", "id": 5919466388, "lat": -22.9306071, "lon": -47.0869292, "tags": {"amenity": "bar"}}, {"type": "node", "id": 5922484993, "lat": -22.9296169, "lon": -47.0962969, "tags": {"amenity": "ice_cream", "name": "Frutilatte Sorvetes"}}, {"type": "node", "id": 5922485005, "lat": -22.9296887, "lon": -47.1085655, "tags": {"amenity": "ice_cream", "name": "Sorveteria Trein\u00f3"}}, {"type": "node", "id": 5922490785, "lat": -22.930749, "lon": -47.0911528, "tags": {"amenity": "ice_cream"}}, {"type": "node", "id": 5922490787, "lat": -22.9290378, "lon": -47.097569, "tags": {"amenity": "bar"}}, {"type": "node", "id": 5922490789, "lat": -22.9233832, "lon": -47.1054496, "tags": {"amenity": "ice_cream", "name": "SorvFood's"}}, {"type": "node", "id": 5925391949, "lat": -22.817372, "lon": -47.0719341}, {"type": "node", "id": 5926430690, "lat": -22.87026, "lon": -47.0634566, "tags": {"amenity": "ice_cream", "name": "Sergel"}}, {"type": "node", "id": 5926754636, "lat": -22.8209749, "lon": -47.0814562}, {"type": "node", "id": 5926754637, "lat": -22.8209323, "lon": -47.0812637}, {"type": "node", "id": 5926754638, "lat": -22.8209876, "lon": -47.0812436}, {"type": "node", "id": 5926754639, "lat": -22.8209933, "lon": -47.081259}, {"type": "node", "id": 5926754640, "lat": -22.821026, "lon": -47.0812482}, {"type": "node", "id": 5926754641, "lat": -22.8210657, "lon": -47.0814331}, {"type": "node", "id": 5937846488, "lat": -22.8707543, "lon": -47.0629239, "tags": {"addr:housenumber": "953", "addr:postcode": "13087-320", "addr:street": "Rua Padre Manoel Bernades", "amenity": "ice_cream", "name": "Sergel", "name:pt": "Sorveteria Sergel", "opening_hours": "Mo-Su 12:00-20:00", "phone": "(19) 3242-5542", "website": "http://www.sergel.com.br"}}, {"type": "node", "id": 5937848292, "lat": -22.9040863, "lon": -47.0714578, "tags": {"amenity": "bar"}}, {"type": "node", "id": 5937848293, "lat": -22.8997945, "lon": -47.0612035, "tags": {"amenity": "pub"}}, {"type": "node", "id": 5937870185, "lat": -22.8933043, "lon": -47.090473, "tags": {"addr:postcode": "13060-738", "addr:street": "Av. Mal. Rondon, 985 - Jardim Chapad\u00e3o", "amenity": "ice_cream", "name": "Sergel", "name:pt": "Sorveteria Sergel", "opening_hours": "Mo-Su 12:00-20:00", "phone": "(19) 3243-8600", "website": "http://www.sergel.com.br"}}, {"type": "node", "id": 5955006699, "lat": -22.9296864, "lon": -47.0706775, "tags": {"amenity": "fast_food", "name": "Frango Assado"}}, {"type": "node", "id": 5955682585, "lat": -22.9171745, "lon": -47.1119796, "tags": {"amenity": "bar"}}, {"type": "node", "id": 5955718085, "lat": -22.9472819, "lon": -47.1594497, "tags": {"amenity": "ice_cream", "name": "Rofavi Sorveteria"}}, {"type": "node", "id": 5957562085, "lat": -22.9205836, "lon": -47.1114779, "tags": {"amenity": "pub"}}, {"type": "node", "id": 5973389791, "lat": -22.9255934, "lon": -47.0815379, "tags": {"amenity": "fast_food", "cuisine": "burger", "name": "Lanch\u00e3o Hamburgueres & Cia"}}, {"type": "node", "id": 5978943598, "lat": -22.8289554, "lon": -47.0785251, "tags": {"amenity": "pub", "brewery": "various", "name": "T\u00e1buas", "outdoor_seating": "yes", "smoking": "no"}}, {"type": "node", "id": 5978943599, "lat": -22.829231, "lon": -47.0787638}, {"type": "node", "id": 5978943600, "lat": -22.8292075, "lon": -47.0786149}, {"type": "node", "id": 5978943601, "lat": -22.8293966, "lon": -47.0785747}, {"type": "node", "id": 5978943602, "lat": -22.8294226, "lon": -47.0787289}, {"type": "node", "id": 5978943616, "lat": -22.8283695, "lon": -47.0788349}, {"type": "node", "id": 5978943617, "lat": -22.8284733, "lon": -47.0788188}, {"type": "node", "id": 5978943618, "lat": -22.828498, "lon": -47.0789582}, {"type": "node", "id": 5978943619, "lat": -22.8284239, "lon": -47.0789824}, {"type": "node", "id": 5978943620, "lat": -22.8283991, "lon": -47.0789784}, {"type": "node", "id": 5978943621, "lat": -22.8283843, "lon": -47.0789636}, {"type": "node", "id": 5978943622, "lat": -22.8283769, "lon": -47.0789475}, {"type": "node", "id": 5978943623, "lat": -22.828587, "lon": -47.0789126}, {"type": "node", "id": 5978943624, "lat": -22.8285413, "lon": -47.078623}, {"type": "node", "id": 5978943625, "lat": -22.8284412, "lon": -47.0786444}, {"type": "node", "id": 5978943626, "lat": -22.8284923, "lon": -47.078926}, {"type": "node", "id": 5978943627, "lat": -22.8326344, "lon": -47.0786136}, {"type": "node", "id": 5978943628, "lat": -22.8327086, "lon": -47.078635}, {"type": "node", "id": 5978943629, "lat": -22.8327729, "lon": -47.0784017}, {"type": "node", "id": 5978943630, "lat": -22.8326888, "lon": -47.0783722}, {"type": "node", "id": 5978943631, "lat": -22.8326666, "lon": -47.0784848}, {"type": "node", "id": 5981780386, "lat": -22.900543, "lon": -47.0487219, "tags": {"addr:housenumber": "36", "addr:postcode": "13092-106", "addr:street": "Rua Gustavo Ambrust", "amenity": "restaurant", "internet_access": "wlan", "name": "Sterna cafe", "opening_hours": "Mo-Fr 09:00-18:00"}}, {"type": "node", "id": 5981789585, "lat": -22.9032746, "lon": -47.0498623, "tags": {"addr:housenumber": "59", "addr:postcode": "13025-050", "addr:street": "Rua Maria Monteiro", "amenity": "restaurant", "cuisine": "french", "name": "Gallo Nero"}}, {"type": "node", "id": 5981789685, "lat": -22.8992752, "lon": -47.0517198, "tags": {"addr:housenumber": "58", "addr:postcode": "13025-300", "addr:street": "Rua Sampainho", "amenity": "restaurant", "cuisine": "thai", "name": "Lagundri"}}, {"type": "node", "id": 6153527017, "lat": -22.9017267, "lon": -47.0546507, "tags": {"amenity": "fast_food", "name": "Nosso A\u00e7ai"}}, {"type": "node", "id": 6153527018, "lat": -22.9019143, "lon": -47.0551751, "tags": {"amenity": "restaurant", "name": "Trem B\u00e3o"}}, {"type": "node", "id": 6153898745, "lat": -22.9015972, "lon": -47.0508068, "tags": {"amenity": "restaurant", "name": "Macaxeira"}}, {"type": "node", "id": 6153910490, "lat": -22.8954663, "lon": -47.0550108, "tags": {"addr:housenumber": "40", "amenity": "restaurant", "name": "Bronco"}}, {"type": "node", "id": 6153910491, "lat": -22.8941835, "lon": -47.0535548, "tags": {"amenity": "restaurant", "name": "Rancho Colonial"}}, {"type": "node", "id": 6153910638, "lat": -22.894134, "lon": -47.0533939, "tags": {"amenity": "restaurant", "name": "Cakenow"}}, {"type": "node", "id": 6153910639, "lat": -22.9045123, "lon": -47.0523092, "tags": {"amenity": "restaurant", "name": "City tortas"}}, {"type": "node", "id": 6153910651, "lat": -22.910616, "lon": -47.0548857, "tags": {"amenity": "fast_food", "name": "Aquidab\u00e3"}}, {"type": "node", "id": 6153910652, "lat": -22.9101925, "lon": -47.0537613, "tags": {"amenity": "restaurant", "name": "Caro de Boi"}}, {"type": "node", "id": 6153910654, "lat": -22.9064745, "lon": -47.0540591, "tags": {"amenity": "restaurant", "name": "Ponto Um"}}, {"type": "node", "id": 6153910874, "lat": -22.91041, "lon": -47.054331, "tags": {"addr:housenumber": "620", "amenity": "restaurant", "name": "Pizza do Bosque"}}, {"type": "node", "id": 6153911552, "lat": -22.8934876, "lon": -47.0506456, "tags": {"amenity": "restaurant", "name": "Ragatella"}}, {"type": "node", "id": 6230860596, "lat": -22.9032449, "lon": -47.0636195, "tags": {"addr:street": "Avenida Benjamin Constant", "amenity": "fast_food", "contact:mobile": "+55 19 98299 8660", "cuisine": "pastel", "name": "Pastelaria Formosa"}}, {"type": "node", "id": 6230860597, "lat": -22.9034079, "lon": -47.0635015, "tags": {"addr:street": "Avenida Benjamin Constant", "amenity": "fast_food", "contact:mobile": "+55 19 98404 3978", "cuisine": "pastel", "name": "Pastel Cia"}}, {"type": "node", "id": 6232629787, "lat": -22.8920917, "lon": -47.0759763, "tags": {"addr:street": "Av Andrade Neves", "amenity": "bar", "name": "Esta\u00e7\u00e3o Castelo"}}, {"type": "node", "id": 6232634287, "lat": -22.812587, "lon": -47.0182596, "tags": {"addr:street": "Rua Ara\u00e7andiva", "amenity": "restaurant", "name": "Vila Antiga", "opening_hours": "Su 12:00-16:00"}}, {"type": "node", "id": 6232634289, "lat": -22.924652, "lon": -47.1279981, "tags": {"amenity": "restaurant", "name": "O Matuto Express"}}, {"type": "node", "id": 6352341787, "lat": -22.9095859, "lon": -47.0469582, "tags": {"addr:housenumber": "1266", "addr:postcode": "13026-302", "addr:street": "Rua Uruguaiana", "amenity": "bar", "internet_access": "wlan", "name": "Botequim da Zepha", "opening_hours": "Tu-Fr 17:00-23:00; Sa 15:00-23:00", "phone": "19-92006639"}}, {"type": "node", "id": 6381828810, "lat": -22.8919331, "lon": -47.0967798}, {"type": "node", "id": 6381828811, "lat": -22.8918102, "lon": -47.0968066}, {"type": "node", "id": 6381828812, "lat": -22.8917706, "lon": -47.0966249}, {"type": "node", "id": 6381828813, "lat": -22.8918979, "lon": -47.0965934}, {"type": "node", "id": 6381828814, "lat": -22.8919176, "lon": -47.0966832}, {"type": "node", "id": 6387065086, "lat": -22.8727513, "lon": -47.0496045}, {"type": "node", "id": 6387065087, "lat": -22.8728477, "lon": -47.049583}, {"type": "node", "id": 6387065088, "lat": -22.8728254, "lon": -47.0494543}, {"type": "node", "id": 6387065089, "lat": -22.8727266, "lon": -47.0494784}, {"type": "node", "id": 6390805466, "lat": -23.0114864, "lon": -47.1431264}, {"type": "node", "id": 6390805467, "lat": -23.0113956, "lon": -47.1431891}, {"type": "node", "id": 6390805468, "lat": -23.0110611, "lon": -47.1427858}, {"type": "node", "id": 6390805473, "lat": -23.0115135, "lon": -47.1428025}, {"type": "node", "id": 6392476972, "lat": -22.8725152, "lon": -47.0476721}, {"type": "node", "id": 6392476973, "lat": -22.8724529, "lon": -47.0473208}, {"type": "node", "id": 6392476974, "lat": -22.8723826, "lon": -47.0473203}, {"type": "node", "id": 6392476975, "lat": -22.8723291, "lon": -47.0475472}, {"type": "node", "id": 6392476976, "lat": -22.8724365, "lon": -47.0476843}, {"type": "node", "id": 6400825387, "lat": -22.8611238, "lon": -47.0435356, "tags": {"amenity": "restaurant", "name": "Restaurante D' Oliveira", "name:pt": "Restaurante D'Oliveira"}}, {"type": "node", "id": 6404707586, "lat": -22.8612914, "lon": -47.0434272, "tags": {"amenity": "restaurant", "name": "ULA Buffet"}}, {"type": "node", "id": 6409245716, "lat": -22.8489104, "lon": -47.0381336}, {"type": "node", "id": 6409245717, "lat": -22.8488605, "lon": -47.0381049}, {"type": "node", "id": 6409245718, "lat": -22.8489047, "lon": -47.0380043}, {"type": "node", "id": 6409245719, "lat": -22.8489283, "lon": -47.0380353}, {"type": "node", "id": 6463077986, "lat": -22.9039201, "lon": -47.0731609, "tags": {"amenity": "restaurant", "name": "Anna Bela"}}, {"type": "node", "id": 6511323008, "lat": -22.8836101, "lon": -47.0708678}, {"type": "node", "id": 6511323009, "lat": -22.8835065, "lon": -47.0706829}, {"type": "node", "id": 6511323010, "lat": -22.883603, "lon": -47.0706074}, {"type": "node", "id": 6511323011, "lat": -22.8836868, "lon": -47.0707553}, {"type": "node", "id": 6511323012, "lat": -22.8836655, "lon": -47.0707677}, {"type": "node", "id": 6511323013, "lat": -22.883691, "lon": -47.0708139}, {"type": "node", "id": 6517766689, "lat": -22.8995126, "lon": -47.0491839, "tags": {"amenity": "bar", "name:en": "Grainne\u2019s Pub"}}, {"type": "node", "id": 6517766786, "lat": -22.880451, "lon": -47.0549118, "tags": {"amenity": "bar", "name:en": "Django Brewhouse"}}, {"type": "node", "id": 6517766890, "lat": -22.8794264, "lon": -47.0541682, "tags": {"amenity": "bar", "name:en": "Cervejoteca"}}, {"type": "node", "id": 6517766891, "lat": -22.8809132, "lon": -47.0552615, "tags": {"amenity": "bar", "name:en": "Cervejaria Burgman"}}, {"type": "node", "id": 6517766892, "lat": -22.9025809, "lon": -47.0487449, "tags": {"amenity": "bar", "name:en": "Steiner Bar do Alem\u00e3o Itu"}}, {"type": "node", "id": 6519054186, "lat": -22.8867308, "lon": -46.9396202, "tags": {"amenity": "restaurant", "name": "Costel\u00e3o", "name:pt": "Costel\u00e3o Fogo de Ch\u00e3o"}}, {"type": "node", "id": 6536857285, "lat": -22.9373879, "lon": -47.1583601, "tags": {"addr:street": "Avenida John Boyd Dunlop", "amenity": "fast_food", "drive_through": "no", "mobile": "+55 19 98397 0355", "name": "Flor da Vila Mini Salgados", "phone": "+55 19 2216 1076"}}, {"type": "node", "id": 6577671461, "lat": -22.8845236, "lon": -47.0593077, "tags": {"addr:housenumber": "340", "addr:street": "Rua Doutor Osvaldo Cruz", "amenity": "fast_food", "contact:email": "expressovegano@gmail.com", "contact:facebook": "expressovegano", "cuisine": "coffee_shop", "diet:vegan": "only", "name": "Expresso Vegano", "opening_hours": "Mo-Fr 09:00-18:00; Sa 10:00-15:00", "shop": "frozen_food"}}, {"type": "node", "id": 6577689056, "lat": -22.8811848, "lon": -47.0694921, "tags": {"addr:housenumber": "350", "addr:street": "Avenida Imperatriz Leopoldina", "amenity": "restaurant", "contact:facebook": "pizzapowervegan", "cuisine": "pizza", "delivery": "no", "diet:vegan": "only", "name": "Pizza Power Vegan", "opening_hours": "We-Sa 18:00-22:00"}}, {"type": "node", "id": 6581745586, "lat": -22.9044537, "lon": -47.0583664, "tags": {"amenity": "cafe", "name": "Wood(Caf\u00e9s Especiais)"}}, {"type": "node", "id": 6581938685, "lat": -22.9058107, "lon": -47.0577031, "tags": {"amenity": "restaurant", "name": "Bento Box"}}, {"type": "node", "id": 6594674585, "lat": -22.8977718, "lon": -47.0848372, "tags": {"amenity": "restaurant", "name": "Jdalvos(Peixes e Frutos do Mar)"}}, {"type": "node", "id": 6784531485, "lat": -22.9062256, "lon": -47.0392215, "tags": {"addr:housenumber": "2662", "addr:street": "Avenida Doutor Moraes Sales", "amenity": "restaurant", "name": "Capela Bar", "phone": "(19) 3255-1140"}}, {"type": "node", "id": 6827327489, "lat": -22.896102, "lon": -47.0832332}, {"type": "node", "id": 6827327490, "lat": -22.8962268, "lon": -47.0829624}, {"type": "node", "id": 6827327491, "lat": -22.8963225, "lon": -47.0830758}, {"type": "node", "id": 6827327492, "lat": -22.896192, "lon": -47.0833151}, {"type": "node", "id": 6838708275, "lat": -22.8945267, "lon": -47.0504116, "tags": {"addr:housenumber": "810", "amenity": "restaurant", "name": "Leopoldo"}}, {"type": "node", "id": 6838732110, "lat": -22.8948442, "lon": -47.0507925, "tags": {"amenity": "restaurant", "name": "Artesanalli"}}, {"type": "node", "id": 6838736572, "lat": -22.893627, "lon": -47.0513471, "tags": {"addr:housenumber": "620", "amenity": "restaurant", "name": "Romano's"}}, {"type": "node", "id": 6838739521, "lat": -22.8921879, "lon": -47.0555592, "tags": {"addr:housenumber": "311", "amenity": "restaurant", "name": "Die Oma"}}, {"type": "node", "id": 6838743905, "lat": -22.8914918, "lon": -47.053922, "tags": {"addr:housenumber": "217", "amenity": "restaurant", "name": "Mana Poke"}}, {"type": "node", "id": 6838753137, "lat": -22.8929031, "lon": -47.0542345, "tags": {"amenity": "restaurant", "name": "Unico"}}, {"type": "node", "id": 6838754302, "lat": -22.894907, "lon": -47.0549466, "tags": {"addr:housenumber": "235", "amenity": "restaurant", "name": "Japaum"}}, {"type": "node", "id": 6838758593, "lat": -22.8935098, "lon": -47.0505654, "tags": {"amenity": "restaurant", "name": "Duke"}}, {"type": "node", "id": 6838760784, "lat": -22.893646, "lon": -47.0511744, "tags": {"amenity": "fast_food", "name": "Cachorr\u00e3o"}}, {"type": "node", "id": 6838761647, "lat": -22.8956672, "lon": -47.0503446, "tags": {"amenity": "restaurant", "name": "L'Alouette"}}, {"type": "node", "id": 6838763423, "lat": -22.8928577, "lon": -47.0542594, "tags": {"amenity": "bar", "name": "Rockers"}}, {"type": "node", "id": 6864188600, "lat": -22.9867197, "lon": -47.0966317, "tags": {"addr:housenumber": "227", "amenity": "cafe", "name": "cafeteria da  rosa"}}, {"type": "node", "id": 6902916559, "lat": -22.8822906, "lon": -47.066627}, {"type": "node", "id": 6902916560, "lat": -22.88247, "lon": -47.0665609}, {"type": "node", "id": 6902916561, "lat": -22.8824453, "lon": -47.066496}, {"type": "node", "id": 6902916562, "lat": -22.8823046, "lon": -47.0665469}, {"type": "node", "id": 6983614488, "lat": -22.8828898, "lon": -46.8769131, "tags": {"addr:city": "Campinas", "addr:street": "Rodovia Jos\u00e9 Bonif\u00e1cio Coutinho Nogueira", "addr:suburb": "Sousas", "amenity": "restaurant", "name": "Restaurante Feij\u00e3o com Tranqueira", "phone": "(19) 3298-6682"}}, {"type": "node", "id": 6983614493, "lat": -22.842642, "lon": -46.8876032, "tags": {"amenity": "restaurant", "name": "Bar/Restaurante Vicent\u00e3o"}}, {"type": "node", "id": 7107954327, "lat": -22.899176, "lon": -47.0510527, "tags": {"addr:housenumber": "570", "amenity": "restaurant", "name": "Guaco"}}, {"type": "node", "id": 7107957175, "lat": -22.8212135, "lon": -47.0819119, "tags": {"amenity": "ice_cream", "name": "Pallure"}}, {"type": "node", "id": 7107975138, "lat": -22.8227191, "lon": -47.0829132, "tags": {"amenity": "restaurant", "cuisine": "pizza", "name": "Bar\u00e3o das Pizzas"}}, {"type": "node", "id": 7107989733, "lat": -22.8130507, "lon": -47.0797501, "tags": {"amenity": "ice_cream", "name": "Color\u00ea"}}, {"type": "node", "id": 7108005036, "lat": -22.8207258, "lon": -47.08106, "tags": {"addr:housenumber": "2003", "amenity": "restaurant", "cuisine": "japanese", "name": "Yakisobar\u00e3o"}}, {"type": "node", "id": 7108005423, "lat": -22.8149465, "lon": -47.0802344, "tags": {"amenity": "restaurant", "name": "Lanal\u00e9lia"}}, {"type": "node", "id": 7108011328, "lat": -22.8180533, "lon": -47.0812501, "tags": {"amenity": "restaurant", "name": "Primi Piatti"}}, {"type": "node", "id": 7108013896, "lat": -22.8833853, "lon": -47.0557154, "tags": {"amenity": "restaurant", "name": "Casa do Bacalhau"}}, {"type": "node", "id": 7108013898, "lat": -22.8889249, "lon": -47.0537366, "tags": {"addr:housenumber": "1750", "amenity": "restaurant", "name": "El Sagrado"}}, {"type": "node", "id": 7108017199, "lat": -22.8211157, "lon": -47.0832005, "tags": {"amenity": "restaurant", "name": "Namaste Salad"}}, {"type": "node", "id": 7108017200, "lat": -22.8355205, "lon": -47.0796618, "tags": {"amenity": "fast_food", "name": "Bigode"}}, {"type": "node", "id": 7108022651, "lat": -22.8973566, "lon": -47.0528436, "tags": {"addr:housenumber": "1186", "amenity": "ice_cream", "description": "Tem delivery, Gelatto, Caf\u00e9s", "name": "Borelli", "phone": "019-3396-9543"}}, {"type": "node", "id": 7108024002, "lat": -22.9019108, "lon": -47.0510254, "tags": {"amenity": "restaurant", "name": "Macaxeira"}}, {"type": "node", "id": 7108024477, "lat": -22.8986342, "lon": -47.054831, "tags": {"amenity": "restaurant", "name": "Dona Fiica", "opening_hours": "Mo-Sa 11:00-15:00"}}, {"type": "node", "id": 7108028914, "lat": -22.8282445, "lon": -47.078993, "tags": {"amenity": "restaurant", "cuisine": "pizza", "name": "Esta\u00e7\u00e3o das Pizzas"}}, {"type": "node", "id": 7108029177, "lat": -22.8236974, "lon": -47.0817816, "tags": {"amenity": "bar", "name": "Confra"}}, {"type": "node", "id": 7108031009, "lat": -22.896413, "lon": -47.0540356, "tags": {"amenity": "restaurant", "name": "Maialini"}}, {"type": "node", "id": 7108031595, "lat": -22.9006415, "lon": -47.0506828, "tags": {"amenity": "restaurant", "name": "Banana"}}, {"type": "node", "id": 7108032123, "lat": -22.8915872, "lon": -47.052712, "tags": {"addr:housenumber": "319", "amenity": "bar", "name": "Fritz"}}, {"type": "node", "id": 7108032185, "lat": -22.8965445, "lon": -47.0521756, "tags": {"addr:housenumber": "887", "amenity": "restaurant", "name": "Wakagi"}}, {"type": "node", "id": 7159476586, "lat": -22.9339268, "lon": -47.0898849, "tags": {"addr:housenumber": "676", "addr:street": "Avenida Senador Ant\u00f4nio Lacerda Franco", "amenity": "restaurant", "name": "Quer\u00eancia", "name:pt": "Restaurante Quer\u00eancia Do Sul", "opening_hours": "Mo-Sa 10:30-15:00", "phone": "019 3268 5069"}}, {"type": "node", "id": 7179015783, "lat": -22.8926285, "lon": -47.0562171, "tags": {"addr:housenumber": "378", "amenity": "restaurant", "name": "Damasco"}}, {"type": "node", "id": 7179046767, "lat": -22.8920499, "lon": -47.0561161, "tags": {"amenity": "restaurant", "name": "La Bella Cucina"}}, {"type": "node", "id": 7179051347, "lat": -22.8908944, "lon": -47.0583043, "tags": {"amenity": "fast_food", "name": "High burguer"}}, {"type": "node", "id": 7179052993, "lat": -22.9056297, "lon": -47.0581933, "tags": {"amenity": "restaurant", "name": "Bento Box"}}, {"type": "node", "id": 7588073838, "lat": -22.8449801, "lon": -47.1186137}, {"type": "node", "id": 7610078838, "lat": -22.8450467, "lon": -47.118652}, {"type": "node", "id": 7610078839, "lat": -22.8450842, "lon": -47.1185724}, {"type": "node", "id": 7610078840, "lat": -22.8450185, "lon": -47.1185284}, {"type": "node", "id": 7654816905, "lat": -22.9071249, "lon": -47.0402764, "tags": {"addr:housenumber": "671", "addr:street": "Av. Claudio Celestino de Toledo Soares", "amenity": "bar", "description": "Distribuidor oficial da Cervejaria Dama Bier Campinas e regi\u00e3o, atendemos particulares, bares, restaurantes, etc.\nAl\u00e9m de contar com um delicioso espa\u00e7o para confraternizar com amigos e familiares.\nEsperamos sua visita.", "name": "Dama Delivery Campinas", "opening_hours": "Tu-Fr 14:00-20:00; Sa 10:00-20:00", "phone": "(19) 99846-3442"}}, {"type": "node", "id": 7795639028, "lat": -23.0113938, "lon": -47.1431869}, {"type": "node", "id": 7795639029, "lat": -23.0113031, "lon": -47.1430776}, {"type": "node", "id": 7844348470, "lat": -23.04556, "lon": -47.1298847}, {"type": "node", "id": 7844348471, "lat": -23.045486, "lon": -47.1297506}, {"type": "node", "id": 7844348472, "lat": -23.0456365, "lon": -47.1296299}, {"type": "node", "id": 7844348473, "lat": -23.0457131, "lon": -47.129764}, {"type": "node", "id": 7844348474, "lat": -23.045602, "lon": -47.1285275}, {"type": "node", "id": 7844348475, "lat": -23.0455378, "lon": -47.1285757}, {"type": "node", "id": 7844348476, "lat": -23.0456242, "lon": -47.1287125}, {"type": "node", "id": 7844348477, "lat": -23.0457229, "lon": -47.1286401}, {"type": "node", "id": 7844348478, "lat": -23.0456119, "lon": -47.1285087}, {"type": "node", "id": 7844348484, "lat": -23.0441345, "lon": -47.130989}, {"type": "node", "id": 7844348485, "lat": -23.0442262, "lon": -47.1309062}, {"type": "node", "id": 7844348486, "lat": -23.0441672, "lon": -47.1308268}, {"type": "node", "id": 7844348487, "lat": -23.0440676, "lon": -47.1309163}, {"type": "node", "id": 7844348500, "lat": -23.0447795, "lon": -47.1282234}, {"type": "node", "id": 7844348501, "lat": -23.0448617, "lon": -47.1282585}, {"type": "node", "id": 7844348502, "lat": -23.0448069, "lon": -47.1284148}, {"type": "node", "id": 7844348503, "lat": -23.0447159, "lon": -47.1283766}, {"type": "node", "id": 7844348520, "lat": -23.0429289, "lon": -47.1286456}, {"type": "node", "id": 7844348521, "lat": -23.0430493, "lon": -47.1285882}, {"type": "node", "id": 7844348522, "lat": -23.043017, "lon": -47.1285223}, {"type": "node", "id": 7844348523, "lat": -23.042879, "lon": -47.1285914}, {"type": "node", "id": 7844348524, "lat": -23.0428996, "lon": -47.1286605}, {"type": "node", "id": 7844348554, "lat": -23.0425955, "lon": -47.1290739}, {"type": "node", "id": 7844348555, "lat": -23.0425676, "lon": -47.1290372}, {"type": "node", "id": 7844348556, "lat": -23.0425159, "lon": -47.1291089}, {"type": "node", "id": 7844348557, "lat": -23.0425614, "lon": -47.1291296}, {"type": "node", "id": 7844348567, "lat": -23.0451713, "lon": -47.1312527}, {"type": "node", "id": 7844348568, "lat": -23.0452711, "lon": -47.1311709}, {"type": "node", "id": 7844348569, "lat": -23.0453143, "lon": -47.1312339}, {"type": "node", "id": 7844348570, "lat": -23.0452255, "lon": -47.1313196}, {"type": "node", "id": 8445433216, "lat": -22.8952806, "lon": -47.0713163, "tags": {"amenity": "restaurant", "name": "Casa Peruana Restaurante Cevicheria", "phone": "+55 19 25180031"}}, {"type": "node", "id": 8446736863, "lat": -22.8894534, "lon": -47.0726062, "tags": {"addr:city": "Campinas", "addr:housenumber": "813", "addr:postcode": "13073-221", "addr:street": "Rua Frei Manuel da Ressurrei\u00e7\u00e3o", "addr:suburb": "Jardim Guanabara", "amenity": "restaurant", "cuisine": "regional;brazilian", "name": "Restaurante Canto Mineiro"}}, {"type": "node", "id": 8446736868, "lat": -22.8928055, "lon": -47.0729494, "tags": {"addr:city": "Campinas", "addr:housenumber": "16", "addr:postcode": "13070-050", "addr:street": "Rua Jo\u00e3o Arruda", "addr:suburb": "Jardim Chapad\u00e3o", "amenity": "restaurant", "name": "Frango Atropelado", "phone": "+55 19 32429838", "website": "http://www.frangoatropelado.com.br/"}}, {"type": "node", "id": 8446736869, "lat": -22.8916741, "lon": -47.0758104, "tags": {"addr:city": "Campinas", "addr:housenumber": "2042", "addr:postcode": "13070-144", "addr:street": "Avenida Andrade Neves", "addr:suburb": "Castelo", "amenity": "pub", "name": "Jimmy Rocker", "website": "http://jimmyrocker.com.br/"}}, {"type": "node", "id": 8446736871, "lat": -22.8920894, "lon": -47.0755794, "tags": {"addr:city": "Campinas", "addr:housenumber": "1992", "addr:postcode": "13013-161", "addr:street": "Avenida Andrade Neves", "addr:suburb": "Centro", "amenity": "restaurant", "name": "Ponto da Esfiha"}}, {"type": "node", "id": 8476110875, "lat": -22.8816276, "lon": -47.0643522, "tags": {"amenity": "fast_food", "name": "Kiffa Lanches"}}, {"type": "node", "id": 8476110884, "lat": -22.884161, "lon": -47.0681584, "tags": {"amenity": "restaurant", "name": "Akitikab's Restaurante e Churrascaria"}}, {"type": "node", "id": 8613632186, "lat": -22.9077836, "lon": -47.0855153}, {"type": "node", "id": 8613632187, "lat": -22.9076219, "lon": -47.0856916}, {"type": "node", "id": 8613632189, "lat": -22.907842, "lon": -47.0855777}, {"type": "node", "id": 8613632190, "lat": -22.9076791, "lon": -47.0857571}, {"type": "node", "id": 8825211438, "lat": -22.8932977, "lon": -47.0546674, "tags": {"addr:city": "Campinas", "addr:housenumber": "510", "addr:postcode": "13024-021", "addr:street": "Rua Santos Dumont", "addr:suburb": "Cambu\u00ed", "amenity": "cafe", "cuisine": "coffee", "name": "Mais1 Caf\u00e9 - Cambu\u00ed", "website": "https://www.mais1cafe.com.br"}}, {"type": "node", "id": 8944269593, "lat": -22.8562021, "lon": -47.1128581}, {"type": "node", "id": 8944269594, "lat": -22.8562937, "lon": -47.112965}, {"type": "node", "id": 8944269595, "lat": -22.8563285, "lon": -47.1129302}, {"type": "node", "id": 8944269596, "lat": -22.8563551, "lon": -47.1129654}, {"type": "node", "id": 8944269597, "lat": -22.8564158, "lon": -47.1129068}, {"type": "node", "id": 8944269598, "lat": -22.8562977, "lon": -47.1127661}, {"type": "node", "id": 8944269599, "lat": -22.8562553, "lon": -47.1128076}, {"type": "node", "id": 8944269600, "lat": -22.8562462, "lon": -47.1127958}, {"type": "node", "id": 8944269601, "lat": -22.856257, "lon": -47.1127814}, {"type": "node", "id": 8944269602, "lat": -22.8561846, "lon": -47.1126975}, {"type": "node", "id": 8944269603, "lat": -22.8561306, "lon": -47.1127534}, {"type": "node", "id": 8944269604, "lat": -22.8562029, "lon": -47.1128319}, {"type": "node", "id": 8944269605, "lat": -22.8562279, "lon": -47.1128076}, {"type": "node", "id": 8944269606, "lat": -22.8562387, "lon": -47.112822}, {"type": "node", "id": 9035641343, "lat": -22.8827607, "lon": -47.0683516, "tags": {"addr:city": "Campinas", "addr:housenumber": "542", "addr:postcode": "13073-035", "addr:street": "Rua Dom Pedro I", "addr:suburb": "Vila Nova", "amenity": "restaurant", "cuisine": "steak_house", "name": "espetaria Bar\u00e3o de Campinas", "phone": "55 19996502030"}}, {"type": "node", "id": 9094247331, "lat": -22.8513325, "lon": -47.0659459}, {"type": "node", "id": 9094247332, "lat": -22.8514992, "lon": -47.0658809}, {"type": "node", "id": 9094247333, "lat": -22.851576, "lon": -47.0661349}, {"type": "node", "id": 9094247334, "lat": -22.8514075, "lon": -47.066198}, {"type": "node", "id": 9107488845, "lat": -22.9163889, "lon": -47.0422388, "tags": {"addr:city": "Campinas", "addr:housenumber": "925", "addr:postcode": "13100-450", "addr:street": "Avenida Doutor Arlindo Joaquim de Lemos", "addr:suburb": "Vila Lemos", "amenity": "fast_food", "cuisine": "burger;regional;sandwich;beer", "drive_through": "yes", "name": "Fininho Burger", "opening_hours": "Mo-Su 11:00-23:00", "phone": "+551997454587", "website": "https://linktr.ee/fininho.burger"}}, {"type": "node", "id": 9175228928, "lat": -22.8264168, "lon": -47.0729192, "tags": {"addr:city": "Campinas", "addr:housenumber": "1101", "addr:postcode": "13084-791", "addr:street": "Avenida Doutor Romeu Tortima", "addr:suburb": "Jardim Santa Genebra II", "amenity": "fast_food", "cuisine": "mexican", "drive_through": "no", "name": "De La Rua Mexican Burritos", "opening_hours": "Mo-Fr 11:00-22:00; Sa-Su 17:30-22:00", "phone": "+5519981236289", "website": "https://linktr.ee/Delarua"}}, {"type": "node", "id": 9278874607, "lat": -22.9271691, "lon": -47.0555365, "tags": {"addr:city": "Campinas", "addr:housenumber": "1220", "addr:postcode": "13041-005", "addr:street": "Avenida Washington Luis", "addr:suburb": "Vila Marieta", "amenity": "fast_food", "cuisine": "burger", "name": "Alteroza Burger", "opening_hours": "24/7", "operator": "Dyego Rocha", "phone": "19974085777", "website": "https://www.instagram.com/explore/locations/1924839220932937/brazil/campinas-sao-paulo/alteroza-burger/"}}, {"type": "node", "id": 9678647353, "lat": -22.9369452, "lon": -47.0559613}, {"type": "node", "id": 9678647354, "lat": -22.9370144, "lon": -47.0558358}, {"type": "node", "id": 9678647355, "lat": -22.9370124, "lon": -47.0557864}, {"type": "node", "id": 9678647356, "lat": -22.9368672, "lon": -47.0557396}, {"type": "node", "id": 9678647357, "lat": -22.9368281, "lon": -47.0559065}, {"type": "node", "id": 9681468793, "lat": -22.9160586, "lon": -47.1014812}, {"type": "node", "id": 9681468795, "lat": -22.9159911, "lon": -47.1013796}, {"type": "node", "id": 9681468807, "lat": -22.9160533, "lon": -47.1014883}, {"type": "node", "id": 9681507378, "lat": -22.9191603, "lon": -47.1065092}, {"type": "node", "id": 9681507379, "lat": -22.9191342, "lon": -47.1064128}, {"type": "node", "id": 9681507380, "lat": -22.9193112, "lon": -47.1063563}, {"type": "node", "id": 9681507381, "lat": -22.9193373, "lon": -47.1064526}, {"type": "node", "id": 9681507382, "lat": -22.9192705, "lon": -47.1068596}, {"type": "node", "id": 9681507383, "lat": -22.9192127, "lon": -47.1067755}, {"type": "node", "id": 9681507384, "lat": -22.9192115, "lon": -47.1067608}, {"type": "node", "id": 9681507385, "lat": -22.9192263, "lon": -47.1067299}, {"type": "node", "id": 9681507386, "lat": -22.9193466, "lon": -47.1066325}, {"type": "node", "id": 9681507387, "lat": -22.9194197, "lon": -47.1067388}, {"type": "node", "id": 9681507395, "lat": -22.9197142, "lon": -47.1082621}, {"type": "node", "id": 9681507396, "lat": -22.9198491, "lon": -47.1081818}, {"type": "node", "id": 9681507399, "lat": -22.919877, "lon": -47.108237}, {"type": "node", "id": 9681507400, "lat": -22.9197421, "lon": -47.1083173}, {"type": "node", "id": 9681507402, "lat": -22.9194607, "lon": -47.1094754}, {"type": "node", "id": 9681507403, "lat": -22.919688, "lon": -47.1093842}, {"type": "node", "id": 9681507412, "lat": -22.9194087, "lon": -47.1094472}, {"type": "node", "id": 9681507413, "lat": -22.9194465, "lon": -47.1094339}, {"type": "node", "id": 9681507417, "lat": -22.9197236, "lon": -47.1095113}, {"type": "node", "id": 9681507418, "lat": -22.9196434, "lon": -47.109541}, {"type": "node", "id": 9681507419, "lat": -22.9196051, "lon": -47.1094174}, {"type": "node", "id": 9681507420, "lat": -22.9195795, "lon": -47.1095674}, {"type": "node", "id": 9681507421, "lat": -22.9196013, "lon": -47.1096389}, {"type": "node", "id": 9681507422, "lat": -22.91948, "lon": -47.1096825}, {"type": "node", "id": 9681507423, "lat": -22.9194244, "lon": -47.1095003}, {"type": "node", "id": 9681507424, "lat": -22.9193711, "lon": -47.1095194}, {"type": "node", "id": 9681507425, "lat": -22.9193593, "lon": -47.1094807}, {"type": "node", "id": 9681507426, "lat": -22.9193704, "lon": -47.1094606}, {"type": "node", "id": 9681507427, "lat": -22.9199008, "lon": -47.1084674}, {"type": "node", "id": 9681507428, "lat": -22.9200023, "lon": -47.1084136}, {"type": "node", "id": 9681507429, "lat": -22.919937, "lon": -47.1082682}, {"type": "node", "id": 9681507430, "lat": -22.9198355, "lon": -47.108322}, {"type": "node", "id": 9693464853, "lat": -22.9021157, "lon": -46.8274115}, {"type": "node", "id": 9693464854, "lat": -22.9022454, "lon": -46.8274209}, {"type": "node", "id": 9693464855, "lat": -22.9022479, "lon": -46.8272908}, {"type": "node", "id": 9693464856, "lat": -22.9022998, "lon": -46.827256}, {"type": "node", "id": 9693464857, "lat": -22.9023072, "lon": -46.8271786}, {"type": "node", "id": 9693464858, "lat": -22.9022451, "lon": -46.8271642}, {"type": "node", "id": 9693464859, "lat": -22.9022343, "lon": -46.8271889}, {"type": "node", "id": 9693464860, "lat": -22.9022133, "lon": -46.8271674}, {"type": "node", "id": 9693464861, "lat": -22.9021577, "lon": -46.8271862}, {"type": "node", "id": 9693464862, "lat": -22.9021503, "lon": -46.8272546}, {"type": "node", "id": 9693464863, "lat": -22.9021268, "lon": -46.827268}, {"type": "node", "id": 9700693289, "lat": -22.8366671, "lon": -47.0803859}, {"type": "node", "id": 9718166160, "lat": -22.9195266, "lon": -47.1041183, "tags": {"addr:city": "Campinas", "addr:street": "Rua Ernesto Carlos Reimann", "addr:suburb": "Jardim Paulic\u00e9ia", "amenity": "restaurant", "cuisine": "pizza", "name": "Pettys"}}, {"type": "node", "id": 9721300873, "lat": -22.8450145, "lon": -47.1191026, "tags": {"amenity": "fast_food", "cuisine": "pastel", "name": "Pastelaria da Fam\u00edlia"}}, {"type": "node", "id": 9721477324, "lat": -22.8877011, "lon": -47.1119871}, {"type": "node", "id": 9721477325, "lat": -22.8878007, "lon": -47.1123612}, {"type": "node", "id": 9721477326, "lat": -22.8876303, "lon": -47.1124194}, {"type": "node", "id": 9721477327, "lat": -22.8875977, "lon": -47.1124651}, {"type": "node", "id": 9721477328, "lat": -22.8875901, "lon": -47.1124838}, {"type": "node", "id": 9721477329, "lat": -22.8875594, "lon": -47.1124921}, {"type": "node", "id": 9721477330, "lat": -22.8874541, "lon": -47.112066}, {"type": "node", "id": 9721477331, "lat": -22.8877681, "lon": -47.1119663}, {"type": "node", "id": 9721477332, "lat": -22.8878735, "lon": -47.1124048}, {"type": "node", "id": 9721477333, "lat": -22.8878179, "lon": -47.1124214}, {"type": "node", "id": 9721477334, "lat": -22.887839, "lon": -47.1124526}, {"type": "node", "id": 9721477335, "lat": -22.8878486, "lon": -47.1124921}, {"type": "node", "id": 9721477336, "lat": -22.8878486, "lon": -47.1125441}, {"type": "node", "id": 9721477337, "lat": -22.887839, "lon": -47.1125877}, {"type": "node", "id": 9721477338, "lat": -22.8878122, "lon": -47.1126313}, {"type": "node", "id": 9721477339, "lat": -22.8877777, "lon": -47.1126584}, {"type": "node", "id": 9721477340, "lat": -22.8877107, "lon": -47.1126708}, {"type": "node", "id": 9721477341, "lat": -22.8876705, "lon": -47.1126688}, {"type": "node", "id": 9721477342, "lat": -22.8876207, "lon": -47.1126417}, {"type": "node", "id": 9721477343, "lat": -22.8875843, "lon": -47.1126106}, {"type": "node", "id": 9721477344, "lat": -22.8875671, "lon": -47.1125233}, {"type": "node", "id": 9721477345, "lat": -22.8875652, "lon": -47.1125066}, {"type": "node", "id": 9721477346, "lat": -22.8875154, "lon": -47.1125274}, {"type": "node", "id": 9721477347, "lat": -22.887479, "lon": -47.1123425}, {"type": "node", "id": 9721477348, "lat": -22.8875194, "lon": -47.1123299}, {"type": "node", "id": 9721477349, "lat": -22.8875939, "lon": -47.1124983}, {"type": "node", "id": 9721477350, "lat": -22.887636, "lon": -47.1124318}, {"type": "node", "id": 9721477351, "lat": -22.8877425, "lon": -47.112381}, {"type": "node", "id": 9721477352, "lat": -22.8878179, "lon": -47.1123612}, {"type": "node", "id": 9721477353, "lat": -22.8886044, "lon": -47.1121548}, {"type": "node", "id": 9721477354, "lat": -22.8885522, "lon": -47.1119345}, {"type": "node", "id": 9721477355, "lat": -22.8886429, "lon": -47.1119091}, {"type": "node", "id": 9721477356, "lat": -22.8886952, "lon": -47.1121295}, {"type": "node", "id": 9832076186, "lat": -22.9421806, "lon": -47.1200145, "tags": {"addr:city": "Campinas", "addr:housenumber": "218", "addr:street": "Rua Manoel Arthur Cavalcanti Lacombe", "amenity": "bar", "name": "Adega Bar do Alem\u00e3o", "opening_hours": "Mon-Fri 10:00-22:00"}}, {"type": "node", "id": 9834423335, "lat": -22.9503889, "lon": -47.1231101, "tags": {"addr:city": "Campinas", "addr:street": "Rua Paulo Viana de Souza", "amenity": "restaurant", "cuisine": "artisinal;burger", "name": "Lanches Uni\u00e3o"}}, {"type": "node", "id": 9835934020, "lat": -22.9405342, "lon": -47.1224577, "tags": {"addr:city": "Campinas", "addr:housenumber": "1436", "addr:postcode": "13060-726", "addr:street": "Rua Paulo Viana de Souza", "amenity": "bar", "name": "Adega do Rafa", "opening_hours": "Tu,We 12:00-21:00; Th-Sa 12:00-22:00; Su 10:00-18:00"}}, {"type": "node", "id": 9835934021, "lat": -22.9406391, "lon": -47.122428, "tags": {"addr:city": "Campinas", "addr:housenumber": "1436", "addr:postcode": "13060-726", "addr:street": "Rua Paulo Viana de Souza", "amenity": "restaurant", "cuisine": "hot_dog", "name": "Gratinados HotDog", "opening_hours": "Tu-Su 19:00-23:00", "phone": "1930438642", "website": "https://www.ifood.com.br/delivery/campinas-sp/gratinados-hotdog-parque-residencial-vila-uniao/f64afca1-57da-4764-82ec-a0e6995b46fd"}}, {"type": "node", "id": 10175883826, "lat": -22.9111461, "lon": -47.0460393, "tags": {"addr:housenumber": "439", "addr:street": "Avenida Ayrton Senna", "amenity": "bar", "name": "Bar do Soares"}}, {"type": "node", "id": 10226232458, "lat": -22.8977327, "lon": -47.0514865, "tags": {"addr:housenumber": "744", "addr:street": "Rua Maria Monteiro", "amenity": "restaurant", "name": "Green Joy", "opening_hours": "Mo-Sa 10:00-09:45", "phone": "+55 19 992680598", "website": "www.greenjoy.com.br"}}, {"type": "node", "id": 10228571443, "lat": -22.9043537, "lon": -47.049029, "tags": {"addr:housenumber": "92", "addr:street": "Coronel Francisco Andrade Coutinho", "amenity": "restaurant", "name": "Vegetalle", "opening_hours": "Mo-Su 11:30-15:00", "phone": "+55 1932319345"}}, {"type": "node", "id": 10263182607, "lat": -22.9010251, "lon": -47.09676, "tags": {"addr:city": "Campinas", "addr:housenumber": "1121", "addr:postcode": "13033010", "addr:street": "Avenida Brigadeiro Rafael Tobias de Aguiar", "addr:suburb": "Jardim Aur\u00e9lia", "amenity": "restaurant", "cuisine": "brazilian", "name": "Vila Cuiabar", "opening_hours": "Mo-Su 09:00-21:00", "phone": "1933058878", "website": "cuiabar.net"}}, {"type": "node", "id": 10315686219, "lat": -22.8974358, "lon": -47.0528767, "tags": {"addr:housenumber": "1206", "addr:street": "Rua Coronel Quirino", "amenity": "restaurant", "name": "La Guapa Empanadas"}}, {"type": "node", "id": 10572946484, "lat": -22.8247433, "lon": -47.0806563, "tags": {"amenity": "restaurant", "name": "Salsa con Aj\u00ed"}}, {"type": "node", "id": 10594093880, "lat": -22.8940539, "lon": -47.0692606, "tags": {"addr:city": "Campinas", "addr:housenumber": "240", "addr:postcode": "13073-350", "addr:street": "Rua Camargo Paes", "addr:suburb": "Jd. Guanabara", "amenity": "fast_food", "cuisine": "pizza", "drive_through": "yes", "name": "Live Pizza Bar", "opening_hours": "Tu-Su 18:00-23:00", "phone": "+55 19 992200000", "website": "https://livepizzabar.com.br/#/"}}, {"type": "node", "id": 10596651523, "lat": -22.892393, "lon": -47.0615137, "tags": {"addr:city": "Campinas", "addr:housenumber": "64", "addr:street": "Avenida Brasil", "addr:suburb": "Vila Itapura", "amenity": "bar", "lgbtq": "primary", "name": "Azzur Lounge Bar", "opening_hours": "Mo-Su 00:00-02:00,18:00-24:00; Tu off; We off; Th off"}}, {"type": "node", "id": 10614289904, "lat": -22.8931017, "lon": -47.0608858, "tags": {"addr:city": "Campinas", "addr:housenumber": "64", "addr:postcode": "13023-075", "addr:street": "Avenida Brasil", "addr:suburb": "Vila Itapura", "amenity": "bar", "brewery": "yes", "min_age": "18", "name": "Azzur Lounge Bar", "smoking": "isolated", "wheelchair": "limited"}}, {"type": "node", "id": 10675017607, "lat": -22.8474484, "lon": -47.0629355}, {"type": "node", "id": 10675017610, "lat": -22.8473213, "lon": -47.0629946}, {"type": "node", "id": 10874209907, "lat": -22.8893773, "lon": -47.064999, "tags": {"amenity": "pub", "name": "De Leve Bar", "opening_hours": "Sa 13:00-24:00; Th 17:00-23:30; Fr 17:00-23:00"}}, {"type": "node", "id": 10876290493, "lat": -22.8793726, "lon": -47.0371864, "tags": {"amenity": "restaurant", "cuisine": "pizza", "name": "Loucos por Pizza"}}, {"type": "node", "id": 10876456431, "lat": -22.9025197, "lon": -47.0595355, "tags": {"addr:housenumber": "30", "addr:street": "Rua Sacramento", "amenity": "bar", "name": "CampChopp"}}, {"type": "node", "id": 10876457913, "lat": -22.9024582, "lon": -47.0595653, "tags": {"addr:housenumber": "48", "addr:street": "Rua Sacramento", "amenity": "bar", "name": "Boteco Bento Quirino"}}, {"type": "node", "id": 10876465099, "lat": -22.9023317, "lon": -47.0596183, "tags": {"amenity": "restaurant", "name": "Cavalhettos Restaurante e Lanchonete"}}, {"type": "node", "id": 10876489910, "lat": -22.9023914, "lon": -47.0595947, "tags": {"amenity": "bar", "name": "Rota 54"}}, {"type": "node", "id": 10876491505, "lat": -22.9025794, "lon": -47.0595196, "tags": {"addr:housenumber": "22", "addr:street": "Rua Sacramento", "amenity": "bar", "name": "Augusta"}}, {"type": "node", "id": 10931846892, "lat": -22.9027848, "lon": -47.0591214, "tags": {"amenity": "restaurant", "name": "Dois Restaurante, Pizzaria e Padaria"}}, {"type": "node", "id": 10932086565, "lat": -22.8993142, "lon": -47.060485, "tags": {"addr:street": "Rua Quatorze de Dezembro", "amenity": "bar", "name": "La Playa"}}, {"type": "node", "id": 10932086566, "lat": -22.8994632, "lon": -47.0606018, "tags": {"addr:street": "Rua Quatorze de Dezembro", "amenity": "fast_food", "name": "Garage 10"}}, {"type": "node", "id": 10980040377, "lat": -22.9553854, "lon": -47.08157, "tags": {"addr:housenumber": "519", "addr:street": "Avenida Auro Soares de Moura Andrade", "amenity": "pub", "name": "Bar do Dumbo"}}, {"type": "node", "id": 11047380609, "lat": -22.9083821, "lon": -47.0595556, "tags": {"amenity": "fast_food", "name": "Kone Del\u00edcias"}}, {"type": "node", "id": 11090109469, "lat": -22.9081321, "lon": -47.0453311}, {"type": "node", "id": 11090109470, "lat": -22.908108, "lon": -47.0452421}, {"type": "node", "id": 11090109471, "lat": -22.9083942, "lon": -47.0451252}, {"type": "node", "id": 11090109472, "lat": -22.9084103, "lon": -47.0452177}, {"type": "node", "id": 11090109473, "lat": -22.9083765, "lon": -47.0452404}, {"type": "node", "id": 11090109474, "lat": -22.9084424, "lon": -47.0454777}, {"type": "node", "id": 11090109475, "lat": -22.9083459, "lon": -47.0455248}, {"type": "node", "id": 11090109476, "lat": -22.9082302, "lon": -47.045544}, {"type": "node", "id": 11090109477, "lat": -22.9081723, "lon": -47.0453189}, {"type": "node", "id": 11090166682, "lat": -22.9062102, "lon": -47.0469012}, {"type": "node", "id": 11090166683, "lat": -22.9063042, "lon": -47.0468472}, {"type": "node", "id": 11090166684, "lat": -22.9063197, "lon": -47.0468868}, {"type": "node", "id": 11090166685, "lat": -22.9062578, "lon": -47.046912}, {"type": "node", "id": 11090166686, "lat": -22.90626, "lon": -47.04693}, {"type": "node", "id": 11090166687, "lat": -22.906271, "lon": -47.046924}, {"type": "node", "id": 11090166688, "lat": -22.9062876, "lon": -47.0469648}, {"type": "node", "id": 11090166689, "lat": -22.9062544, "lon": -47.0469696}, {"type": "node", "id": 11090166690, "lat": -22.9062312, "lon": -47.0469252}, {"type": "node", "id": 11090166691, "lat": -22.9062235, "lon": -47.0469324}, {"type": "node", "id": 11098463336, "lat": -22.9373694, "lon": -47.1584079, "tags": {"addr:street": "Avenida John Boyd Dunlop", "amenity": "restaurant", "contact:phone": "+55 19 3027 1567", "cuisine": "pizza", "mobile": "+55 19 98728 8870", "name": "Romany Pizzaria", "phone": "+55 19 3261 5138"}}, {"type": "node", "id": 11098529495, "lat": -22.9390409, "lon": -47.1558003, "tags": {"amenity": "fast_food", "cuisine": "hot_dog", "drive_through": "no", "name": "Kombi's Hot Dog"}}, {"type": "node", "id": 11098529496, "lat": -22.9390716, "lon": -47.1557104, "tags": {"addr:street": "Rua Vicente de Marchi", "amenity": "pub", "brewery": "yes", "mobile": "+55 19 99213 0031", "name": "Chopperia Gean", "smoking": "outside"}}, {"type": "node", "id": 11125488900, "lat": -22.9231538, "lon": -47.0689602, "tags": {"addr:city": "Campinas", "addr:housenumber": "461", "addr:postcode": "13030105", "addr:street": "Rua S\u00e3o Lu\u00edz do Piratininga", "addr:suburb": "Jardim do Trevo", "amenity": "bar", "min_age": "18", "name": "Doka Bar"}}, {"type": "node", "id": 11142055503, "lat": -22.8373381, "lon": -46.993605, "tags": {"addr:housenumber": "4000", "addr:street": "Estrada Municpal Adhelina Segantine Cerqueira Leite", "amenity": "cafe", "check_date": "2023-08-24", "currency:XBT": "yes", "description": "Ponto de encontro de Bikers e amantes da natureza.", "name": "Caf\u00e9 com Trem", "opening_hours": "Sa 08:00-12:00; Su 08:00-12:00", "payment:lightning": "yes", "payment:lightning_contactless": "yes", "payment:onchain": "yes", "phone": "+55 199 9123 2413"}}, {"type": "node", "id": 11155124822, "lat": -22.8028637, "lon": -47.0445252}, {"type": "node", "id": 11155124823, "lat": -22.8028767, "lon": -47.0443551}, {"type": "node", "id": 11155124824, "lat": -22.8030766, "lon": -47.0443625}, {"type": "node", "id": 11155124825, "lat": -22.8030705, "lon": -47.0445388}, {"type": "node", "id": 11155132068, "lat": -22.8466475, "lon": -47.0258069}, {"type": "node", "id": 11155132069, "lat": -22.8467536, "lon": -47.0257747}, {"type": "node", "id": 11155132070, "lat": -22.846736, "lon": -47.0256968}, {"type": "node", "id": 11155132071, "lat": -22.8466872, "lon": -47.0256728}, {"type": "node", "id": 11155132072, "lat": -22.8466094, "lon": -47.0256844}, {"type": "node", "id": 11155132073, "lat": -22.8466864, "lon": -47.025701, "tags": {"amenity": "fast_food", "cuisine": "burger", "name": "Mikrolot"}}, {"type": "node", "id": 11155132091, "lat": -22.8452805, "lon": -47.0259812, "tags": {"amenity": "fast_food", "cuisine": "burger", "name": "Pit Stop"}}, {"type": "node", "id": 11155132092, "lat": -22.8455113, "lon": -47.0258679, "tags": {"amenity": "restaurant", "name": "Belassiz"}}, {"type": "way", "id": 95463718, "nodes": [1106897393, 1106897401, 4816797042, 5925391949, 1106897366, 4816797044, 1106897447, 1106897393], "tags": {"addr:city": "Campinas", "addr:housenumber": "50", "addr:postcode": "13083-851", "addr:street": "Avenida \u00c9rico Ver\u00edssimo", "alt_name": "Bandej\u00e3o", "amenity": "restaurant", "building": "yes", "capacity": "240", "delivery": "no", "name": "Restaurante Universit\u00e1rio", "outdoor_seating": "no", "phone": "+55 (19) 3521-4608", "short_name": "RU", "smoking": "no", "takeaway": "no"}}, {"type": "way", "id": 190488987, "nodes": [2011278643, 9681468807, 9681468793, 9681468795, 2011278651, 2011278647, 2011278643], "tags": {"amenity": "fast_food", "building": "yes", "cuisine": "burger", "name": "Lanch\u00e3o"}}, {"type": "way", "id": 269851019, "nodes": [2749759023, 2749759024, 2749759025, 2749759026, 2749759027, 2749759028, 5355259092, 2749759023], "tags": {"amenity": "restaurant", "building": "yes", "name": "Restaurante Acad\u00eamico", "short_name": "RA"}}, {"type": "way", "id": 270488633, "nodes": [2755032600, 2755032605, 2755032608, 2755032611, 2755032600], "tags": {"amenity": "restaurant", "building": "yes", "name": "Restaurante da Saturnino", "short_name": "RS"}}, {"type": "way", "id": 317287871, "nodes": [3235289368, 3235289369, 3235290963, 3235290962, 3235289370, 3235289371, 3235289368], "tags": {"addr:city": "Campinas", "amenity": "fast_food", "building": "yes", "smoking": "outside"}}, {"type": "way", "id": 317290800, "nodes": [3235318769, 3235318770, 3235318771, 3235318772, 3235318769], "tags": {"addr:city": "Campinas", "amenity": "fast_food", "building": "yes"}}, {"type": "way", "id": 318022596, "nodes": [3243794141, 3243794142, 3243794143, 3243794144, 3243794141], "tags": {"addr:city": "Campinas", "addr:housenumber": "3434C", "addr:street": "Avenida Ruy Rodrigues", "amenity": "fast_food", "building": "yes", "cuisine": "burger", "smoking": "outside"}}, {"type": "way", "id": 318024907, "nodes": [3243830585, 3243830586, 3243830587, 3243830588, 3243830589, 3243830590, 3243830591, 3243830592, 3243830593, 3243830594, 3243830595, 3243830585], "tags": {"addr:city": "Campinas", "addr:housenumber": "3380", "addr:postcode": "13060-646", "addr:street": "Avenida Ruy Rodrigues", "addr:suburb": "Jardim Yara", "amenity": "fast_food", "brand": "Habib's", "brand:wikidata": "Q2504930", "brand:wikipedia": "en:Habib's", "building": "yes", "cuisine": "middle_eastern", "name": "Habib's", "smoking": "outside", "takeaway": "yes", "website": "https://www.habibs.com.br/"}}, {"type": "way", "id": 318025525, "nodes": [3243834833, 3243834834, 3243834835, 3243834836, 3243834833], "tags": {"addr:city": "Campinas", "addr:housenumber": "3434C", "addr:street": "Avenida Ruy Rodrigues", "addr:suburb": "Jardim Yara", "amenity": "fast_food", "building": "yes", "cuisine": "burger"}}, {"type": "way", "id": 318025972, "nodes": [3243846770, 3243846771, 3243846772, 3243846773, 3243846774, 3243846775, 3243846770], "tags": {"addr:city": "Campinas", "amenity": "restaurant", "building": "yes", "cuisine": "pizza"}}, {"type": "way", "id": 318030925, "nodes": [3243899488, 3243899489, 3243899490, 3243899491, 3243899492, 3243899493, 3243899494, 3243899495, 3243899488], "tags": {"addr:city": "Campinas", "addr:street": "Rua Igarap\u00e9", "addr:suburb": "DIC I", "amenity": "pub", "building": "yes", "name": "Bar dos Amigos"}}, {"type": "way", "id": 360610971, "nodes": [3651286762, 3651286763, 3651286764, 3651286765, 3651286762], "tags": {"addr:city": "Campinas", "addr:housenumber": "1768", "addr:street": "Rua Roxo Moreira", "addr:suburb": "Cidade Universit\u00e1ria", "amenity": "restaurant", "building": "yes", "building:levels": "1", "cuisine": "regional,_brazilian,_self-service", "delivery": "yes", "name": "Ginza", "takeaway": "yes"}}, {"type": "way", "id": 364437790, "nodes": [3684850095, 3684850096, 3684850097, 3684850098, 3684850095], "tags": {"amenity": "fast_food", "building": "yes", "delivery": "no", "drive_through": "no", "operator": "SESC", "smoking": "no", "takeaway": "yes"}}, {"type": "way", "id": 364589681, "nodes": [3686271827, 3686271828, 3686259917, 3686271829, 3686271830, 3686271831, 3686271827], "tags": {"amenity": "restaurant", "building": "yes", "cuisine": "Saud\u00e1vel", "delivery": "no", "name": "Comedoria", "opening_hours": "Tu-Fr 09:00-21:30; Sa-Su,PH 09:30-18:00", "smoking": "no", "takeaway": "no"}}, {"type": "way", "id": 365923845, "nodes": [3699226670, 3699226671, 3699226672, 3699226673, 3699226670], "tags": {"amenity": "fast_food", "building": "yes", "delivery": "no", "drive_through": "no", "name": "Noninho", "operator": "Nono Miquele", "takeaway": "yes"}}, {"type": "way", "id": 365923888, "nodes": [3699227518, 3699227519, 3699227520, 3699227521, 3699227522, 3699227523, 3699227524, 3699227725, 3699227726, 3699227727, 3699227728, 3699227518], "tags": {"amenity": "restaurant", "building": "yes", "cuisine": "Japanese,_Brasilian", "delivery": "no", "name": "Restaurante Telecamp"}}, {"type": "way", "id": 404609842, "nodes": [4068926817, 4068926818, 4068926819, 4068926820, 4068926821, 4068926822, 4068926817], "tags": {"addr:city": "Campinas", "addr:housenumber": "1218", "addr:street": "Rua Bar\u00e3o de Jaguar\u00e1", "addr:suburb": "Centro", "amenity": "restaurant", "building": "yes", "cuisine": "regional", "name": "Eden Bar e Restaurante", "phone": "+55(19) 3231-2513", "smoking": "no", "takeaway": "yes"}}, {"type": "way", "id": 404611804, "nodes": [4068942865, 4068942866, 4068942867, 4068942868, 4068942869, 4068942865], "tags": {"amenity": "restaurant", "building": "yes", "cuisine": "pizza", "name": "Pizzaria Sapore"}}, {"type": "way", "id": 404611805, "nodes": [4068942870, 4068942871, 4068942872, 4068942873, 4068942874, 4068942870], "tags": {"amenity": "restaurant", "building": "yes", "cuisine": "regional", "name": "Valise de Cron\u00f3pio"}}, {"type": "way", "id": 404611806, "nodes": [4068942875, 4068942871, 4068942876, 4068942877, 4068942875], "tags": {"addr:street": "Rua Francisco de Barros Filho", "amenity": "bar", "building": "yes", "name": "Alzir\u00e3o", "phone": "+5519 3579-9040", "smoking": "no"}}, {"type": "way", "id": 404611807, "nodes": [4068942878, 4068942879, 4068942880, 4068942881, 4068942878], "tags": {"amenity": "restaurant", "building": "yes", "name": "Armaz\u00e9m Nobre"}}, {"type": "way", "id": 404611808, "nodes": [4068942882, 4068942883, 4068942884, 4068942885, 4068942882], "tags": {"amenity": "bar", "building": "yes", "name": "Bar da Coxinha"}}, {"type": "way", "id": 404746526, "nodes": [4070144568, 4070144569, 4070144570, 4070144571, 4070144568], "tags": {"amenity": "restaurant", "building": "yes", "cuisine": "pizza", "name": "Dom Luigi"}}, {"type": "way", "id": 404746527, "nodes": [4070144572, 4070144573, 4070144560, 4070144561, 4070144574, 4070144572], "tags": {"addr:city": "Campinas", "addr:housenumber": "505", "addr:street": "Rua Santos Dumont", "addr:suburb": "Cambu\u00ed", "amenity": "restaurant", "building": "yes", "cuisine": "italian", "name": "Di Fari"}}, {"type": "way", "id": 430268893, "nodes": [1143276687, 4295479051, 4295479050, 4295479052, 1143276687], "tags": {"amenity": "fast_food", "brand": "McDonald's", "brand:wikidata": "Q38076", "brand:wikipedia": "en:McDonald's", "building": "yes", "cuisine": "burger", "name": "McDonald's", "takeaway": "yes"}}, {"type": "way", "id": 430669821, "nodes": [4299340325, 4299340323, 4299340326, 4299340327, 4299340325], "tags": {"amenity": "bar", "building": "yes", "name": "Bar Sinuca de Bico"}}, {"type": "way", "id": 441278232, "nodes": [4390411844, 4390411845, 4390411846, 4390411847, 4390411848, 4390411849, 4390411850, 4390411851, 4390411852, 4390411853, 4390411854, 4390411844], "tags": {"addr:city": "Campinas/SP", "addr:housenumber": "277", "addr:postcode": "13050-014", "addr:street": "Rua Vasco Joaquim Smith Vasconcelos", "addr:suburb": "Jardim do Lago", "amenity": "restaurant", "building": "house", "cuisine": "regional", "name": "Bar do Cear\u00e1", "opening_hours": "09:00 \u00e0s 14:00 -- -- -- 15:00 \u00e0s 21:00", "smoking": "outside", "takeaway": "yes"}}, {"type": "way", "id": 482165635, "nodes": [4750212445, 4750212447, 4750212448, 4750212449, 4750212445], "tags": {"amenity": "cafe", "building": "yes"}}, {"type": "way", "id": 535300980, "nodes": [5188986350, 5188986351, 5188987337, 5188986352, 5188986353, 5188986350], "tags": {"amenity": "food_court", "building": "yes", "name": "\u00c1rea de Servi\u00e7os 3"}}, {"type": "way", "id": 535300981, "nodes": [5188986354, 5188986355, 5188986356, 5188986357, 5188986354], "tags": {"amenity": "food_court", "building": "yes", "name": "Cantina CCHSA"}}, {"type": "way", "id": 539211849, "nodes": [5217911401, 5217911402, 5217911403, 5217911404, 5217911401], "tags": {"amenity": "restaurant", "building": "yes", "name": "Aulus"}}, {"type": "way", "id": 543758072, "nodes": [5256433765, 5256433766, 5256433767, 5256433768, 5256433765], "tags": {"addr:street": "Avenida Arymana", "amenity": "ice_cream", "building": "yes", "name": "Sorveteria Nelimel"}}, {"type": "way", "id": 546815026, "nodes": [5283904936, 5283904937, 5283904938, 5283904939, 5283904936], "tags": {"amenity": "fast_food", "building": "yes"}}, {"type": "way", "id": 548704205, "nodes": [5300746526, 5300746527, 5300746528, 5300746529, 5300746526], "tags": {"amenity": "cafe", "building": "yes", "description": "Coconut water"}}, {"type": "way", "id": 556327613, "nodes": [5366584716, 5366584713, 5366584714, 5366584715, 5366584716], "tags": {"amenity": "restaurant", "building": "yes", "building:levels": "1"}}, {"type": "way", "id": 561140703, "nodes": [5411404496, 5411404497, 5411404498, 5411404499, 5411404500, 5411404501, 5411404502, 5411404503, 5411404504, 5411404505, 5411404506, 5411404507, 5411404508, 5411404509, 5411404510, 9700693289, 5411404511, 5411404512, 5411404513, 5411404496], "tags": {"amenity": "restaurant", "building": "yes", "name": "Est\u00e2ncia Grill"}}, {"type": "way", "id": 577333866, "nodes": [5534942022, 5534942023, 5534942024, 5534942025, 5534942026, 5534942022], "tags": {"addr:street": "Rua Pastor Jo\u00e3o Prata Vieira", "amenity": "pub", "building": "yes", "name": "Bar Parada Obrigat\u00f3ria", "outdoor_seating": "yes"}}, {"type": "way", "id": 583990620, "nodes": [5582834613, 5582834614, 5582834615, 5582834616, 5582834617, 5582834618, 5582834619, 5582834613], "tags": {"addr:city": "Campinas", "addr:housenumber": "2574", "addr:street": "Avenida Dr. Jesu\u00edno Marcondes Machado", "addr:suburb": "Ch\u00e1cara da Barra", "amenity": "restaurant", "building": "yes", "cuisine": "pizza", "name": "Papagaio Pizzaria"}}, {"type": "way", "id": 583990621, "nodes": [5582834620, 5582838721, 5582838722, 5582838723, 5582834620], "tags": {"addr:city": "Campinas", "addr:housenumber": "2574", "addr:street": "Avenida Doutor Jesu\u00edno Marcondes Machado", "addr:suburb": "Ch\u00e1cara da Barra", "amenity": "restaurant", "building": "yes", "cuisine": "pizza", "name": "Papagaio Pizzaria"}}, {"type": "way", "id": 626214631, "nodes": [5911866977, 5911866978, 5911866979, 5911866980, 5911866977], "tags": {"amenity": "restaurant", "building": "yes", "name": "Chal\u00e9 da Neuza"}}, {"type": "way", "id": 627798936, "nodes": [5926754636, 5926754637, 5926754638, 5926754639, 5926754640, 5926754641, 5926754636], "tags": {"amenity": "restaurant", "building": "yes", "name": "Casa da Moqueca"}}, {"type": "way", "id": 633390098, "nodes": [5978943599, 5978943600, 5978943601, 5978943602, 5978943599], "tags": {"amenity": "restaurant", "building": "yes"}}, {"type": "way", "id": 633390104, "nodes": [5978943616, 5978943617, 5978943626, 5978943618, 5978943619, 5978943620, 5978943621, 5978943622, 5978943616], "tags": {"amenity": "bar", "building": "yes", "name": "Emp\u00f3rio do Nono"}}, {"type": "way", "id": 633390105, "nodes": [5978943623, 5978943624, 5978943625, 5978943626, 5978943623], "tags": {"amenity": "restaurant", "building": "yes", "cuisine": "pizza", "name": "Esp\u00f3sito"}}, {"type": "way", "id": 633390106, "nodes": [5978943627, 5978943628, 5978943629, 5978943630, 5978943631, 5978943627], "tags": {"amenity": "restaurant", "building": "yes", "cuisine": "pizza", "name": "Vilar\u00e9"}}, {"type": "way", "id": 681472170, "nodes": [6381828810, 6381828811, 6381828812, 6381828813, 6381828814, 6381828810], "tags": {"addr:city": "Campinas", "addr:housenumber": "713", "addr:postcode": "13070193", "addr:street": "Rua Expedicion\u00e1rio H\u00e9lio Alves Camargo", "addr:suburb": "Jd Quarto Centen\u00e1rio", "amenity": "cafe", "building": "residential", "description": "Consultoria SAP\nDesenvolvimento de Softwares", "landuse": "commercial", "name": "DKNT Inform\u00e1tica", "outdoor_seating": "no"}}, {"type": "way", "id": 682034643, "nodes": [6387065086, 6387065087, 6387065088, 6387065089, 6387065086], "tags": {"addr:city": "Campinas", "amenity": "ice_cream", "building": "yes", "delivery": "no", "drive_through": "no", "internet_access": "yes", "internet_access:fee": "no", "opening_hours": "Mo-Sa 08:00-20:00", "outdoor_seating": "yes", "takeaway": "yes"}}, {"type": "way", "id": 682427212, "nodes": [6390805466, 6390805467, 7795639028, 7795639029, 6390805468, 6390805473, 6390805466], "tags": {"amenity": "restaurant", "building": "service", "cuisine": "regional;sandwich;barbecue", "outdoor_seating": "yes"}}, {"type": "way", "id": 682578159, "nodes": [6392476972, 6392476973, 6392476974, 6392476975, 6392476976, 6392476972], "tags": {"addr:city": "Campinas", "amenity": "food_court", "building": "yes", "internet_access": "yes", "opening_hours": "Mo-Sa 08:00-20:00", "outdoor_seating": "yes", "smoking": "outside"}}, {"type": "way", "id": 684156173, "nodes": [6409245716, 6409245717, 6409245718, 6409245719, 6409245716], "tags": {"amenity": "bar", "building": "yes", "name": "Bar do Raphinha", "opening_hours": "Seg-S\u00e1b, 6h - 21h"}}, {"type": "way", "id": 693540481, "nodes": [6511323008, 6511323009, 6511323010, 6511323011, 6511323012, 6511323013, 6511323008], "tags": {"amenity": "fast_food", "building": "yes", "cuisine": "burger", "drive_through": "no", "name": "Gord\u00e3o Lanches", "operator": "Gord\u00e3o"}}, {"type": "way", "id": 728727588, "nodes": [6827327489, 6827327490, 6827327491, 6827327492, 6827327489], "tags": {"addr:street": "Rua Erasmo Braga", "amenity": "ice_cream", "building": "yes", "name": "Kimel", "opening_hours": "Mo-Fr 08:00-17:00"}}, {"type": "way", "id": 737306479, "nodes": [6902916559, 6902916560, 6902916561, 6902916562, 6902916559], "tags": {"addr:city": "Campinas", "addr:housenumber": "110", "addr:postcode": "13073-033", "addr:street": "Rua Silvio Baratelli", "addr:suburb": "Vila Nova", "amenity": "restaurant", "building": "house", "cuisine": "brazilian", "name": "Bar do Bigodi e Tia Eli", "phone": "+55 19 3243-9294"}}, {"type": "way", "id": 814706750, "nodes": [7588073838, 7610078838, 7610078839, 7610078840, 7588073838], "tags": {"addr:street": "Rua Roberto Bueno Teixeira", "amenity": "fast_food", "cuisine": "burger", "description": "Nome da empresa: Cleitinho\nPessoa respons\u00e1vel: Cleitinho\nTipo da empresa: Lanchonete\nData de in\u00edcio: 10/06/2020\nTelefone: \nData da coleta: menos ter\u00e7a feira\nPer\u00edodo da coleta: manh\u00e3\nMembros da empresa: 5\nColetor respons\u00e1vel: Alex Sander\nCarrinho: 1", "name": "Cleitinho Lanches", "operator": "Cleitinho"}}, {"type": "way", "id": 840656963, "nodes": [7844348470, 7844348471, 7844348472, 7844348473, 7844348470], "tags": {"amenity": "fast_food", "building": "yes"}}, {"type": "way", "id": 840656964, "nodes": [7844348474, 7844348475, 7844348476, 7844348477, 7844348478, 7844348474], "tags": {"addr:city": "Campinas", "addr:street": "Rua Micaela Sanches Neves", "amenity": "fast_food", "building": "yes"}}, {"type": "way", "id": 840656966, "nodes": [7844348484, 7844348485, 7844348486, 7844348487, 7844348484], "tags": {"amenity": "fast_food", "building": "yes"}}, {"type": "way", "id": 840656970, "nodes": [7844348500, 7844348501, 7844348502, 7844348503, 7844348500], "tags": {"amenity": "ice_cream", "building": "yes"}}, {"type": "way", "id": 840656975, "nodes": [7844348520, 7844348521, 7844348522, 7844348523, 7844348524, 7844348520], "tags": {"amenity": "ice_cream", "building": "yes"}}, {"type": "way", "id": 840656983, "nodes": [7844348554, 7844348555, 7844348556, 7844348557, 7844348554], "tags": {"amenity": "pub", "building": "yes"}}, {"type": "way", "id": 840656986, "nodes": [7844348567, 7844348568, 7844348569, 7844348570, 7844348567], "tags": {"amenity": "fast_food", "building": "yes"}}, {"type": "way", "id": 928696378, "nodes": [8613632186, 8613632189, 8613632190, 8613632187, 8613632186], "tags": {"addr:city": "Campinas", "addr:housenumber": "703", "addr:postcode": "13032-385", "addr:street": "Rua Joaquim Vilac", "addr:suburb": "Vila Teixeira", "amenity": "restaurant", "building": "yes", "name": "Sushi em Casa Vila Industrial"}}, {"type": "way", "id": 966749949, "nodes": [8944269594, 8944269595, 8944269596, 8944269597, 8944269598, 8944269599, 8944269600, 8944269601, 8944269602, 8944269603, 8944269604, 8944269605, 8944269606, 8944269593, 8944269594], "tags": {"amenity": "fast_food", "building": "yes"}}, {"type": "way", "id": 983593272, "nodes": [9094247331, 9094247332, 9094247333, 9094247334, 9094247331], "tags": {"addr:city": "Campinas", "addr:housenumber": "838", "addr:street": "Rua Marqu\u00eas de Abrantes", "addr:suburb": "Jardim Santa Genebra", "amenity": "pub", "brewery": "various", "building": "yes", "name": "Jungle Chopp Bar"}}, {"type": "way", "id": 1053172496, "nodes": [9678647353, 9678647354, 9678647355, 9678647356, 9678647357, 9678647353], "tags": {"amenity": "restaurant", "building": "yes", "cuisine": "pizza", "name": "Pizzaria do vit\u00e3o"}}, {"type": "way", "id": 1053486552, "nodes": [9681507378, 9681507379, 9681507380, 9681507381, 9681507378], "tags": {"addr:city": "Campinas", "addr:housenumber": "625", "addr:postcode": "13060-090", "addr:street": "Rua Ferdinando Panatonni", "addr:suburb": "Jardim Paulic\u00e9ia", "amenity": "pub", "building": "yes", "name": "Kintal da V\u00f3"}}, {"type": "way", "id": 1053486553, "nodes": [9681507382, 9681507383, 9681507384, 9681507385, 9681507386, 9681507387, 9681507382], "tags": {"addr:city": "Campinas", "addr:postcode": "13060-090", "addr:street": "Rua Ferdinando Panatonni", "addr:suburb": "Jardim Paulic\u00e9ia", "amenity": "pub", "building": "yes", "name": "Bodega do Sagu"}}, {"type": "way", "id": 1053486556, "nodes": [9681507396, 9681507399, 9681507400, 9681507395, 9681507396], "tags": {"addr:city": "Campinas", "addr:housenumber": "815", "addr:postcode": "13060-090", "addr:street": "Rua Ferdinando Panatonni", "addr:suburb": "Jardim Paulic\u00e9ia", "amenity": "pub", "building": "yes", "name": "Green Container"}}, {"type": "way", "id": 1053486560, "nodes": [9681507417, 9681507418, 9681507419, 9681507403, 9681507417], "tags": {"addr:city": "Campinas", "addr:housenumber": "1505", "addr:postcode": "13060-190", "addr:street": "Rua Dom\u00edcio Pacheco e Silva", "addr:suburb": "Jardim Novo Campos El\u00edseos", "amenity": "fast_food", "brand": "Subway", "brand:wikidata": "Q244457", "brand:wikipedia": "en:Subway (restaurant)", "building": "yes", "cuisine": "sandwich", "name": "Subway", "takeaway": "yes"}}, {"type": "way", "id": 1053486561, "nodes": [9681507418, 9681507420, 9681507421, 9681507422, 9681507423, 9681507424, 9681507425, 9681507426, 9681507412, 9681507413, 9681507402, 9681507419, 9681507418], "tags": {"addr:city": "Campinas", "addr:housenumber": "1057", "addr:postcode": "13060-080", "addr:street": "Rua Oswaldo Oscar Barthelson", "addr:suburb": "Jardim Londres", "amenity": "fast_food", "brand": "Habib's", "brand:wikidata": "Q2504930", "brand:wikipedia": "en:Habib's", "building": "yes", "cuisine": "middle_eastern", "drive_through": "yes", "name": "Habib's", "phone": "19 3229-9100", "takeaway": "yes"}}, {"type": "way", "id": 1053486562, "nodes": [9681507427, 9681507428, 9681507429, 9681507430, 9681507427], "tags": {"addr:city": "Campinas", "addr:housenumber": "1440", "addr:postcode": "13060-190", "addr:street": "Rua Dom\u00edcio Pacheco e Silva", "addr:suburb": "Jardim Paulic\u00e9ia", "amenity": "ice_cream", "building": "commercial", "building:levels": "2", "name": "Nelimel - Jd Londres"}}, {"type": "way", "id": 1054887399, "nodes": [9693464853, 9693464854, 9693464855, 9693464856, 9693464857, 9693464858, 9693464859, 9693464860, 9693464861, 9693464862, 9693464863, 9693464853], "tags": {"amenity": "fast_food", "building": "yes"}}, {"type": "way", "id": 1057996446, "nodes": [9721477324, 9721477325, 9721477351, 9721477326, 9721477327, 9721477328, 9721477329, 9721477348, 9721477330, 9721477324], "tags": {"amenity": "restaurant", "building": "yes", "name": "A Quinta do Marqu\u00eas"}}, {"type": "way", "id": 1057996447, "nodes": [9721477324, 9721477331, 9721477332, 9721477333, 9721477334, 9721477335, 9721477336, 9721477337, 9721477338, 9721477339, 9721477340, 9721477341, 9721477342, 9721477343, 9721477344, 9721477345, 9721477346, 9721477347, 9721477348, 9721477329, 9721477349, 9721477350, 9721477351, 9721477352, 9721477324], "tags": {"addr:street": "Rua M\u00e1rio Junqueira da Silva", "amenity": "restaurant", "building": "yes"}}, {"type": "way", "id": 1057996448, "nodes": [9721477353, 9721477354, 9721477355, 9721477356, 9721477353], "tags": {"amenity": "fast_food", "brand": "McDonald's", "brand:wikidata": "Q38076", "building": "yes", "cuisine": "burger", "drive_through": "yes", "name": "McDonald's", "takeaway": "yes"}}, {"type": "way", "id": 1147224070, "nodes": [5408044520, 5408044842, 5408044519, 5408044518, 5408044517, 5408044843, 10675017610, 5408044825, 10675017607, 5408044844, 5408044824, 5408044823, 5408044822, 5408044841, 5408044821, 5408044520], "tags": {"amenity": "food_court", "building": "yes", "level": "-1"}}, {"type": "way", "id": 1194829558, "nodes": [11090109469, 11090109470, 11090109471, 11090109472, 11090109473, 11090109474, 11090109475, 11090109476, 11090109477, 11090109469], "tags": {"addr:housenumber": "1761", "addr:street": "Avenida Princesa d'Oeste", "addr:suburb": "Bosque", "amenity": "restaurant", "building": "yes", "contact:phone": "+55 11 3253 .0550", "cuisine": "regional;pizza;steak_house", "mobile": "+55 19 9986 74571", "name": "Monte Bello Pizza Bar Grill", "opening_hours": "Mo-Fr 18:00-24:00; Sa,Su 11:00-16:00,18:00-24:00; PH off", "phone": "+55 19 3253 7666", "website": "https://www.pizzariamontebello.com.br/site/"}}, {"type": "way", "id": 1194835628, "nodes": [11090166682, 11090166683, 11090166684, 11090166685, 11090166686, 11090166687, 11090166688, 11090166689, 11090166690, 11090166691, 11090166682], "tags": {"addr:street": "Rua Bar\u00e3o de Paranapanema", "amenity": "restaurant", "building": "yes", "contact:phone": "+55 19 3325 7778", "name": "Restaurante Verdinho", "phone": "+55 19 3251 7788"}}, {"type": "way", "id": 1203381728, "nodes": [11155124822, 11155124823, 11155124824, 11155124825, 11155124822], "tags": {"amenity": "restaurant", "building": "yes", "name": "Restaurante Pesqueiro do Rolinha"}}, {"type": "way", "id": 1203385370, "nodes": [11155132068, 11155132069, 11155132070, 11155132071, 11155132072, 11155132068], "tags": {"amenity": "fast_food", "building": "yes", "cuisine": "burger"}}]}