{"version": 0.6, "generator": "Overpass API 0.7.61.5 4133829e", "osm3s": {"timestamp_osm_base": "2023-09-28T01:17:56Z", "copyright": "The data included in this document is from www.openstreetmap.org. The data is made available under ODbL."}, "elements": [{"type": "node", "id": 873935818, "lat": -23.1883257, "lon": -46.0160259, "tags": {"amenity": "restaurant", "name": "Bar das Meninas"}}, {"type": "node", "id": 1644889453, "lat": -23.1949371, "lon": -45.9068435, "tags": {"addr:street": "Avenida Anchieta", "amenity": "bar", "name": "Emporio Tavola Allegra", "website": "http://www.emporiotavolaallegra.com.br/", "wheelchair": "no"}}, {"type": "node", "id": 1644899675, "lat": -23.1949666, "lon": -45.9069159, "tags": {"addr:street": "Avenida Anchieta", "amenity": "restaurant", "cuisine": "italian", "name": "San Genaro", "website": "http://www.sangenaromassas.com.br/"}}, {"type": "node", "id": 1644910937, "lat": -23.1950184, "lon": -45.9070044, "tags": {"addr:street": "Avenida Anchieta", "amenity": "cafe", "cuisine": "international", "name": "Santa Sofia Caf\u00e9", "website": "http://www.santasofiacafe.com.br/", "wifi": "free"}}, {"type": "node", "id": 1645045663, "lat": -23.1972644, "lon": -45.9046441, "tags": {"addr:street": "Avenida Bar\u00e3o do Rio Branco", "amenity": "bar", "name": "Chopp do Bar\u00e3o", "website": "http://www.choppdobarao.com.br/"}}, {"type": "node", "id": 1645047260, "lat": -23.1951368, "lon": -45.9072593, "tags": {"addr:street": "Avenida Anchieta", "amenity": "restaurant", "cuisine": "pizza", "name": "Bella Pizza"}}, {"type": "node", "id": 1645048490, "lat": -23.1928989, "lon": -45.8977192, "tags": {"addr:street": "Avenida Anchieta", "amenity": "bar", "check_date": "2023-07-14", "name": "Capital da Vila"}}, {"type": "node", "id": 1645053169, "lat": -23.1924396, "lon": -45.8944758, "tags": {"amenity": "bar", "check_date": "2023-07-14", "name": "Guten Bier"}}, {"type": "node", "id": 1645053614, "lat": -23.1928464, "lon": -45.8953368, "tags": {"addr:city": "S\u00e3o Jos\u00e9 dos Campos", "addr:housenumber": "175", "addr:postcode": "12242-280", "addr:street": "Avenida Anchieta", "addr:suburb": "Jardim Nova Am\u00e9rica", "amenity": "restaurant"}}, {"type": "node", "id": 1645068944, "lat": -23.1969291, "lon": -45.8984214, "tags": {"addr:street": "Avenida S\u00e3o Jo\u00e3o", "amenity": "cafe", "cuisine": "kebab", "name": "Haruf", "website": "https://shoppingesplanada.com.br/"}}, {"type": "node", "id": 1645080013, "lat": -23.1973616, "lon": -45.895551, "tags": {"amenity": "bar", "check_date": "2023-03-28", "name": "Disk Bebidas"}}, {"type": "node", "id": 1645086706, "lat": -23.2022261, "lon": -45.9024071, "tags": {"addr:city": "S\u00e3o Jos\u00e9 dos Campos", "addr:housenumber": "40", "addr:postcode": "12243-110", "addr:street": "Rua Augusto \u00c9dson Ehlke", "addr:suburb": "Jardim Apolo II", "amenity": "fast_food", "contact:facebook": "https://www.facebook.com/Oficina-Do-A%C3%87AI-277400309031928/", "cuisine": "a\u00e7a\u00ed;juice;regional", "drive_through": "no", "name": "Oficina do A\u00e7a\u00ed", "opening_hours": "Mo-Su 11:00-19:00", "outdoor_seating": "yes", "phone": "+55 12 3913 4332"}}, {"type": "node", "id": 1645088553, "lat": -23.2039404, "lon": -45.9084797, "tags": {"amenity": "fast_food", "brand": "McDonald's", "brand:wikidata": "Q38076", "brand:wikipedia": "en:McDonald's", "cuisine": "burger", "name": "McDonald's", "takeaway": "yes"}}, {"type": "node", "id": 1645089611, "lat": -23.2040292, "lon": -45.9086084, "tags": {"amenity": "fast_food", "brand": "Subway", "brand:wikidata": "Q244457", "brand:wikipedia": "en:Subway (restaurant)", "cuisine": "sandwich", "level": "1", "name": "Subway", "takeaway": "yes"}}, {"type": "node", "id": 1645093699, "lat": -23.1971362, "lon": -45.9050035, "tags": {"amenity": "cafe", "cuisine": "coffee_shop", "name": "Provence"}}, {"type": "node", "id": 1714392342, "lat": -23.2095825, "lon": -45.8620826, "tags": {"amenity": "restaurant", "cuisine": "regional", "name": "Bono Palato"}}, {"type": "node", "id": 1824519408, "lat": -23.2192587, "lon": -45.9103291}, {"type": "node", "id": 1913121030, "lat": -23.184073, "lon": -45.8569076, "tags": {"amenity": "fast_food"}}, {"type": "node", "id": 1913121032, "lat": -23.1774847, "lon": -45.8557059, "tags": {"amenity": "fast_food", "cuisine": "burger", "name": "Bet\u00e3o Lanches"}}, {"type": "node", "id": 1913121033, "lat": -23.1768165, "lon": -45.8535467, "tags": {"amenity": "fast_food"}}, {"type": "node", "id": 1914658932, "lat": -23.2233588, "lon": -45.887027, "tags": {"amenity": "fast_food"}}, {"type": "node", "id": 1914658945, "lat": -23.193269, "lon": -45.8780668, "tags": {"amenity": "cafe"}}, {"type": "node", "id": 1914935366, "lat": -23.1795762, "lon": -45.8504151, "tags": {"amenity": "restaurant", "name": "Cozinha Ideal"}}, {"type": "node", "id": 1950127533, "lat": -23.1975041, "lon": -45.8881929, "tags": {"amenity": "restaurant", "name": "Creperia do Kadu"}}, {"type": "node", "id": 1991155440, "lat": -23.2099237, "lon": -45.8562215, "tags": {"amenity": "restaurant", "name": "Restaurante Toca do Trair\u00e3o"}}, {"type": "node", "id": 2021682504, "lat": -23.1847855, "lon": -45.8743791, "tags": {"addr:city": "S\u00e3o Jos\u00e9 dos Campos", "addr:housenumber": "622", "addr:postcode": "12215-000", "addr:street": "Avenida Brasil", "addr:suburb": "Monte Castelo", "amenity": "restaurant", "cuisine": "pizza", "name": "Pizzaria Augustos", "website": "http://www.pizzariaaugustos.com.br"}}, {"type": "node", "id": 2057128612, "lat": -23.1990104, "lon": -45.8890284, "tags": {"amenity": "restaurant", "check_date": "2023-04-06", "name": "Restaurante Sirva-se Bem"}}, {"type": "node", "id": 2095738753, "lat": -23.1798168, "lon": -45.8537739, "tags": {"amenity": "restaurant"}}, {"type": "node", "id": 2223144824, "lat": -23.1861679, "lon": -45.8872449, "tags": {"amenity": "restaurant", "name": "BOA", "name:pt": "BOA"}}, {"type": "node", "id": 2288342643, "lat": -23.1848066, "lon": -45.88796}, {"type": "node", "id": 2288342646, "lat": -23.1845935, "lon": -45.8879543}, {"type": "node", "id": 2288342655, "lat": -23.1848011, "lon": -45.8876342}, {"type": "node", "id": 2288363610, "lat": -23.2063885, "lon": -45.9074876}, {"type": "node", "id": 2288363611, "lat": -23.2061827, "lon": -45.9072027}, {"type": "node", "id": 2288363612, "lat": -23.2063037, "lon": -45.9072904}, {"type": "node", "id": 2288363618, "lat": -23.2063828, "lon": -45.9073925}, {"type": "node", "id": 2288363619, "lat": -23.2063921, "lon": -45.9074014}, {"type": "node", "id": 2288363621, "lat": -23.206269, "lon": -45.9072914}, {"type": "node", "id": 2288363629, "lat": -23.2062107, "lon": -45.9076537}, {"type": "node", "id": 2288363630, "lat": -23.2062947, "lon": -45.9075684}, {"type": "node", "id": 2288363636, "lat": -23.2063206, "lon": -45.9075697}, {"type": "node", "id": 2288363651, "lat": -23.2061091, "lon": -45.9071494}, {"type": "node", "id": 2288363653, "lat": -23.20593, "lon": -45.9073531}, {"type": "node", "id": 2298138404, "lat": -23.2329899, "lon": -45.8848781, "tags": {"amenity": "restaurant"}}, {"type": "node", "id": 2454649702, "lat": -23.1844634, "lon": -45.8753768, "tags": {"amenity": "restaurant", "cuisine": "pizza", "name": "Giga Pizza", "phone": "+55 12 3033 4510"}}, {"type": "node", "id": 2474442275, "lat": -23.2002738, "lon": -45.8853818}, {"type": "node", "id": 2474442276, "lat": -23.2005326, "lon": -45.8853069}, {"type": "node", "id": 2474442278, "lat": -23.2004954, "lon": -45.8851551}, {"type": "node", "id": 2474442280, "lat": -23.2002367, "lon": -45.88523}, {"type": "node", "id": 2489389496, "lat": -23.18416, "lon": -45.8593345}, {"type": "node", "id": 2489389498, "lat": -23.1843342, "lon": -45.8592767}, {"type": "node", "id": 2489389499, "lat": -23.1842998, "lon": -45.8591899}, {"type": "node", "id": 2489389500, "lat": -23.1841281, "lon": -45.8592491}, {"type": "node", "id": 2493741307, "lat": -23.1799314, "lon": -45.8583095}, {"type": "node", "id": 2493741308, "lat": -23.1799743, "lon": -45.8583084}, {"type": "node", "id": 2493741309, "lat": -23.1800323, "lon": -45.8582745}, {"type": "node", "id": 2493741310, "lat": -23.1800398, "lon": -45.8582465}, {"type": "node", "id": 2493741311, "lat": -23.1800248, "lon": -45.8581542}, {"type": "node", "id": 2493741312, "lat": -23.179897, "lon": -45.8582196}, {"type": "node", "id": 2493741317, "lat": -23.1800017, "lon": -45.858166}, {"type": "node", "id": 2561218750, "lat": -23.2031607, "lon": -45.9075334}, {"type": "node", "id": 2561218751, "lat": -23.2030239, "lon": -45.9073967}, {"type": "node", "id": 2561218752, "lat": -23.2030251, "lon": -45.9073028}, {"type": "node", "id": 2561218753, "lat": -23.2031287, "lon": -45.9071325}, {"type": "node", "id": 2561218754, "lat": -23.2031435, "lon": -45.9071512}, {"type": "node", "id": 2561218755, "lat": -23.2032236, "lon": -45.9072022}, {"type": "node", "id": 2561218756, "lat": -23.2032433, "lon": -45.9072357}, {"type": "node", "id": 2561218757, "lat": -23.2032519, "lon": -45.9072612}, {"type": "node", "id": 2561218758, "lat": -23.2032384, "lon": -45.9074798}, {"type": "node", "id": 2584490741, "lat": -23.1794511, "lon": -45.8499402}, {"type": "node", "id": 2584490742, "lat": -23.1793905, "lon": -45.8499637}, {"type": "node", "id": 2584490743, "lat": -23.1793435, "lon": -45.8498204}, {"type": "node", "id": 2584490744, "lat": -23.1794041, "lon": -45.8497968}, {"type": "node", "id": 2589421205, "lat": -23.2193226, "lon": -45.9103411}, {"type": "node", "id": 2589421206, "lat": -23.2193548, "lon": -45.9103201}, {"type": "node", "id": 2589421207, "lat": -23.2195029, "lon": -45.9104578}, {"type": "node", "id": 2589421208, "lat": -23.2195415, "lon": -45.9104462}, {"type": "node", "id": 2589421210, "lat": -23.2195681, "lon": -45.9102894}, {"type": "node", "id": 2589421211, "lat": -23.2195073, "lon": -45.9102774}, {"type": "node", "id": 2589421212, "lat": -23.2195294, "lon": -45.9101446}, {"type": "node", "id": 2589421213, "lat": -23.2195887, "lon": -45.9101563}, {"type": "node", "id": 2589421214, "lat": -23.2195961, "lon": -45.9101124}, {"type": "node", "id": 2589421215, "lat": -23.2194299, "lon": -45.9100796}, {"type": "node", "id": 2589421216, "lat": -23.2194489, "lon": -45.9100585}, {"type": "node", "id": 2589421217, "lat": -23.2194041, "lon": -45.9100108}, {"type": "node", "id": 2589421218, "lat": -23.2193484, "lon": -45.9100726}, {"type": "node", "id": 2589421219, "lat": -23.2193205, "lon": -45.910215}, {"type": "node", "id": 2589421220, "lat": -23.219269, "lon": -45.910264}, {"type": "node", "id": 2589421221, "lat": -23.2192532, "lon": -45.9100813}, {"type": "node", "id": 2589421222, "lat": -23.2192092, "lon": -45.910128}, {"type": "node", "id": 2589421223, "lat": -23.2191445, "lon": -45.9101379}, {"type": "node", "id": 2589421224, "lat": -23.2190965, "lon": -45.9100918}, {"type": "node", "id": 2589421226, "lat": -23.2191359, "lon": -45.9099675}, {"type": "node", "id": 2589421227, "lat": -23.2193012, "lon": -45.9102338}, {"type": "node", "id": 2589421228, "lat": -23.2192818, "lon": -45.9102103}, {"type": "node", "id": 2589421229, "lat": -23.219299, "lon": -45.9101706}, {"type": "node", "id": 2589421230, "lat": -23.2193157, "lon": -45.9100713}, {"type": "node", "id": 2589421231, "lat": -23.2192568, "lon": -45.9100596}, {"type": "node", "id": 2589421232, "lat": -23.2191813, "lon": -45.9101385}, {"type": "node", "id": 2589421233, "lat": -23.2192349, "lon": -45.9101081}, {"type": "node", "id": 2589421234, "lat": -23.2191191, "lon": -45.9101198}, {"type": "node", "id": 2589421235, "lat": -23.219088, "lon": -45.9100533}, {"type": "node", "id": 2589421236, "lat": -23.2191083, "lon": -45.9099879}, {"type": "node", "id": 2618943348, "lat": -23.1804767, "lon": -45.8833631}, {"type": "node", "id": 2619222487, "lat": -23.1432824, "lon": -45.7832247, "tags": {"amenity": "restaurant"}}, {"type": "node", "id": 2773901459, "lat": -23.245145, "lon": -45.8855646, "tags": {"addr:city": "S\u00e3o Jos\u00e9 dos Campos", "addr:country": "BR", "addr:housenumber": "3660", "addr:postcode": "12233-001", "addr:street": "Avenida Andr\u00f4meda", "addr:suburb": "Bosque dos Eucaliptos", "amenity": "fast_food", "name": "Floripa Bar e Lanchonete"}}, {"type": "node", "id": 2845010783, "lat": -23.1824937, "lon": -45.8834313}, {"type": "node", "id": 2845010784, "lat": -23.1826425, "lon": -45.8833975}, {"type": "node", "id": 2845010785, "lat": -23.1826227, "lon": -45.8832943}, {"type": "node", "id": 2845010786, "lat": -23.182474, "lon": -45.883328}, {"type": "node", "id": 2851349815, "lat": -23.1989449, "lon": -45.887357, "tags": {"amenity": "restaurant"}}, {"type": "node", "id": 2851349817, "lat": -23.1985696, "lon": -45.8874773, "tags": {"amenity": "restaurant", "name": "\u00c1gua Doce"}}, {"type": "node", "id": 2851349824, "lat": -23.1990737, "lon": -45.8890324, "tags": {"amenity": "cafe", "check_date": "2023-04-06", "name": "P\u00e3o Kent Padaria", "shop": "bakery"}}, {"type": "node", "id": 2851349825, "lat": -23.2009136, "lon": -45.8810825, "tags": {"amenity": "fast_food", "brand": "McDonald's", "brand:wikidata": "Q38076", "brand:wikipedia": "en:McDonald's", "cuisine": "burger", "name": "McDonald's", "takeaway": "yes"}}, {"type": "node", "id": 2905807281, "lat": -23.1808844, "lon": -45.8838749}, {"type": "node", "id": 2905807282, "lat": -23.1808612, "lon": -45.883766}, {"type": "node", "id": 2905807283, "lat": -23.1809978, "lon": -45.8837316}, {"type": "node", "id": 2905807284, "lat": -23.181021, "lon": -45.8838404}, {"type": "node", "id": 2975034794, "lat": -23.2769652, "lon": -45.844619}, {"type": "node", "id": 2975034795, "lat": -23.2770022, "lon": -45.8448838}, {"type": "node", "id": 2975034796, "lat": -23.2770492, "lon": -45.8449188}, {"type": "node", "id": 2975034799, "lat": -23.2774529, "lon": -45.844533}, {"type": "node", "id": 2975034800, "lat": -23.2774937, "lon": -45.8445532}, {"type": "node", "id": 2975034801, "lat": -23.2775122, "lon": -45.8448354}, {"type": "node", "id": 2975034802, "lat": -23.2775332, "lon": -45.8447978}, {"type": "node", "id": 2993347468, "lat": -23.184665, "lon": -45.8853642, "tags": {"amenity": "fast_food", "brand": "Subway", "brand:wikidata": "Q244457", "brand:wikipedia": "en:Subway (restaurant)", "cuisine": "sandwich", "name": "Subway", "takeaway": "yes"}}, {"type": "node", "id": 3009660431, "lat": -23.1918299, "lon": -45.8892741}, {"type": "node", "id": 3009660432, "lat": -23.1916769, "lon": -45.889102}, {"type": "node", "id": 3009661733, "lat": -23.1918102, "lon": -45.8889616}, {"type": "node", "id": 3009661734, "lat": -23.1919632, "lon": -45.8891337}, {"type": "node", "id": 3009776825, "lat": -23.205732, "lon": -45.8875452}, {"type": "node", "id": 3012542283, "lat": -23.1910733, "lon": -45.8767454, "tags": {"amenity": "bar", "name": "Bar Recanto Nordestino"}}, {"type": "node", "id": 3023156430, "lat": -23.219865, "lon": -45.8922583}, {"type": "node", "id": 3023156431, "lat": -23.2196834, "lon": -45.8920545}, {"type": "node", "id": 3023156432, "lat": -23.2196253, "lon": -45.8921158}, {"type": "node", "id": 3023157433, "lat": -23.2196308, "lon": -45.8921573}, {"type": "node", "id": 3023157434, "lat": -23.2197906, "lon": -45.8923367}, {"type": "node", "id": 3032312801, "lat": -23.1802431, "lon": -45.8605592, "tags": {"addr:city": "S\u00e3o Jos\u00e9 dos Campos", "addr:housenumber": "37", "addr:postcode": "12220-330", "addr:street": "Rua Jo\u00e3o Liberato", "addr:suburb": "Vila Industrial", "amenity": "restaurant", "cuisine": "regional", "name": "Reaiche\u00b4 s Pizzaria e Restaurante", "phone": "+55 12 3929-9494", "smoking": "no", "wheelchair": "yes"}}, {"type": "node", "id": 3047497222, "lat": -23.213609, "lon": -45.8569491}, {"type": "node", "id": 3047497223, "lat": -23.2134174, "lon": -45.856943}, {"type": "node", "id": 3047497224, "lat": -23.2134155, "lon": -45.8570473}, {"type": "node", "id": 3047497225, "lat": -23.2135733, "lon": -45.8570554}, {"type": "node", "id": 3047497226, "lat": -23.2136109, "lon": -45.8570227}, {"type": "node", "id": 3064502799, "lat": -23.1869586, "lon": -45.8864432, "tags": {"amenity": "restaurant", "name": "Biss"}}, {"type": "node", "id": 3123507230, "lat": -23.1960434, "lon": -45.8913384}, {"type": "node", "id": 3123507231, "lat": -23.1960628, "lon": -45.8912471}, {"type": "node", "id": 3123507305, "lat": -23.1940989, "lon": -45.8934272}, {"type": "node", "id": 3123507306, "lat": -23.1942885, "lon": -45.8934648}, {"type": "node", "id": 3123507307, "lat": -23.1942736, "lon": -45.8935776}, {"type": "node", "id": 3123507308, "lat": -23.1940821, "lon": -45.8935349}, {"type": "node", "id": 3123507309, "lat": -23.1951437, "lon": -45.8933435}, {"type": "node", "id": 3123507310, "lat": -23.1950598, "lon": -45.8933097}, {"type": "node", "id": 3123507311, "lat": -23.1950269, "lon": -45.8934093}, {"type": "node", "id": 3123507312, "lat": -23.1951099, "lon": -45.8934428}, {"type": "node", "id": 3130608819, "lat": -23.1948414, "lon": -45.8933126}, {"type": "node", "id": 3130608820, "lat": -23.1948803, "lon": -45.8931951}, {"type": "node", "id": 3130608821, "lat": -23.1949487, "lon": -45.8932218}, {"type": "node", "id": 3130608822, "lat": -23.1949102, "lon": -45.8933395}, {"type": "node", "id": 3133459953, "lat": -23.2047254, "lon": -45.8710695}, {"type": "node", "id": 3133459954, "lat": -23.2046203, "lon": -45.871195}, {"type": "node", "id": 3133459955, "lat": -23.2045064, "lon": -45.8710821}, {"type": "node", "id": 3133459956, "lat": -23.2046115, "lon": -45.8709566}, {"type": "node", "id": 3155462682, "lat": -23.205997, "lon": -45.8758253}, {"type": "node", "id": 3155462683, "lat": -23.2058389, "lon": -45.875653}, {"type": "node", "id": 3155462684, "lat": -23.2062069, "lon": -45.8752549}, {"type": "node", "id": 3155462685, "lat": -23.2061735, "lon": -45.875223}, {"type": "node", "id": 3155462686, "lat": -23.2063491, "lon": -45.875023}, {"type": "node", "id": 3155462687, "lat": -23.2062369, "lon": -45.8749032}, {"type": "node", "id": 3155462688, "lat": -23.2064013, "lon": -45.8747211}, {"type": "node", "id": 3155462689, "lat": -23.206805, "lon": -45.8751526}, {"type": "node", "id": 3155462690, "lat": -23.2066542, "lon": -45.8753197}, {"type": "node", "id": 3155462691, "lat": -23.2065521, "lon": -45.8752105}, {"type": "node", "id": 3155462692, "lat": -23.2063941, "lon": -45.875415}, {"type": "node", "id": 3155462693, "lat": -23.2065477, "lon": -45.8752434}, {"type": "node", "id": 3155462694, "lat": -23.2068467, "lon": -45.8755482}, {"type": "node", "id": 3155462695, "lat": -23.2066968, "lon": -45.8757418}, {"type": "node", "id": 3155469703, "lat": -23.2027858, "lon": -45.8802177}, {"type": "node", "id": 3155469704, "lat": -23.2030086, "lon": -45.8802068}, {"type": "node", "id": 3155469705, "lat": -23.2029988, "lon": -45.8799701}, {"type": "node", "id": 3155469706, "lat": -23.202482, "lon": -45.8799946}, {"type": "node", "id": 3178753324, "lat": -23.2166884, "lon": -45.8698895}, {"type": "node", "id": 3178753325, "lat": -23.2167526, "lon": -45.8697192}, {"type": "node", "id": 3178753326, "lat": -23.2168931, "lon": -45.8697818}, {"type": "node", "id": 3178753327, "lat": -23.2168289, "lon": -45.8699522}, {"type": "node", "id": 3186865184, "lat": -23.2061631, "lon": -45.8756805}, {"type": "node", "id": 3186865185, "lat": -23.2063744, "lon": -45.8754406}, {"type": "node", "id": 3186865186, "lat": -23.2065079, "lon": -45.8755798}, {"type": "node", "id": 3186865187, "lat": -23.2062966, "lon": -45.8758197}, {"type": "node", "id": 3213556543, "lat": -23.19358, "lon": -45.8907238, "tags": {"amenity": "restaurant", "check_date": "2023-04-16", "cuisine": "chinese", "diet:vegetarian": "yes", "name": "Lotus"}}, {"type": "node", "id": 3269521495, "lat": -23.1933098, "lon": -45.8778373, "tags": {"amenity": "fast_food", "brand": "Subway", "brand:wikidata": "Q244457", "brand:wikipedia": "en:Subway (restaurant)", "cuisine": "sandwich", "name": "Subway", "takeaway": "yes"}}, {"type": "node", "id": 3353162270, "lat": -23.2054716, "lon": -45.9054568}, {"type": "node", "id": 3370285127, "lat": -23.2050907, "lon": -45.8728324}, {"type": "node", "id": 3370285128, "lat": -23.2052448, "lon": -45.872676}, {"type": "node", "id": 3370285129, "lat": -23.2053967, "lon": -45.8728531}, {"type": "node", "id": 3370285130, "lat": -23.2052426, "lon": -45.8730095}, {"type": "node", "id": 3437618192, "lat": -23.2222978, "lon": -45.8646347}, {"type": "node", "id": 3437625593, "lat": -23.2223854, "lon": -45.8647203}, {"type": "node", "id": 3437625594, "lat": -23.2224318, "lon": -45.8646584}, {"type": "node", "id": 3437625595, "lat": -23.2223445, "lon": -45.8645731}, {"type": "node", "id": 3472587828, "lat": -23.1990995, "lon": -45.9153535, "tags": {"amenity": "restaurant", "name": "Ref\u00fagio"}}, {"type": "node", "id": 3522584402, "lat": -23.1978769, "lon": -45.8877207, "tags": {"amenity": "restaurant", "cuisine": "Caldinho", "name": "Dona Bella"}}, {"type": "node", "id": 3522584403, "lat": -23.1980913, "lon": -45.8876696, "tags": {"amenity": "restaurant", "name": "Fil\u00e9 Miau"}}, {"type": "node", "id": 3618567610, "lat": -23.2024878, "lon": -45.8936452, "tags": {"addr:city": "S\u00e3o Jos\u00e9 dos Campos", "addr:country": "BR", "addr:housenumber": "250", "addr:postcode": "12243-690", "addr:street": "Rua Santa Elza", "addr:suburb": "Vila Adyana", "amenity": "restaurant", "check_date": "2023-03-28", "cuisine": "japanese", "name": "EDO Zushi", "opening_hours": "Tu-Th 12:00-14:30,19:00-23:00; Fr 12:00-14:30,19:00-23:30; Sa 12:00-15:30,19:00-23:30; Su 12:00-15:30,19:00-22:00", "phone": "+55 12 3911-5772", "website": "http://www.edozushi.com.br/"}}, {"type": "node", "id": 3618592172, "lat": -23.2068008, "lon": -45.8985555, "tags": {"addr:city": "S\u00e3o Jos\u00e9 dos Campos", "addr:housenumber": "400", "addr:postcode": "12243-360", "addr:street": "Rua Serimbura", "addr:suburb": "Vila Ema", "amenity": "restaurant", "cuisine": "italian", "email": "contato@armazemdapizza.com.br", "name": "Armaz\u00e9m da Pizza", "phone": "+55 12 3923 7779", "website": "https://www.armazemdapizza.com.br/"}}, {"type": "node", "id": 3719454318, "lat": -23.2186424, "lon": -45.8799691}, {"type": "node", "id": 3719454319, "lat": -23.2188249, "lon": -45.8798062}, {"type": "node", "id": 3719454320, "lat": -23.218925, "lon": -45.8799345}, {"type": "node", "id": 3719454321, "lat": -23.218751, "lon": -45.8801161}, {"type": "node", "id": 3744974718, "lat": -23.1972527, "lon": -45.8958128, "tags": {"amenity": "fast_food", "name": "Vicentino"}}, {"type": "node", "id": 3748051267, "lat": -23.2428221, "lon": -45.9094828, "tags": {"addr:city": "S\u00e3o Jos\u00e9 dos Campos", "addr:housenumber": "486", "addr:postcode": "12237-062", "addr:street": "Rua Icat\u00fa", "addr:suburb": "Jardim Veneza", "amenity": "cafe", "cuisine": "P\u00e3es,_lanches,_bolos,_por\u00e7\u00f5es,_doces", "name": "Padaria de Ville"}}, {"type": "node", "id": 3750383170, "lat": -23.2263893, "lon": -45.9126656}, {"type": "node", "id": 3750383171, "lat": -23.2263055, "lon": -45.9126558}, {"type": "node", "id": 3750383172, "lat": -23.2263055, "lon": -45.912594}, {"type": "node", "id": 3750383173, "lat": -23.2262666, "lon": -45.9125907}, {"type": "node", "id": 3750383174, "lat": -23.2262876, "lon": -45.9124148}, {"type": "node", "id": 3750383175, "lat": -23.2264163, "lon": -45.9124376}, {"type": "node", "id": 3750383176, "lat": -23.2263078, "lon": -45.9124118}, {"type": "node", "id": 3750383177, "lat": -23.2263259, "lon": -45.9122668}, {"type": "node", "id": 3750383178, "lat": -23.2263305, "lon": -45.9122552}, {"type": "node", "id": 3750383179, "lat": -23.2263379, "lon": -45.9122464}, {"type": "node", "id": 3750383180, "lat": -23.2263446, "lon": -45.9122413}, {"type": "node", "id": 3750383181, "lat": -23.226356, "lon": -45.9122384}, {"type": "node", "id": 3750383182, "lat": -23.2263701, "lon": -45.9122391}, {"type": "node", "id": 3750383183, "lat": -23.2264457, "lon": -45.912253}, {"type": "node", "id": 3750383184, "lat": -23.2264203, "lon": -45.9124308}, {"type": "node", "id": 3750383189, "lat": -23.2265165, "lon": -45.9124635}, {"type": "node", "id": 3750383190, "lat": -23.2265474, "lon": -45.9122427}, {"type": "node", "id": 3750383191, "lat": -23.2266357, "lon": -45.9122595}, {"type": "node", "id": 3750383192, "lat": -23.2266048, "lon": -45.9124791}, {"type": "node", "id": 3775979026, "lat": -23.2376425, "lon": -45.8909869, "tags": {"amenity": "fast_food", "cuisine": "regional", "name": "Padaria Sofiteli"}}, {"type": "node", "id": 3816181571, "lat": -23.2098349, "lon": -45.8584385, "tags": {"amenity": "restaurant", "name": "Restaurante ADC"}}, {"type": "node", "id": 3823773807, "lat": -23.2274437, "lon": -45.9235588, "tags": {"addr:city": "S\u00e3o Jos\u00e9 dos Campos", "addr:housenumber": "2030", "addr:postcode": "12240-000", "addr:street": "Avenida Doutor Jo\u00e3o Batista Soares de Queiroz J\u00fanior,", "addr:suburb": "Jardim das Industrias", "amenity": "restaurant", "capacity": "0", "cuisine": "organic", "delivery": "yes", "diet:vegan": "only", "name": "Familia Verde Delivery", "opening_hours": "Mo-Sa 10:00-14:00", "smoking": "no", "takeaway": "only"}}, {"type": "node", "id": 4121738369, "lat": -23.2027828, "lon": -45.880143}, {"type": "node", "id": 4121738370, "lat": -23.2024888, "lon": -45.8801574}, {"type": "node", "id": 4121738371, "lat": -23.2027692, "lon": -45.8799814}, {"type": "node", "id": 4121738372, "lat": -23.2027631, "lon": -45.8798351}, {"type": "node", "id": 4121738373, "lat": -23.2027066, "lon": -45.8798378}, {"type": "node", "id": 4121738374, "lat": -23.2027126, "lon": -45.8799833}, {"type": "node", "id": 4286601247, "lat": -23.2210531, "lon": -45.8846449}, {"type": "node", "id": 4286601248, "lat": -23.2211231, "lon": -45.8845554}, {"type": "node", "id": 4286601249, "lat": -23.2212053, "lon": -45.8846307}, {"type": "node", "id": 4286601251, "lat": -23.2211344, "lon": -45.8847203}, {"type": "node", "id": 4300759352, "lat": -23.2283554, "lon": -45.8845973, "tags": {"amenity": "restaurant", "name": "Sallute"}}, {"type": "node", "id": 4311943527, "lat": -23.1890028, "lon": -45.8743895}, {"type": "node", "id": 4311943528, "lat": -23.1890797, "lon": -45.8744268}, {"type": "node", "id": 4311943529, "lat": -23.1891791, "lon": -45.8741839}, {"type": "node", "id": 4311943530, "lat": -23.1891022, "lon": -45.8741467}, {"type": "node", "id": 4477344991, "lat": -23.2413216, "lon": -45.881752, "tags": {"amenity": "cafe"}}, {"type": "node", "id": 4506825503, "lat": -23.2001167, "lon": -45.8942212}, {"type": "node", "id": 4506833837, "lat": -23.1992773, "lon": -45.8939443}, {"type": "node", "id": 4521825051, "lat": -23.2254132, "lon": -45.9030722, "tags": {"amenity": "restaurant", "cuisine": "regional"}}, {"type": "node", "id": 4568652310, "lat": -23.1610304, "lon": -45.893388, "tags": {"addr:city": "S\u00e3o Jos\u00e9 dos Campos", "addr:housenumber": "1556", "addr:postcode": "12211620", "addr:street": "Avenida Princesa Isabel", "addr:suburb": "Santana", "amenity": "fast_food", "cuisine": "pizza", "delivery": "yes", "drive_through": "no", "name": "Pizzaria Roma"}}, {"type": "node", "id": 4675378415, "lat": -23.2254553, "lon": -45.9123256}, {"type": "node", "id": 4759936710, "lat": -23.1933763, "lon": -45.877925, "tags": {"amenity": "restaurant", "cuisine": "italian", "delivery": "no"}}, {"type": "node", "id": 4768537270, "lat": -23.1976205, "lon": -45.8881846, "tags": {"amenity": "restaurant", "cuisine": "japanese", "name": "Yamabuki"}}, {"type": "node", "id": 4768537271, "lat": -23.1976587, "lon": -45.8882555, "tags": {"amenity": "restaurant", "cuisine": "japanese", "name": "Japansei"}}, {"type": "node", "id": 4798836256, "lat": -23.2550793, "lon": -45.8294575}, {"type": "node", "id": 4798836257, "lat": -23.2550525, "lon": -45.8295031}, {"type": "node", "id": 4798836258, "lat": -23.2549967, "lon": -45.8294599}, {"type": "node", "id": 4798836259, "lat": -23.2550206, "lon": -45.8294163}, {"type": "node", "id": 4809905421, "lat": -23.2770085, "lon": -45.8997094, "tags": {"amenity": "bar", "name": "Gavi\u00f5es da Fiel - Sub Sede Vale do Para\u00edba", "name:pt": "Gavi\u00f5es da Fiel - Sub Sede Vale do Para\u00edba"}}, {"type": "node", "id": 4936307028, "lat": -23.1949885, "lon": -45.8932552}, {"type": "node", "id": 4936307029, "lat": -23.1949477, "lon": -45.8933787}, {"type": "node", "id": 4936307030, "lat": -23.194903, "lon": -45.8933616}, {"type": "node", "id": 4938728202, "lat": -23.2054355, "lon": -45.899199}, {"type": "node", "id": 4945582860, "lat": -23.262398, "lon": -45.9125156}, {"type": "node", "id": 4945582861, "lat": -23.262161, "lon": -45.9122082}, {"type": "node", "id": 4945582862, "lat": -23.2622826, "lon": -45.9120972}, {"type": "node", "id": 4945582863, "lat": -23.2623145, "lon": -45.9121386}, {"type": "node", "id": 4945582864, "lat": -23.2623342, "lon": -45.9121206}, {"type": "node", "id": 4945582865, "lat": -23.262371, "lon": -45.9121684}, {"type": "node", "id": 4945582866, "lat": -23.2623832, "lon": -45.9121572}, {"type": "node", "id": 4945582867, "lat": -23.2625515, "lon": -45.9123754}, {"type": "node", "id": 5005165077, "lat": -23.2095876, "lon": -45.8582168}, {"type": "node", "id": 5005165078, "lat": -23.2096851, "lon": -45.8580968}, {"type": "node", "id": 5005165079, "lat": -23.2098968, "lon": -45.8583105}, {"type": "node", "id": 5005165080, "lat": -23.2097916, "lon": -45.858447}, {"type": "node", "id": 5005187394, "lat": -23.2096273, "lon": -45.8620778}, {"type": "node", "id": 5005187395, "lat": -23.20958, "lon": -45.8620216}, {"type": "node", "id": 5005187396, "lat": -23.2094679, "lon": -45.8621483}, {"type": "node", "id": 5005187397, "lat": -23.2095261, "lon": -45.8621989}, {"type": "node", "id": 5021214203, "lat": -23.2194336, "lon": -45.886357}, {"type": "node", "id": 5255031137, "lat": -23.2351141, "lon": -45.922924}, {"type": "node", "id": 5255031138, "lat": -23.2352989, "lon": -45.9231256}, {"type": "node", "id": 5255031139, "lat": -23.235382, "lon": -45.9230354}, {"type": "node", "id": 5255031140, "lat": -23.2355077, "lon": -45.9231724}, {"type": "node", "id": 5255031141, "lat": -23.2352757, "lon": -45.9234244}, {"type": "node", "id": 5255031142, "lat": -23.2353999, "lon": -45.9235599}, {"type": "node", "id": 5255031143, "lat": -23.2353007, "lon": -45.9236676}, {"type": "node", "id": 5255031144, "lat": -23.2351797, "lon": -45.9235356}, {"type": "node", "id": 5255031145, "lat": -23.2349913, "lon": -45.9237402}, {"type": "node", "id": 5255031146, "lat": -23.2347276, "lon": -45.9234527}, {"type": "node", "id": 5255031147, "lat": -23.2349076, "lon": -45.9232572}, {"type": "node", "id": 5255031148, "lat": -23.2348576, "lon": -45.9232026}, {"type": "node", "id": 5309358156, "lat": -23.2478749, "lon": -45.8925344, "tags": {"amenity": "fast_food", "cuisine": "burger", "name": "Aroma Gostoso"}}, {"type": "node", "id": 5330751896, "lat": -23.2163524, "lon": -45.9029853}, {"type": "node", "id": 5330751897, "lat": -23.2165176, "lon": -45.9030215}, {"type": "node", "id": 5330751898, "lat": -23.2165412, "lon": -45.9028802}, {"type": "node", "id": 5330751899, "lat": -23.2164897, "lon": -45.902879}, {"type": "node", "id": 5330751900, "lat": -23.2164253, "lon": -45.9028919}, {"type": "node", "id": 5330751901, "lat": -23.2163706, "lon": -45.9029293}, {"type": "node", "id": 5385294741, "lat": -23.2004355, "lon": -45.9044246}, {"type": "node", "id": 5385294742, "lat": -23.2003837, "lon": -45.9042422}, {"type": "node", "id": 5385294743, "lat": -23.2004949, "lon": -45.9042048}, {"type": "node", "id": 5385294744, "lat": -23.2005466, "lon": -45.9043872}, {"type": "node", "id": 5394261613, "lat": -23.1612453, "lon": -45.9077447}, {"type": "node", "id": 5394261614, "lat": -23.1611481, "lon": -45.9076329}, {"type": "node", "id": 5394261615, "lat": -23.1611107, "lon": -45.9077427}, {"type": "node", "id": 5406162537, "lat": -23.2353817, "lon": -45.9233093}, {"type": "node", "id": 5406162553, "lat": -23.2354883, "lon": -45.9231934}, {"type": "node", "id": 5415063008, "lat": -23.2152441, "lon": -45.9075492, "tags": {"amenity": "restaurant", "contact:facebook": "https://www.facebook.com/mrmoochurrasco", "contact:instagram": "https://www.instagram.com/mrmoochurrasco/", "cuisine": "barbecue", "email": "gabriela@mrmoochurrasco.com.br", "level": "0", "name": "Mr. Moo", "opening_hours": "Mo-Su 09:30-01:00", "outdoor_seating": "yes", "phone": "+55 12 3019 8080"}}, {"type": "node", "id": 5415063011, "lat": -23.2151942, "lon": -45.907893, "tags": {"amenity": "restaurant", "cuisine": "italian", "level": "0", "name": "Barbaresco Express", "takeaway": "yes"}}, {"type": "node", "id": 5415063012, "lat": -23.2151872, "lon": -45.907941, "tags": {"amenity": "restaurant", "contact:facebook": "https://www.facebook.com/azulihealth/", "cuisine": "sushi", "level": "0", "name": "Azuli Health Food", "phone": "+55 12 3206 8924"}}, {"type": "node", "id": 5415063123, "lat": -23.1953442, "lon": -45.9200004, "tags": {"amenity": "restaurant", "name": "Rei do Peixe"}}, {"type": "node", "id": 5415063124, "lat": -23.1963397, "lon": -45.9297403, "tags": {"amenity": "restaurant", "name": "Sitio Serimbura"}}, {"type": "node", "id": 5415063125, "lat": -23.2050701, "lon": -45.9442766, "tags": {"amenity": "cafe", "name": "Caf\u00e9 na Horta"}}, {"type": "node", "id": 5485603122, "lat": -23.2519733, "lon": -45.8999415, "tags": {"amenity": "fast_food", "cuisine": "diner", "name": "The Burger"}}, {"type": "node", "id": 5664875071, "lat": -23.2316376, "lon": -45.8974232, "tags": {"addr:street": "Avenida Guadalupe", "amenity": "restaurant", "contact:phone": "+55 12 3933 1644", "cuisine": "pizza", "name": "Buona Pizzaria", "phone": "+55 12 3934 8804"}}, {"type": "node", "id": 5726280765, "lat": -23.1970879, "lon": -45.888927, "tags": {"amenity": "bar", "check_date": "2023-04-16", "name": "Emp\u00f3rio Hopfields"}}, {"type": "node", "id": 5726282807, "lat": -23.1968919, "lon": -45.8880481, "tags": {"amenity": "bar", "name": "BeerGarden"}}, {"type": "node", "id": 5726284613, "lat": -23.2066668, "lon": -45.8946832}, {"type": "node", "id": 5726284614, "lat": -23.2065381, "lon": -45.8957299, "tags": {"amenity": "bar", "name": "Mestre Cervejeiro"}}, {"type": "node", "id": 5726286435, "lat": -23.2065511, "lon": -45.895238, "tags": {"amenity": "bar", "name": "The Drunk Monk"}}, {"type": "node", "id": 5874013182, "lat": -23.1974119, "lon": -45.8871478, "tags": {"amenity": "restaurant", "name": "Padaria e Restaurante Villa Nova", "shop": "bakery"}}, {"type": "node", "id": 5880222819, "lat": -23.1976484, "lon": -45.8883202, "tags": {"amenity": "restaurant", "name": "Caldinho da Joana"}}, {"type": "node", "id": 5880222820, "lat": -23.1977567, "lon": -45.8886353}, {"type": "node", "id": 5880222821, "lat": -23.1977791, "lon": -45.8885906}, {"type": "node", "id": 5880222822, "lat": -23.1977156, "lon": -45.8884889}, {"type": "node", "id": 5880222823, "lat": -23.1976943, "lon": -45.8883638}, {"type": "node", "id": 5880222824, "lat": -23.1974514, "lon": -45.8883929}, {"type": "node", "id": 5880222825, "lat": -23.1974802, "lon": -45.8886719}, {"type": "node", "id": 5880222831, "lat": -23.1968773, "lon": -45.8875374, "tags": {"amenity": "restaurant", "name": "Restaurante Comida Brasileira"}}, {"type": "node", "id": 5939111805, "lat": -23.2016386, "lon": -45.8921614, "tags": {"addr:city": "S\u00e3o Jos\u00e9 dos Campos", "addr:housenumber": "67", "addr:postcode": "12245-604", "addr:street": "Rua Professor Everardo Miranda Passos", "addr:suburb": "Vila Bet\u00e2nia", "amenity": "cafe", "cuisine": "coffee_shop", "internet_access": "wlan", "internet_access:fee": "no", "name": "Dona F\u00ea Caf\u00e9 Bistr\u00f4", "opening_hours": "Mo-Fr 11:00-19:00", "outdoor_seating": "no"}}, {"type": "node", "id": 5950266439, "lat": -23.2066391, "lon": -45.8754752, "tags": {"amenity": "restaurant", "name": "Rancho dos alunos"}}, {"type": "node", "id": 5977001729, "lat": -23.2163392, "lon": -45.8919862, "tags": {"addr:city": "S\u00e3o Jos\u00e9 dos Campos", "addr:housename": "Loja 259", "addr:housenumber": "227", "addr:postcode": "12230-000", "addr:street": "Avenida Andr\u00f4meda", "addr:suburb": "Jardim Sat\u00e9lite", "amenity": "restaurant", "contact:facebook": "domveganobr", "contact:instagram": "domvegano", "diet:vegan": "only", "fixme": "Verificar o andar e a posi\u00e7\u00e3o exata.", "name": "Dom Vegano", "opening_hours": "Mo-Sa 10:00-22:00; Su 12:00-20:00", "outdoor_seating": "yes", "phone": "+55 12 98801-7033;+55 12 3322-0500"}}, {"type": "node", "id": 5977006629, "lat": -23.2057502, "lon": -45.8968295, "tags": {"addr:city": "S\u00e3o Jos\u00e9 dos Campos", "addr:housenumber": "48", "addr:postcode": "12243-590", "addr:street": "Rua General Os\u00f3rio", "addr:suburb": "Vila Ema", "amenity": "fast_food", "contact:facebook": "https://www.facebook.com/vedasburger/", "cuisine": "burger", "diet:vegan": "only", "email": "vedasburger@gmail.com", "fixme": "corrigir posi\u00e7\u00e3o exata", "name": "Vedas Burger", "phone": "+55 12 98250 6610"}}, {"type": "node", "id": 6018670224, "lat": -23.2025558, "lon": -45.9005793}, {"type": "node", "id": 6018670225, "lat": -23.202541, "lon": -45.9005732}, {"type": "node", "id": 6018670226, "lat": -23.2025469, "lon": -45.9005559}, {"type": "node", "id": 6018670227, "lat": -23.202538, "lon": -45.9005522}, {"type": "node", "id": 6018670228, "lat": -23.2025777, "lon": -45.9004366}, {"type": "node", "id": 6018670229, "lat": -23.2024498, "lon": -45.9003845}, {"type": "node", "id": 6018670230, "lat": -23.2024099, "lon": -45.9005006}, {"type": "node", "id": 6018670231, "lat": -23.2023462, "lon": -45.9004747}, {"type": "node", "id": 6018670232, "lat": -23.2023228, "lon": -45.9005426}, {"type": "node", "id": 6018670233, "lat": -23.2025382, "lon": -45.9006302}, {"type": "node", "id": 6018670388, "lat": -23.2046201, "lon": -45.898841}, {"type": "node", "id": 6018670389, "lat": -23.2046147, "lon": -45.8988357}, {"type": "node", "id": 6018670390, "lat": -23.2046461, "lon": -45.8987974}, {"type": "node", "id": 6018670391, "lat": -23.2046114, "lon": -45.8987638}, {"type": "node", "id": 6018670392, "lat": -23.2045569, "lon": -45.8988303}, {"type": "node", "id": 6018670393, "lat": -23.204597, "lon": -45.8988692}, {"type": "node", "id": 6018670394, "lat": -23.2045541, "lon": -45.8988345}, {"type": "node", "id": 6018670395, "lat": -23.2045267, "lon": -45.8988695}, {"type": "node", "id": 6018670396, "lat": -23.2045794, "lon": -45.8989183}, {"type": "node", "id": 6018670397, "lat": -23.2046068, "lon": -45.8988833}, {"type": "node", "id": 6018670398, "lat": -23.2045714, "lon": -45.898917}, {"type": "node", "id": 6018670399, "lat": -23.2045122, "lon": -45.8988574}, {"type": "node", "id": 6018670400, "lat": -23.2044388, "lon": -45.8989439}, {"type": "node", "id": 6018670401, "lat": -23.204498, "lon": -45.8990035}, {"type": "node", "id": 6019863905, "lat": -23.2054879, "lon": -45.8992859}, {"type": "node", "id": 6019863906, "lat": -23.2056297, "lon": -45.8991116}, {"type": "node", "id": 6019863907, "lat": -23.2057336, "lon": -45.8992117}, {"type": "node", "id": 6019863908, "lat": -23.2055917, "lon": -45.899386}, {"type": "node", "id": 6019863925, "lat": -23.2053419, "lon": -45.8991134}, {"type": "node", "id": 6019863926, "lat": -23.2054034, "lon": -45.8990338}, {"type": "node", "id": 6019863927, "lat": -23.2054318, "lon": -45.8990597}, {"type": "node", "id": 6019863928, "lat": -23.2054542, "lon": -45.8990308}, {"type": "node", "id": 6019863929, "lat": -23.2055194, "lon": -45.8990905}, {"type": "node", "id": 6019863955, "lat": -23.2049759, "lon": -45.8987344}, {"type": "node", "id": 6019863965, "lat": -23.2049936, "lon": -45.8986787}, {"type": "node", "id": 6019863966, "lat": -23.2048885, "lon": -45.8985793}, {"type": "node", "id": 6019863968, "lat": -23.2047915, "lon": -45.8986481}, {"type": "node", "id": 6019863969, "lat": -23.2048073, "lon": -45.898629}, {"type": "node", "id": 6019863970, "lat": -23.2048198, "lon": -45.8986413}, {"type": "node", "id": 6019863971, "lat": -23.2048483, "lon": -45.898607}, {"type": "node", "id": 6019863972, "lat": -23.2048342, "lon": -45.8985932}, {"type": "node", "id": 6019863973, "lat": -23.2048658, "lon": -45.8985551}, {"type": "node", "id": 6019863974, "lat": -23.2050083, "lon": -45.8986943}, {"type": "node", "id": 6019863975, "lat": -23.2049337, "lon": -45.8987877}, {"type": "node", "id": 6019864634, "lat": -23.2050041, "lon": -45.8974892}, {"type": "node", "id": 6019864635, "lat": -23.2051011, "lon": -45.8975342}, {"type": "node", "id": 6022652859, "lat": -23.2025475, "lon": -45.8928861}, {"type": "node", "id": 6022652875, "lat": -23.2024679, "lon": -45.8928547}, {"type": "node", "id": 6022652876, "lat": -23.2025682, "lon": -45.8928942}, {"type": "node", "id": 6022652877, "lat": -23.2025133, "lon": -45.8930593}, {"type": "node", "id": 6022652878, "lat": -23.202413, "lon": -45.8930197}, {"type": "node", "id": 6022653046, "lat": -23.2043195, "lon": -45.8928528}, {"type": "node", "id": 6022653047, "lat": -23.2041476, "lon": -45.8928252}, {"type": "node", "id": 6022653048, "lat": -23.2041615, "lon": -45.8927228}, {"type": "node", "id": 6022653049, "lat": -23.2043334, "lon": -45.8927504}, {"type": "node", "id": 6049160211, "lat": -23.2193569, "lon": -45.9033754}, {"type": "node", "id": 6049160212, "lat": -23.2192102, "lon": -45.9033473}, {"type": "node", "id": 6049160213, "lat": -23.2191738, "lon": -45.9035718}, {"type": "node", "id": 6049160214, "lat": -23.2193204, "lon": -45.9036}, {"type": "node", "id": 6049160263, "lat": -23.231587, "lon": -45.9139277}, {"type": "node", "id": 6049160264, "lat": -23.2316349, "lon": -45.9139529}, {"type": "node", "id": 6049160265, "lat": -23.2316227, "lon": -45.9139803}, {"type": "node", "id": 6049160266, "lat": -23.2315748, "lon": -45.9139551}, {"type": "node", "id": 6049160267, "lat": -23.2318181, "lon": -45.9138938}, {"type": "node", "id": 6049160268, "lat": -23.2315297, "lon": -45.9137422}, {"type": "node", "id": 6049160269, "lat": -23.2314617, "lon": -45.9138957}, {"type": "node", "id": 6049160270, "lat": -23.23175, "lon": -45.9140472}, {"type": "node", "id": 6086335815, "lat": -23.2260204, "lon": -45.9197912, "tags": {"addr:city": "S\u00e3o Jos\u00e9 dos Campos", "addr:housenumber": "280", "addr:postcode": "12240-110", "addr:street": "Rua Nelson C\u00e9sar de Oliveira", "addr:suburb": "Jardim das Ind\u00fastrias", "amenity": "fast_food", "contact:facebook": "https://www.facebook.com/grao.falafel", "contact:instagram": "https://www.instagram.com/graofalafel", "contact:phone": "+55 12 99155 0925", "cuisine": "falafel", "diet:vegan": "only", "name": "Gr\u00e3o Falafel", "opening_hours": "Th-Sa 18:00-23:00; Su 18:00-22:00; Mo-We off"}}, {"type": "node", "id": 6113712713, "lat": -23.1808729, "lon": -45.8838207}, {"type": "node", "id": 6113712714, "lat": -23.1807868, "lon": -45.8837314}, {"type": "node", "id": 6113712715, "lat": -23.1809585, "lon": -45.8836881}, {"type": "node", "id": 6113712716, "lat": -23.1809693, "lon": -45.8837388}, {"type": "node", "id": 6113712717, "lat": -23.1808093, "lon": -45.8838367}, {"type": "node", "id": 6139407728, "lat": -23.2297735, "lon": -45.8839739}, {"type": "node", "id": 6139407729, "lat": -23.229857, "lon": -45.8839796}, {"type": "node", "id": 6139407730, "lat": -23.2298601, "lon": -45.8841876}, {"type": "node", "id": 6139407731, "lat": -23.2297378, "lon": -45.8841793}, {"type": "node", "id": 6139407733, "lat": -23.2255708, "lon": -45.8851826, "tags": {"addr:city": "S\u00e3o Jos\u00e9 dos Campos", "addr:housenumber": "1499", "addr:postcode": "12230-000", "addr:street": "Avenida Andr\u00f4meda", "addr:suburb": "Jardim Sat\u00e9lite", "amenity": "bar", "name": "Baltazar"}}, {"type": "node", "id": 6139407734, "lat": -23.2256608, "lon": -45.8851511, "tags": {"addr:city": "S\u00e3o Jos\u00e9 dos Campos", "addr:housenumber": "1509", "addr:postcode": "12230-000", "addr:street": "Avenida Andr\u00f4meda", "addr:suburb": "Jardim Sat\u00e9lite", "amenity": "fast_food", "brand": "Subway", "brand:wikidata": "Q244457", "brand:wikipedia": "en:Subway (restaurant)", "cuisine": "sandwich", "name": "Subway", "takeaway": "yes"}}, {"type": "node", "id": 6150601257, "lat": -23.2010166, "lon": -45.8627491}, {"type": "node", "id": 6150601258, "lat": -23.2010339, "lon": -45.8627312}, {"type": "node", "id": 6150601259, "lat": -23.2009706, "lon": -45.8626639}, {"type": "node", "id": 6150601260, "lat": -23.2008964, "lon": -45.8627355}, {"type": "node", "id": 6150601261, "lat": -23.2008177, "lon": -45.8628328}, {"type": "node", "id": 6150601262, "lat": -23.200834, "lon": -45.8628512}, {"type": "node", "id": 6150601263, "lat": -23.2008221, "lon": -45.8628628}, {"type": "node", "id": 6150601264, "lat": -23.2008468, "lon": -45.8628858}, {"type": "node", "id": 6150601265, "lat": -23.200915, "lon": -45.8628802}, {"type": "node", "id": 6150601266, "lat": -23.2009138, "lon": -45.8628646}, {"type": "node", "id": 6150601267, "lat": -23.2010351, "lon": -45.8627711}, {"type": "node", "id": 6150718117, "lat": -23.1954032, "lon": -45.8920484}, {"type": "node", "id": 6150718118, "lat": -23.1954938, "lon": -45.8920853}, {"type": "node", "id": 6150718121, "lat": -23.1955943, "lon": -45.8919939}, {"type": "node", "id": 6150718122, "lat": -23.1952473, "lon": -45.8918504}, {"type": "node", "id": 6150718123, "lat": -23.1952067, "lon": -45.8919666}, {"type": "node", "id": 6150718124, "lat": -23.1955537, "lon": -45.8921101}, {"type": "node", "id": 6157350349, "lat": -23.222058, "lon": -45.9041766}, {"type": "node", "id": 6157350350, "lat": -23.2219009, "lon": -45.9041438}, {"type": "node", "id": 6168749789, "lat": -23.1856516, "lon": -45.8852049}, {"type": "node", "id": 6168749790, "lat": -23.1856872, "lon": -45.8851974}, {"type": "node", "id": 6168749791, "lat": -23.1855945, "lon": -45.8852724}, {"type": "node", "id": 6168749792, "lat": -23.1855723, "lon": -45.885147}, {"type": "node", "id": 6168749793, "lat": -23.1856745, "lon": -45.8851256}, {"type": "node", "id": 6168749794, "lat": -23.1856611, "lon": -45.8852585}, {"type": "node", "id": 6168749995, "lat": -23.1845714, "lon": -45.8876514}, {"type": "node", "id": 6168750051, "lat": -23.1908261, "lon": -45.8915951}, {"type": "node", "id": 6168750052, "lat": -23.1906868, "lon": -45.8914067}, {"type": "node", "id": 6168750053, "lat": -23.1907911, "lon": -45.8913155}, {"type": "node", "id": 6168750054, "lat": -23.1909304, "lon": -45.8915039}, {"type": "node", "id": 6168750339, "lat": -23.1881473, "lon": -45.8862267}, {"type": "node", "id": 6169697331, "lat": -23.1916514, "lon": -45.8910114}, {"type": "node", "id": 6169697332, "lat": -23.1915695, "lon": -45.8909213}, {"type": "node", "id": 6169697333, "lat": -23.1916779, "lon": -45.8908046}, {"type": "node", "id": 6169697334, "lat": -23.1917598, "lon": -45.8908946}, {"type": "node", "id": 6174205732, "lat": -23.1934289, "lon": -45.8934679}, {"type": "node", "id": 6174205733, "lat": -23.1934438, "lon": -45.8932998}, {"type": "node", "id": 6174205734, "lat": -23.1935596, "lon": -45.8933119}, {"type": "node", "id": 6174205735, "lat": -23.1935448, "lon": -45.89348}, {"type": "node", "id": 6174205736, "lat": -23.1935547, "lon": -45.8934301}, {"type": "node", "id": 6174205737, "lat": -23.1935621, "lon": -45.8932954}, {"type": "node", "id": 6174205738, "lat": -23.1936387, "lon": -45.8933003}, {"type": "node", "id": 6174205739, "lat": -23.1936313, "lon": -45.8934351}, {"type": "node", "id": 6175529811, "lat": -23.1972764, "lon": -45.8940723}, {"type": "node", "id": 6175529812, "lat": -23.1972809, "lon": -45.8940583}, {"type": "node", "id": 6175529813, "lat": -23.1971832, "lon": -45.8942091}, {"type": "node", "id": 6175529814, "lat": -23.1972379, "lon": -45.8940416}, {"type": "node", "id": 6175529815, "lat": -23.1973179, "lon": -45.8940883}, {"type": "node", "id": 6175529816, "lat": -23.1972677, "lon": -45.8942418}, {"type": "node", "id": 6175529819, "lat": -23.196913, "lon": -45.8941841}, {"type": "node", "id": 6175529820, "lat": -23.1969512, "lon": -45.8940647}, {"type": "node", "id": 6175529821, "lat": -23.1971905, "lon": -45.8941554}, {"type": "node", "id": 6175529822, "lat": -23.1971523, "lon": -45.8942748}, {"type": "node", "id": 6176617530, "lat": -23.205417, "lon": -45.9055236}, {"type": "node", "id": 6176617531, "lat": -23.2053012, "lon": -45.9054116}, {"type": "node", "id": 6176617532, "lat": -23.2053557, "lon": -45.9053448}, {"type": "node", "id": 6176617660, "lat": -23.2047688, "lon": -45.9012001}, {"type": "node", "id": 6176617661, "lat": -23.204948, "lon": -45.9009666}, {"type": "node", "id": 6176617662, "lat": -23.2050129, "lon": -45.9010256}, {"type": "node", "id": 6176617663, "lat": -23.2048337, "lon": -45.9012591}, {"type": "node", "id": 6176617796, "lat": -23.2034152, "lon": -45.8990816}, {"type": "node", "id": 6176617797, "lat": -23.2034379, "lon": -45.8990481}, {"type": "node", "id": 6176617798, "lat": -23.2032836, "lon": -45.8991169}, {"type": "node", "id": 6176617799, "lat": -23.2033025, "lon": -45.8990623}, {"type": "node", "id": 6176617800, "lat": -23.2033401, "lon": -45.8989698}, {"type": "node", "id": 6176617801, "lat": -23.2034864, "lon": -45.8991386}, {"type": "node", "id": 6176617802, "lat": -23.2034246, "lon": -45.8992299}, {"type": "node", "id": 6176617921, "lat": -23.204035, "lon": -45.9020457}, {"type": "node", "id": 6176617922, "lat": -23.203909, "lon": -45.9019319}, {"type": "node", "id": 6176617923, "lat": -23.2039581, "lon": -45.9018675}, {"type": "node", "id": 6176617924, "lat": -23.2040842, "lon": -45.9019813}, {"type": "node", "id": 6179528321, "lat": -23.1995413, "lon": -45.8928723}, {"type": "node", "id": 6179528322, "lat": -23.1996106, "lon": -45.8926629}, {"type": "node", "id": 6179528323, "lat": -23.1998537, "lon": -45.8927582}, {"type": "node", "id": 6179528324, "lat": -23.1997844, "lon": -45.8929675}, {"type": "node", "id": 6179528368, "lat": -23.1997562, "lon": -45.8929565}, {"type": "node", "id": 6179528697, "lat": -23.1989725, "lon": -45.8933468}, {"type": "node", "id": 6179528700, "lat": -23.1990204, "lon": -45.8932082}, {"type": "node", "id": 6179528701, "lat": -23.1990456, "lon": -45.8933767}, {"type": "node", "id": 6179528702, "lat": -23.1990934, "lon": -45.893238}, {"type": "node", "id": 6179528991, "lat": -23.2013629, "lon": -45.8930922}, {"type": "node", "id": 6179528992, "lat": -23.2014018, "lon": -45.8929769}, {"type": "node", "id": 6179528993, "lat": -23.2014798, "lon": -45.893008}, {"type": "node", "id": 6179528994, "lat": -23.2014409, "lon": -45.8931233}, {"type": "node", "id": 6179529111, "lat": -23.2008895, "lon": -45.8958046}, {"type": "node", "id": 6179529112, "lat": -23.2008034, "lon": -45.8957689}, {"type": "node", "id": 6179529113, "lat": -23.2008938, "lon": -45.8955111}, {"type": "node", "id": 6179529114, "lat": -23.2009799, "lon": -45.8955468}, {"type": "node", "id": 6179529215, "lat": -23.1994961, "lon": -45.8949522}, {"type": "node", "id": 6179529216, "lat": -23.1993902, "lon": -45.8949079}, {"type": "node", "id": 6179529217, "lat": -23.1993194, "lon": -45.8951082}, {"type": "node", "id": 6179529218, "lat": -23.1994253, "lon": -45.8951525}, {"type": "node", "id": 6179529233, "lat": -23.1991891, "lon": -45.8939103}, {"type": "node", "id": 6179529234, "lat": -23.1992472, "lon": -45.8937334}, {"type": "node", "id": 6179529235, "lat": -23.1993352, "lon": -45.8937686}, {"type": "node", "id": 6179529275, "lat": -23.2001604, "lon": -45.8940454}, {"type": "node", "id": 6179529276, "lat": -23.2000917, "lon": -45.8940161}, {"type": "node", "id": 6179529277, "lat": -23.200031, "lon": -45.8941847}, {"type": "node", "id": 6179529409, "lat": -23.2026014, "lon": -45.8934856}, {"type": "node", "id": 6179529410, "lat": -23.2026468, "lon": -45.8933642}, {"type": "node", "id": 6179529411, "lat": -23.2025416, "lon": -45.8933177}, {"type": "node", "id": 6179529412, "lat": -23.2024734, "lon": -45.8934999}, {"type": "node", "id": 6179529413, "lat": -23.2025786, "lon": -45.8935465}, {"type": "node", "id": 6185221425, "lat": -23.1826197, "lon": -45.8832787}, {"type": "node", "id": 6185221426, "lat": -23.1825145, "lon": -45.8835396}, {"type": "node", "id": 6185221427, "lat": -23.1827406, "lon": -45.8834883}, {"type": "node", "id": 6185221428, "lat": -23.1826971, "lon": -45.8832612}, {"type": "node", "id": 6186657693, "lat": -23.1859816, "lon": -45.8852395}, {"type": "node", "id": 6186657694, "lat": -23.1859471, "lon": -45.8850203}, {"type": "node", "id": 6186657695, "lat": -23.186069, "lon": -45.8849975}, {"type": "node", "id": 6186657696, "lat": -23.1861035, "lon": -45.8852168}, {"type": "node", "id": 6187375248, "lat": -23.2061226, "lon": -45.8884378}, {"type": "node", "id": 6187375249, "lat": -23.2061899, "lon": -45.8883423}, {"type": "node", "id": 6187375250, "lat": -23.2062154, "lon": -45.8883057}, {"type": "node", "id": 6187375251, "lat": -23.2061494, "lon": -45.8883998}, {"type": "node", "id": 6187375252, "lat": -23.2060738, "lon": -45.8883966}, {"type": "node", "id": 6187375253, "lat": -23.2060115, "lon": -45.8883489}, {"type": "node", "id": 6187375254, "lat": -23.2061064, "lon": -45.8882179}, {"type": "node", "id": 6187375255, "lat": -23.2060389, "lon": -45.8883111}, {"type": "node", "id": 6187376156, "lat": -23.1981381, "lon": -45.8886598, "tags": {"amenity": "fast_food", "name": "Pra\u00e7a S\u00e3o Dimas Pastel"}}, {"type": "node", "id": 6187376157, "lat": -23.1989901, "lon": -45.8888023, "tags": {"amenity": "pub", "check_date": "2023-04-06", "name": "Raycel Bar"}}, {"type": "node", "id": 6190865615, "lat": -23.1920272, "lon": -45.8898758}, {"type": "node", "id": 6190865620, "lat": -23.1920259, "lon": -45.8899487}, {"type": "node", "id": 6191093082, "lat": -23.1975597, "lon": -45.8883799}, {"type": "node", "id": 6191093096, "lat": -23.1976397, "lon": -45.8883703}, {"type": "node", "id": 6202461831, "lat": -23.1971974, "lon": -45.8911311}, {"type": "node", "id": 6202461832, "lat": -23.1972113, "lon": -45.8911346}, {"type": "node", "id": 6202461833, "lat": -23.197088, "lon": -45.8911448}, {"type": "node", "id": 6202461834, "lat": -23.1971826, "lon": -45.8912674}, {"type": "node", "id": 6202461835, "lat": -23.1970842, "lon": -45.8912429}, {"type": "node", "id": 6202461836, "lat": -23.1971182, "lon": -45.8910927}, {"type": "node", "id": 6202461837, "lat": -23.1972015, "lon": -45.8911121}, {"type": "node", "id": 6204781630, "lat": -23.2079055, "lon": -45.8582049}, {"type": "node", "id": 6204781631, "lat": -23.2079648, "lon": -45.8582907}, {"type": "node", "id": 6228443176, "lat": -23.2122609, "lon": -45.856984}, {"type": "node", "id": 6228443177, "lat": -23.2122633, "lon": -45.8569062}, {"type": "node", "id": 6228443178, "lat": -23.2124505, "lon": -45.8569129}, {"type": "node", "id": 6228443179, "lat": -23.2124481, "lon": -45.8569907}, {"type": "node", "id": 6228443198, "lat": -23.2135773, "lon": -45.8569462}, {"type": "node", "id": 6228443205, "lat": -23.2134748, "lon": -45.8569432}, {"type": "node", "id": 6251973485, "lat": -23.1993514, "lon": -45.8898611, "tags": {"amenity": "fast_food", "check_date": "2023-04-06", "name": "Lanches 14 Bis"}}, {"type": "node", "id": 6254953276, "lat": -23.2031234, "lon": -45.9003982}, {"type": "node", "id": 6254953277, "lat": -23.2031957, "lon": -45.9004652}, {"type": "node", "id": 6254953278, "lat": -23.2033587, "lon": -45.9002569}, {"type": "node", "id": 6254953279, "lat": -23.2032865, "lon": -45.9001899}, {"type": "node", "id": 6270880294, "lat": -23.190668, "lon": -45.8749455}, {"type": "node", "id": 6270880298, "lat": -23.1906509, "lon": -45.8748161}, {"type": "node", "id": 6270880299, "lat": -23.1906091, "lon": -45.8749165}, {"type": "node", "id": 6270880301, "lat": -23.1907092, "lon": -45.8748435}, {"type": "node", "id": 6311555504, "lat": -23.1796946, "lon": -45.8878823, "tags": {"amenity": "fast_food", "note": "N\u00e3o h\u00e1 nome na fachada. Verificar se poss\u00edvel."}}, {"type": "node", "id": 6311555506, "lat": -23.1795808, "lon": -45.8879303, "tags": {"amenity": "fast_food", "name": "Cheng"}}, {"type": "node", "id": 6311570646, "lat": -23.1805687, "lon": -45.8836785}, {"type": "node", "id": 6311570647, "lat": -23.1805033, "lon": -45.8833567}, {"type": "node", "id": 6311570648, "lat": -23.1804388, "lon": -45.8833722}, {"type": "node", "id": 6311570649, "lat": -23.1804581, "lon": -45.8834673}, {"type": "node", "id": 6311570650, "lat": -23.1804148, "lon": -45.8834778}, {"type": "node", "id": 6311570651, "lat": -23.1804609, "lon": -45.8837044}, {"type": "node", "id": 6313047414, "lat": -23.1844063, "lon": -45.8854353, "tags": {"amenity": "cafe", "name": "Nosso Caf\u00e9"}}, {"type": "node", "id": 6313047419, "lat": -23.1808502, "lon": -45.8873859, "tags": {"amenity": "fast_food"}}, {"type": "node", "id": 6316875002, "lat": -23.1851031, "lon": -45.8852591, "tags": {"amenity": "restaurant", "cuisine": "regional", "level": "0", "name": "Sol"}}, {"type": "node", "id": 6323681376, "lat": -23.18111, "lon": -45.886195, "tags": {"amenity": "fast_food", "name": "Pastelaria Sonho"}}, {"type": "node", "id": 6323681377, "lat": -23.1813702, "lon": -45.8866362, "tags": {"amenity": "restaurant", "name": "Capri", "outdoor_seating": "no", "self_service": "yes"}}, {"type": "node", "id": 6325859409, "lat": -23.1801761, "lon": -45.8856567, "tags": {"amenity": "fast_food", "name": "Skina do A\u00e7a\u00ed"}}, {"type": "node", "id": 6331702373, "lat": -23.2079238, "lon": -45.8583243}, {"type": "node", "id": 6331702374, "lat": -23.2078645, "lon": -45.8582384}, {"type": "node", "id": 6353491691, "lat": -23.188756, "lon": -45.8761939}, {"type": "node", "id": 6353491692, "lat": -23.1886497, "lon": -45.8761954}, {"type": "node", "id": 6353491702, "lat": -23.188697, "lon": -45.8763497}, {"type": "node", "id": 6357399148, "lat": -23.1876288, "lon": -45.8746324}, {"type": "node", "id": 6357399151, "lat": -23.1876172, "lon": -45.8747137}, {"type": "node", "id": 6357399152, "lat": -23.187749, "lon": -45.8747054}, {"type": "node", "id": 6357399153, "lat": -23.1877525, "lon": -45.874706}, {"type": "node", "id": 6357399154, "lat": -23.1877431, "lon": -45.8747717}, {"type": "node", "id": 6357399155, "lat": -23.1877303, "lon": -45.8747695}, {"type": "node", "id": 6357399156, "lat": -23.1877255, "lon": -45.8748034}, {"type": "node", "id": 6357399157, "lat": -23.1876072, "lon": -45.8747833}, {"type": "node", "id": 6357399158, "lat": -23.1876373, "lon": -45.874573}, {"type": "node", "id": 6357399159, "lat": -23.1877649, "lon": -45.8745947}, {"type": "node", "id": 6383478997, "lat": -23.2450013, "lon": -45.910651, "tags": {"amenity": "fast_food", "cuisine": "a\u00e7a\u00ed;lanches", "name": "A\u00e7a\u00ed da Pra\u00e7a"}}, {"type": "node", "id": 6383478998, "lat": -23.2455765, "lon": -45.9098921, "tags": {"amenity": "ice_cream", "name": "Sorveteria Kawaii"}}, {"type": "node", "id": 6384783079, "lat": -23.2041756, "lon": -45.8923349}, {"type": "node", "id": 6384783080, "lat": -23.2043279, "lon": -45.8923477}, {"type": "node", "id": 6384783081, "lat": -23.2043333, "lon": -45.8922998}, {"type": "node", "id": 6384783082, "lat": -23.2041809, "lon": -45.8922847}, {"type": "node", "id": 6394191592, "lat": -23.2035924, "lon": -45.8969544}, {"type": "node", "id": 6394191593, "lat": -23.2036936, "lon": -45.896992}, {"type": "node", "id": 6394191594, "lat": -23.20372, "lon": -45.8969222}, {"type": "node", "id": 6394191595, "lat": -23.2036339, "lon": -45.8968641}, {"type": "node", "id": 6394191596, "lat": -23.203671, "lon": -45.8967944}, {"type": "node", "id": 6394191597, "lat": -23.2035843, "lon": -45.896791}, {"type": "node", "id": 6394191598, "lat": -23.2035855, "lon": -45.8968723}, {"type": "node", "id": 6416249051, "lat": -23.2041787, "lon": -45.9018403}, {"type": "node", "id": 6416249052, "lat": -23.2042844, "lon": -45.9019335}, {"type": "node", "id": 6416249053, "lat": -23.2043972, "lon": -45.9017823}, {"type": "node", "id": 6416249054, "lat": -23.2041795, "lon": -45.9015902}, {"type": "node", "id": 6416249055, "lat": -23.2041434, "lon": -45.9016387}, {"type": "node", "id": 6416249056, "lat": -23.2042553, "lon": -45.9017375}, {"type": "node", "id": 6416331024, "lat": -23.2036902, "lon": -45.8979264}, {"type": "node", "id": 6416331025, "lat": -23.2038086, "lon": -45.898045}, {"type": "node", "id": 6416331026, "lat": -23.2038868, "lon": -45.8979571}, {"type": "node", "id": 6416331027, "lat": -23.203799, "lon": -45.8978767}, {"type": "node", "id": 6416331028, "lat": -23.2037141, "lon": -45.8978696}, {"type": "node", "id": 6416331041, "lat": -23.2036838, "lon": -45.8982371}, {"type": "node", "id": 6416331042, "lat": -23.2037494, "lon": -45.89827}, {"type": "node", "id": 6416331051, "lat": -23.2036938, "lon": -45.8982421}, {"type": "node", "id": 6416509198, "lat": -23.196105, "lon": -45.8913614}, {"type": "node", "id": 6416509200, "lat": -23.1961858, "lon": -45.8912708}, {"type": "node", "id": 6416509201, "lat": -23.1961186, "lon": -45.8912601}, {"type": "node", "id": 6419291885, "lat": -23.2040979, "lon": -45.8971689}, {"type": "node", "id": 6419291886, "lat": -23.204169, "lon": -45.8972018}, {"type": "node", "id": 6419291887, "lat": -23.20421, "lon": -45.8970966}, {"type": "node", "id": 6419291888, "lat": -23.204139, "lon": -45.8970637}, {"type": "node", "id": 6422141559, "lat": -23.1971438, "lon": -45.8962649, "tags": {"addr:city": "S\u00e3o Jos\u00e9 dos Campos", "addr:housenumber": "305", "addr:postcode": "12243-750", "addr:street": "Rua Engenheiro Prudente Meireles de Moraes", "addr:suburb": "Vila Adyana", "amenity": "bar", "check_date": "2023-04-16", "contact:email": "contato@nibsjuicebar.com.br", "contact:facebook": "https://www.facebook.com/nibsjuicebar/", "contact:phone": "+55 12 3901-8183", "diet:gluten_free": "yes", "diet:lactose_free": "yes", "diet:vegan": "yes", "diet:vegetarian": "yes", "name": "Nibs Juice Bar", "opening_hours": "Tu-Fr 10:00-22:00; Sa-Su 09:00-20:00", "website": "http://www.nibsjuicebar.com.br/"}}, {"type": "node", "id": 6422157919, "lat": -23.1980998, "lon": -45.8890552, "tags": {"addr:city": "S\u00e3o Jos\u00e9 dos Campos", "addr:housenumber": "589", "addr:postcode": "12245-000", "addr:street": "Avenida Engenheiro Francisco Jos\u00e9 Longo", "addr:suburb": "Jardim S\u00e3o Dimas", "amenity": "restaurant", "check_date": "2023-07-16", "contact:phone": "+55 21 3921-9153", "diet:vegan": "yes", "diet:vegetarian": "only", "name": "Com-Sci\u00eancia", "opening_hours": "Su-Fr 11:00-15:00", "website": "http://comsciencia.com.br/", "wheelchair": "yes"}}, {"type": "node", "id": 6423242303, "lat": -23.1951358, "lon": -45.8939777}, {"type": "node", "id": 6423242304, "lat": -23.1952156, "lon": -45.8940078}, {"type": "node", "id": 6423242305, "lat": -23.1952865, "lon": -45.8937858}, {"type": "node", "id": 6423242306, "lat": -23.1952067, "lon": -45.8937556}, {"type": "node", "id": 6433345131, "lat": -23.1804279, "lon": -45.8835423}, {"type": "node", "id": 6433345132, "lat": -23.1805626, "lon": -45.8836487}, {"type": "node", "id": 6433345136, "lat": -23.1805407, "lon": -45.883541}, {"type": "node", "id": 6434745129, "lat": -23.1997389, "lon": -45.9045905}, {"type": "node", "id": 6434745130, "lat": -23.1998039, "lon": -45.9045876}, {"type": "node", "id": 6434745131, "lat": -23.1998033, "lon": -45.9045725}, {"type": "node", "id": 6434745132, "lat": -23.199837, "lon": -45.904571}, {"type": "node", "id": 6434745133, "lat": -23.1998317, "lon": -45.9044346}, {"type": "node", "id": 6434745134, "lat": -23.1997331, "lon": -45.9044391}, {"type": "node", "id": 6434745140, "lat": -23.1997837, "lon": -45.9045885}, {"type": "node", "id": 6438600725, "lat": -23.1980499, "lon": -45.9046677}, {"type": "node", "id": 6438600726, "lat": -23.1980494, "lon": -45.9046265}, {"type": "node", "id": 6438600727, "lat": -23.1980235, "lon": -45.9046269}, {"type": "node", "id": 6438600728, "lat": -23.1980229, "lon": -45.9045755}, {"type": "node", "id": 6438600729, "lat": -23.198045, "lon": -45.9045752}, {"type": "node", "id": 6438600730, "lat": -23.1980446, "lon": -45.904539}, {"type": "node", "id": 6438600731, "lat": -23.1982012, "lon": -45.9045368}, {"type": "node", "id": 6438600732, "lat": -23.1982027, "lon": -45.9046656}, {"type": "node", "id": 6438601233, "lat": -23.1971458, "lon": -45.9046291}, {"type": "node", "id": 6438601234, "lat": -23.1971473, "lon": -45.9045992}, {"type": "node", "id": 6438601235, "lat": -23.1971754, "lon": -45.9046008}, {"type": "node", "id": 6438601236, "lat": -23.1971827, "lon": -45.904454}, {"type": "node", "id": 6438601237, "lat": -23.1970556, "lon": -45.9044465}, {"type": "node", "id": 6438601238, "lat": -23.1970494, "lon": -45.9045721}, {"type": "node", "id": 6438601239, "lat": -23.1970287, "lon": -45.9045708}, {"type": "node", "id": 6438601240, "lat": -23.1970262, "lon": -45.9046221}, {"type": "node", "id": 6438601534, "lat": -23.1959067, "lon": -45.9040537}, {"type": "node", "id": 6438601535, "lat": -23.1959773, "lon": -45.9039691}, {"type": "node", "id": 6438601536, "lat": -23.1960588, "lon": -45.9040489}, {"type": "node", "id": 6438601537, "lat": -23.1959903, "lon": -45.904134}, {"type": "node", "id": 6461921642, "lat": -23.1960567, "lon": -45.9040455}, {"type": "node", "id": 6476569528, "lat": -23.2052836, "lon": -45.8975868, "tags": {"addr:city": "S\u00e3o Jos\u00e9 dos Campos", "addr:housenumber": "211", "addr:postcode": "12243-360", "addr:street": "Rua Serimbura", "addr:suburb": "Vila Guaianazes", "amenity": "cafe", "contact:email": "vitaqualli@gmail.com", "contact:facebook": "https://www.facebook.com/vitaqualli/", "contact:instagram": "https://www.instagram.com/vitaqualli/", "contact:phone": "+55 12 3207-4810", "diet:gluten_free": "yes", "diet:lactose_free": "yes", "diet:vegan": "yes", "name": "Vitaqualli", "opening_hours": "Mo-Fr 09:00-18:30; Sa 09:30-13:30", "organic": "yes", "shop": "health_food"}}, {"type": "node", "id": 6487014763, "lat": -23.2056102, "lon": -45.8878493}, {"type": "node", "id": 6487014764, "lat": -23.2055816, "lon": -45.8875825}, {"type": "node", "id": 6487014765, "lat": -23.2057741, "lon": -45.8878329}, {"type": "node", "id": 6487037398, "lat": -23.2064992, "lon": -45.8950341, "tags": {"amenity": "restaurant", "cuisine": "pizza"}}, {"type": "node", "id": 6548612069, "lat": -23.2158372, "lon": -45.8515137, "tags": {"addr:city": "S\u00e3o Jos\u00e9 dos Campos", "addr:street": "Rua Domingos Maldonado Campoy", "amenity": "restaurant", "name": "Mosaico"}}, {"type": "node", "id": 6548612070, "lat": -23.2164802, "lon": -45.8509349, "tags": {"addr:city": "S\u00e3o Jos\u00e9 dos Campos", "addr:street": "Rua Ant\u00f4nio Vieira Veiga", "amenity": "restaurant", "cuisine": "regional", "name": "Restaurante da Carminha"}}, {"type": "node", "id": 6548647760, "lat": -23.2147661, "lon": -45.8558831, "tags": {"addr:city": "S\u00e3o Jos\u00e9 dos Campos", "amenity": "restaurant", "name": "Grano"}}, {"type": "node", "id": 6549212594, "lat": -23.2033618, "lon": -45.8973052, "tags": {"addr:city": "S\u00e3o Jos\u00e9 dos Campos", "addr:housenumber": "1041", "addr:postcode": "12243-260", "addr:street": "Avenida Heitor Villa Lobos", "addr:suburb": "Vila Ema", "amenity": "pub", "check_date": "2023-04-06", "contact:facebook": "https://www.facebook.com/pages/Savema/113665968722912", "email": "contato@savema.com.br", "name": "SAVEMA", "opening_hours": "Tu 09:00-23:00; Sa 09:00-23:00; Su 09:00-14:00", "phone": "+55 12 3942 5149"}}, {"type": "node", "id": 6573694044, "lat": -23.2155903, "lon": -45.8947563}, {"type": "node", "id": 6573694045, "lat": -23.2156317, "lon": -45.8947146}, {"type": "node", "id": 6573694046, "lat": -23.2156013, "lon": -45.8946789}, {"type": "node", "id": 6573694047, "lat": -23.2155654, "lon": -45.8947004}, {"type": "node", "id": 6573694048, "lat": -23.2155386, "lon": -45.8947051}, {"type": "node", "id": 6573694049, "lat": -23.2155259, "lon": -45.8946935}, {"type": "node", "id": 6573694050, "lat": -23.2155352, "lon": -45.8946815}, {"type": "node", "id": 6573694051, "lat": -23.2154996, "lon": -45.8946491}, {"type": "node", "id": 6573694052, "lat": -23.2154953, "lon": -45.8946373}, {"type": "node", "id": 6573694053, "lat": -23.21569, "lon": -45.8944377}, {"type": "node", "id": 6573694054, "lat": -23.2158518, "lon": -45.8946246}, {"type": "node", "id": 6573694055, "lat": -23.2158394, "lon": -45.8946373}, {"type": "node", "id": 6573694056, "lat": -23.2158376, "lon": -45.8947263}, {"type": "node", "id": 6573694057, "lat": -23.215816, "lon": -45.8947414}, {"type": "node", "id": 6573694058, "lat": -23.2158192, "lon": -45.8948267}, {"type": "node", "id": 6573694059, "lat": -23.2157476, "lon": -45.8948299}, {"type": "node", "id": 6573694060, "lat": -23.2157303, "lon": -45.8948489}, {"type": "node", "id": 6573694061, "lat": -23.2157104, "lon": -45.8948275}, {"type": "node", "id": 6573694062, "lat": -23.2157056, "lon": -45.8948289}, {"type": "node", "id": 6573694063, "lat": -23.2156983, "lon": -45.8948275}, {"type": "node", "id": 6573694064, "lat": -23.2156953, "lon": -45.89482}, {"type": "node", "id": 6573694065, "lat": -23.2156979, "lon": -45.8948139}, {"type": "node", "id": 6573694066, "lat": -23.2156837, "lon": -45.8947966}, {"type": "node", "id": 6573694067, "lat": -23.2156619, "lon": -45.8948176}, {"type": "node", "id": 6573694068, "lat": -23.2156316, "lon": -45.8948191}, {"type": "node", "id": 6573694069, "lat": -23.2156208, "lon": -45.8948125}, {"type": "node", "id": 6573694070, "lat": -23.2155897, "lon": -45.8947687}, {"type": "node", "id": 6591461196, "lat": -23.1961722, "lon": -45.8913721}, {"type": "node", "id": 6611751620, "lat": -23.205203, "lon": -45.9053244, "tags": {"amenity": "pub", "name": "Chaparral"}}, {"type": "node", "id": 6618132926, "lat": -23.210473, "lon": -45.9088742}, {"type": "node", "id": 6646946692, "lat": -23.1728317, "lon": -45.8416329, "tags": {"amenity": "restaurant", "restaurant": "packed lunch"}}, {"type": "node", "id": 6704610730, "lat": -23.1907799, "lon": -45.8885254, "tags": {"amenity": "fast_food", "name": "Baunilha"}}, {"type": "node", "id": 6741002042, "lat": -23.2040528, "lon": -45.8963109, "tags": {"addr:city": "S\u00e3o Jos\u00e9 dos Campos", "addr:housenumber": "172", "addr:postcode": "12243-290", "addr:street": "Travessa Santa Ines", "addr:suburb": "Jardim Santa Madalena", "amenity": "fast_food", "contact:facebook": "https://www.facebook.com/gatitasdelchurreria/", "cuisine": "burger", "delivery": "yes", "diet:vegan": "yes", "name": "Gatita's del churros", "opening_hours": "Mo-Su 16:00-00:00"}}, {"type": "node", "id": 6744820690, "lat": -23.2298726, "lon": -45.8909006, "tags": {"amenity": "cafe", "internet_access": "yes", "internet_access:fee": "yes", "outdoor_seating": "yes"}}, {"type": "node", "id": 6768130108, "lat": -23.1978659, "lon": -45.9045845}, {"type": "node", "id": 6768130109, "lat": -23.1979453, "lon": -45.9045823}, {"type": "node", "id": 6768130110, "lat": -23.1979418, "lon": -45.9044285}, {"type": "node", "id": 6768130111, "lat": -23.1978624, "lon": -45.9044306}, {"type": "node", "id": 6770681898, "lat": -23.195925, "lon": -45.9040719}, {"type": "node", "id": 6780071075, "lat": -23.2120226, "lon": -45.8513311, "tags": {"addr:city": "S\u00e3o Jos\u00e9 dos Campos", "addr:housenumber": "30", "addr:postcode": "12227-670", "addr:street": "Rua dos Socos", "addr:suburb": "Jardim Uir\u00e1", "amenity": "restaurant", "contact:whatsapp": "+55 12 98174-7362", "cuisine": "regional", "description": "Restaurante e lanchonete", "fixme": "Verificar localiza\u00e7\u00e3o exata", "name": "Esta\u00e7\u00e3o Real", "self_service": "yes"}}, {"type": "node", "id": 6781729486, "lat": -23.2041229, "lon": -45.9082999, "tags": {"amenity": "cafe", "contact:facebook": "https://www.facebook.com/cafedonutsbr", "contact:instagram": "https://www.instagram.com/cafedonuts_oficial/", "cuisine": "coffee;donut", "level": "0", "name": "Caf\u00e9 Donuts", "website": "https://cafedonuts.com.br/"}}, {"type": "node", "id": 6829129885, "lat": -23.19637, "lon": -45.8895291, "tags": {"addr:street": "Avenida Engenheiro Francisco Jos\u00e9 Longo", "amenity": "restaurant", "cuisine": "brazilian;italian", "name": "Bravo Casa de Massas", "opening_hours": "Mo-Sa 11:00-14:00"}}, {"type": "node", "id": 6841994491, "lat": -23.20674, "lon": -45.8947096}, {"type": "node", "id": 6841994492, "lat": -23.2067625, "lon": -45.8946356}, {"type": "node", "id": 6841994493, "lat": -23.2067838, "lon": -45.894635}, {"type": "node", "id": 6841994494, "lat": -23.2067953, "lon": -45.8945971}, {"type": "node", "id": 6841994495, "lat": -23.206703, "lon": -45.8945639}, {"type": "node", "id": 6859252959, "lat": -23.2011341, "lon": -45.895817, "tags": {"addr:city": "S\u00e3o Jos\u00e9 dos Campos", "addr:housenumber": "949", "addr:postcode": "12243-000", "addr:street": "Avenida Nove de Julho", "addr:suburb": "Jardim Apolo", "amenity": "restaurant", "brand": "Pizza Hut", "brand:wikidata": "Q191615", "brand:wikipedia": "en:Pizza Hut", "check_date": "2023-03-28", "cuisine": "pizza", "delivery": "yes", "name": "Pizza Hut", "phone": "+55 12 3933 6066"}}, {"type": "node", "id": 6860939736, "lat": -23.1447443, "lon": -45.7820613, "tags": {"amenity": "restaurant"}}, {"type": "node", "id": 6860939737, "lat": -23.1463648, "lon": -45.7803235, "tags": {"amenity": "restaurant"}}, {"type": "node", "id": 6860939744, "lat": -23.1464858, "lon": -45.7953873, "tags": {"addr:housenumber": "2600", "addr:street": "Avenida Marilise Martins dos Santos", "amenity": "restaurant", "cuisine": "regional", "name": "C\u00e9u da Terra"}}, {"type": "node", "id": 6868614195, "lat": -23.1881827, "lon": -45.8865246}, {"type": "node", "id": 6868614196, "lat": -23.188227, "lon": -45.8865171}, {"type": "node", "id": 6868614197, "lat": -23.1881907, "lon": -45.8862206}, {"type": "node", "id": 6868614199, "lat": -23.1881676, "lon": -45.8862321, "tags": {"addr:city": "S\u00e3o Jos\u00e9 dos Campos", "addr:housenumber": "244", "addr:postcode": "12245-642", "addr:street": "Avenida Doutor N\u00e9lson D'\u00c1vila", "addr:suburb": "Centro", "air_conditioning": "yes", "amenity": "restaurant", "capacity": "50", "cuisine": "italian", "description": "Restaurante especializado em massas e pizzas.  Tamb\u00e9m oferece caf\u00e9.", "internet_access": "wlan", "name": "Bocattino Box - SJC/Centro", "opening_hours": "Mo-Sa 08:00-18:00", "phone": "+55 12 3028-7109", "stars": "5", "takeaway": "yes", "wheelchair": "yes"}}, {"type": "node", "id": 6896970892, "lat": -23.2144874, "lon": -45.9020823}, {"type": "node", "id": 6896970893, "lat": -23.2145393, "lon": -45.9020914}, {"type": "node", "id": 6896970894, "lat": -23.2145331, "lon": -45.9021335}, {"type": "node", "id": 6896970895, "lat": -23.2146077, "lon": -45.9021471}, {"type": "node", "id": 6896970896, "lat": -23.21463, "lon": -45.9019942}, {"type": "node", "id": 6896970897, "lat": -23.214558, "lon": -45.9019825}, {"type": "node", "id": 6896970898, "lat": -23.2145507, "lon": -45.9020315}, {"type": "node", "id": 6896970899, "lat": -23.2144963, "lon": -45.902022}, {"type": "node", "id": 6935362836, "lat": -23.2105846, "lon": -45.9088909}, {"type": "node", "id": 6935362837, "lat": -23.2105933, "lon": -45.9088225}, {"type": "node", "id": 6935362838, "lat": -23.2104814, "lon": -45.9088062}, {"type": "node", "id": 6935362841, "lat": -23.2104752, "lon": -45.9088574}, {"type": "node", "id": 6937764071, "lat": -23.164863, "lon": -45.8057988, "tags": {"amenity": "restaurant", "name": "Pantanal"}}, {"type": "node", "id": 7066956094, "lat": -23.2237523, "lon": -45.9068175, "tags": {"amenity": "fast_food", "brand": "Burger King", "brand:wikidata": "Q177054", "brand:wikipedia": "en:Burger King", "cuisine": "burger", "drive_through": "no", "name": "Burger King", "takeaway": "yes"}}, {"type": "node", "id": 7066956095, "lat": -23.2237766, "lon": -45.9065857, "tags": {"amenity": "fast_food", "brand": "Subway", "brand:wikidata": "Q244457", "brand:wikipedia": "en:Subway (restaurant)", "cuisine": "sandwich", "name": "Subway", "takeaway": "yes"}}, {"type": "node", "id": 7134285756, "lat": -23.2116489, "lon": -45.9007732}, {"type": "node", "id": 7134285757, "lat": -23.2117308, "lon": -45.9008454}, {"type": "node", "id": 7134285758, "lat": -23.2119342, "lon": -45.9005725}, {"type": "node", "id": 7134285759, "lat": -23.2118523, "lon": -45.9005002}, {"type": "node", "id": 7137658346, "lat": -23.2063825, "lon": -45.9073746}, {"type": "node", "id": 7137658347, "lat": -23.2061616, "lon": -45.907202}, {"type": "node", "id": 7137658351, "lat": -23.2063904, "lon": -45.9074424, "tags": {"entrance": "main", "level": "0"}}, {"type": "node", "id": 7147612126, "lat": -23.2194345, "lon": -45.8863926}, {"type": "node", "id": 7147612127, "lat": -23.2194144, "lon": -45.8864187}, {"type": "node", "id": 7147612128, "lat": -23.2194393, "lon": -45.8864627}, {"type": "node", "id": 7147612129, "lat": -23.2193985, "lon": -45.8865118}, {"type": "node", "id": 7147612130, "lat": -23.219457, "lon": -45.8865694}, {"type": "node", "id": 7147612131, "lat": -23.2194876, "lon": -45.8865326}, {"type": "node", "id": 7147612132, "lat": -23.2195374, "lon": -45.8865819}, {"type": "node", "id": 7147612133, "lat": -23.2195768, "lon": -45.886606}, {"type": "node", "id": 7147612134, "lat": -23.2196816, "lon": -45.8864928}, {"type": "node", "id": 7147612135, "lat": -23.2194961, "lon": -45.8862895}, {"type": "node", "id": 7184990352, "lat": -23.1566422, "lon": -45.7904259}, {"type": "node", "id": 7184990353, "lat": -23.1566855, "lon": -45.7904009}, {"type": "node", "id": 7184990354, "lat": -23.1566771, "lon": -45.7903838}, {"type": "node", "id": 7184990355, "lat": -23.1566338, "lon": -45.7904088}, {"type": "node", "id": 7185015108, "lat": -23.1570642, "lon": -45.7916221, "tags": {"amenity": "restaurant", "cuisine": "regional", "name": "SHA"}}, {"type": "node", "id": 7185015109, "lat": -23.157005, "lon": -45.7907343, "tags": {"amenity": "cafe", "name": "Caf\u00e9 do Bar\u00e3o"}}, {"type": "node", "id": 7206109327, "lat": -23.1882647, "lon": -45.8751199, "tags": {"addr:city": "S\u00e3o Jos\u00e9 dos Campos", "addr:street": "Avenida Brasil", "addr:suburb": "Jardim Paulista", "amenity": "fast_food"}}, {"type": "node", "id": 7206136936, "lat": -23.1887355, "lon": -45.8746278, "tags": {"addr:city": "S\u00e3o Jos\u00e9 dos Campos", "addr:street": "Rua Tenente A\u00e9cio Lemes de Souza", "addr:suburb": "Jardim Paulista", "amenity": "fast_food", "cuisine": "italian", "name": "Rei das massas"}}, {"type": "node", "id": 7206136940, "lat": -23.1889194, "lon": -45.8748756, "tags": {"addr:city": "S\u00e3o Jos\u00e9 dos Campos", "addr:street": "Rua Tenente A\u00e9cio Lemes de Souza", "addr:suburb": "Jardim Paulista", "amenity": "pub", "name": "Buteco do Bigode"}}, {"type": "node", "id": 7207284013, "lat": -23.1898705, "lon": -45.8762058, "tags": {"amenity": "pub"}}, {"type": "node", "id": 7207284029, "lat": -23.1896868, "lon": -45.875947, "tags": {"addr:city": "S\u00e3o Jos\u00e9 dos Campos", "addr:street": "Rua Riachuelo", "addr:suburb": "Jardim Paulista", "amenity": "ice_cream", "name": "Sabor ver\u00e3o"}}, {"type": "node", "id": 7207284033, "lat": -23.1898265, "lon": -45.8760197, "tags": {"amenity": "pub", "name": "Nivaldo e Monica's Bar"}}, {"type": "node", "id": 7207284038, "lat": -23.1888965, "lon": -45.8755647, "tags": {"addr:city": "S\u00e3o Jos\u00e9 dos Campos", "addr:street": "Rua Riachuelo", "addr:suburb": "Jardim Paulista", "amenity": "restaurant", "name": "Restaurante Vit\u00f3ria"}}, {"type": "node", "id": 7207284169, "lat": -23.1890956, "lon": -45.8749622, "tags": {"addr:city": "S\u00e3o Jos\u00e9 dos Campos", "addr:street": "Rua Tenente A\u00e9cio Lemes de Souza", "addr:suburb": "Jardim Paulista", "amenity": "fast_food", "name": "Sabor do S\u00edtio"}}, {"type": "node", "id": 7207284172, "lat": -23.1884451, "lon": -45.8747151, "tags": {"addr:city": "S\u00e3o Jos\u00e9 dos Campos", "addr:street": "Avenida Pedro \u00c1lvares Cabral", "addr:suburb": "Jardim Paulista", "amenity": "restaurant", "name": "Restaurante Paulista", "phone": "+55 12 3941 3571"}}, {"type": "node", "id": 7207309169, "lat": -23.1895534, "lon": -45.8772461, "tags": {"addr:street": "Rua Castro Alves", "amenity": "fast_food", "cuisine": "burger", "name": "Ren\u00ea Lanches"}}, {"type": "node", "id": 7207315318, "lat": -23.1900105, "lon": -45.8776113, "tags": {"addr:city": "S\u00e3o Jos\u00e9 dos Campos", "addr:street": "Pra\u00e7a Duque de Caxias", "addr:suburb": "Jardim Paulista", "amenity": "restaurant", "name": "M & G Cantina Paulista"}}, {"type": "node", "id": 7208745372, "lat": -23.1902418, "lon": -45.8746384, "tags": {"addr:city": "S\u00e3o Jos\u00e9 dos Campos", "addr:street": "Avenida Santos Dumont", "addr:suburb": "Jardim Paulista", "amenity": "pub", "name": "Bar do Dil"}}, {"type": "node", "id": 7208745378, "lat": -23.1897556, "lon": -45.8745251, "tags": {"addr:city": "S\u00e3o Jos\u00e9 dos Campos", "addr:street": "Avenida Santos Dumont", "addr:suburb": "Jardim Paulista", "amenity": "restaurant", "cuisine": "pizza", "name": "Pizza Pr\u00e9-Assada"}}, {"type": "node", "id": 7208838715, "lat": -23.1883847, "lon": -45.8737334, "tags": {"addr:city": "S\u00e3o Jos\u00e9 dos Campos", "addr:street": "Avenida Pedro \u00c1lvares Cabral", "addr:suburb": "Jardim Paulista", "amenity": "fast_food", "name": "Lanches Yamada"}}, {"type": "node", "id": 7208838717, "lat": -23.1883832, "lon": -45.8742107, "tags": {"addr:city": "S\u00e3o Jos\u00e9 dos Campos", "addr:street": "Avenida Pedro \u00c1lvares Cabral", "addr:suburb": "Jardim Paulista", "amenity": "fast_food", "cuisine": "hot_dog", "name": "Cachorro Quente do Alem\u00e3o"}}, {"type": "node", "id": 7208838719, "lat": -23.1885659, "lon": -45.8741919, "tags": {"addr:city": "S\u00e3o Jos\u00e9 dos Campos", "addr:street": "Avenida Pedro \u00c1lvares Cabral", "addr:suburb": "Jardim Paulista", "amenity": "pub"}}, {"type": "node", "id": 7209099976, "lat": -23.1910531, "lon": -45.8746252, "tags": {"addr:city": "S\u00e3o Jos\u00e9 dos Campos", "addr:street": "Avenida Santos Dumont", "addr:suburb": "Jardim Paulista", "amenity": "fast_food", "cuisine": "burger;sandwich", "name": "Cebolinha Lanches"}}, {"type": "node", "id": 7209222602, "lat": -23.1906904, "lon": -45.8744591, "tags": {"addr:city": "S\u00e3o Jos\u00e9 dos Campos", "addr:street": "Avenida Santos Dumont", "addr:suburb": "Jardim Paulista", "amenity": "fast_food", "name": "Rikis Lanches"}}, {"type": "node", "id": 7211797699, "lat": -23.1902986, "lon": -45.87512, "tags": {"addr:city": "S\u00e3o Jos\u00e9 dos Campos", "addr:street": "Rua Castro Alves", "addr:suburb": "Jardim Paulista", "amenity": "restaurant"}}, {"type": "node", "id": 7213347575, "lat": -23.1886532, "lon": -45.8759399, "tags": {"addr:city": "S\u00e3o Jos\u00e9 dos Campos", "addr:housenumber": "704", "addr:street": "Avenida Pedro \u00c1lvares Cabral", "addr:suburb": "Jardim Paulista", "amenity": "restaurant", "cuisine": "pizza", "name": "Pizza Go", "phone": "+55 12 3934 1598"}}, {"type": "node", "id": 7213347576, "lat": -23.1885072, "lon": -45.8758547, "tags": {"addr:city": "S\u00e3o Jos\u00e9 dos Campos", "addr:street": "Avenida Pedro \u00c1lvares Cabral", "addr:suburb": "Jardim Paulista", "amenity": "pub", "name": "Bar e Lanchonete Shaowu"}}, {"type": "node", "id": 7213347577, "lat": -23.1885095, "lon": -45.8759544, "tags": {"addr:city": "S\u00e3o Jos\u00e9 dos Campos", "addr:street": "Avenida Pedro \u00c1lvares Cabral", "addr:suburb": "Jardim Paulista", "amenity": "fast_food", "name": "Pastelaria Paulista"}}, {"type": "node", "id": 7213347578, "lat": -23.1885174, "lon": -45.8760231, "tags": {"addr:city": "S\u00e3o Jos\u00e9 dos Campos", "addr:street": "Avenida Pedro \u00c1lvares Cabral", "addr:suburb": "Jardim Paulista", "amenity": "pub", "name": "Bar do Kojak"}}, {"type": "node", "id": 7213347581, "lat": -23.1884922, "lon": -45.876088, "tags": {"addr:city": "S\u00e3o Jos\u00e9 dos Campos", "addr:street": "Avenida Pedro \u00c1lvares Cabral", "addr:suburb": "Jardim Paulista", "amenity": "fast_food", "name": "Crislaine Lanchonete"}}, {"type": "node", "id": 7213438429, "lat": -23.1877798, "lon": -45.8750278, "tags": {"addr:city": "S\u00e3o Jos\u00e9 dos Campos", "addr:street": "Avenida Brasil", "addr:suburb": "Jardim Paulista", "amenity": "restaurant", "cuisine": "pizza", "name": "Gard\u00eania"}}, {"type": "node", "id": 7213488327, "lat": -23.1899282, "lon": -45.8759119, "tags": {"addr:city": "S\u00e3o Jos\u00e9 dos Campos", "addr:street": "Rua Castro Alves", "addr:suburb": "Jardim Paulista", "amenity": "pub"}}, {"type": "node", "id": 7213501447, "lat": -23.1897508, "lon": -45.8764274, "tags": {"addr:city": "S\u00e3o Jos\u00e9 dos Campos", "addr:street": "Rua Castro Alves", "addr:suburb": "Jardim Paulista", "amenity": "ice_cream", "name": "Sorveteria Sabor Ver\u00e3o"}}, {"type": "node", "id": 7214484383, "lat": -23.188647, "lon": -45.875273, "tags": {"addr:city": "S\u00e3o Jos\u00e9 dos Campos", "addr:housenumber": "772", "addr:street": "Avenida Pedro \u00c1lvares Cabral", "addr:suburb": "Jardim Paulista", "amenity": "restaurant", "cuisine": "lebanese", "name": "Bayti"}}, {"type": "node", "id": 7256413000, "lat": -23.2171515, "lon": -45.9029868, "tags": {"addr:city": "S\u00e3o Jos\u00e9 dos Campos", "addr:housenumber": "404", "addr:postcode": "12246-856", "addr:street": "Avenida Comendador Vicente de Paulo Penido", "addr:suburb": "Parque Residencial Aquarius", "amenity": "restaurant", "cuisine": "italian", "level": "0", "name": "Trattoria Mezzanino", "opening_hours": "Tu-Fr 11:00-15:00,18:00-23:00; Sa 11:00-16:00,18:00-23:00; Su 11:00-16:00", "phone": "+55 12 3921 7879"}}, {"type": "node", "id": 7270612194, "lat": -23.2017318, "lon": -45.8948517, "tags": {"addr:city": "S\u00e3o Jos\u00e9 dos Campos", "addr:housenumber": "886", "addr:postcode": "12243-630", "addr:street": "Rua Santa Clara", "addr:suburb": "Vila Adyana", "amenity": "restaurant", "check_date": "2023-03-28", "name": "A Margarida"}}, {"type": "node", "id": 7270612200, "lat": -23.2001672, "lon": -45.894081}, {"type": "node", "id": 7275040574, "lat": -23.2154116, "lon": -45.9066953, "tags": {"amenity": "restaurant", "contact:facebook": "https://www.facebook.com/pasqcucina/", "contact:instagram": "https://www.instagram.com/pasqcucina/", "cuisine": "italian", "level": "0", "name": "Pasq Cucina", "opening_hours": "Tu-Su 12:00-24:00", "outdoor_seating": "yes", "phone": "+55 12 3341 6537", "reservation": "yes"}}, {"type": "node", "id": 7333431584, "lat": -23.2256323, "lon": -45.9123421}, {"type": "node", "id": 7333515785, "lat": -23.2254106, "lon": -45.9120363}, {"type": "node", "id": 7333515786, "lat": -23.2256903, "lon": -45.9120944}, {"type": "node", "id": 7475342683, "lat": -23.2041326, "lon": -45.8982711, "tags": {"addr:housenumber": "927", "addr:street": "Avenida Heitor Villa Lobos", "amenity": "ice_cream", "check_date": "2023-04-16", "name": "N\u00e1poli Gelato & Caf\u00e9"}}, {"type": "node", "id": 7475350813, "lat": -23.2050843, "lon": -45.8975886}, {"type": "node", "id": 7475350814, "lat": -23.2049824, "lon": -45.8975408}, {"type": "node", "id": 7526872837, "lat": -23.2055399, "lon": -45.8878182, "tags": {"addr:city": "S\u00e3o Jos\u00e9 dos Campos", "addr:housenumber": "1419", "addr:street": "Avenida Engenheiro Francisco Jos\u00e9 Longo", "amenity": "cafe", "name": "Lattetude"}}, {"type": "node", "id": 7556382084, "lat": -23.194103, "lon": -45.8949626}, {"type": "node", "id": 7556421185, "lat": -23.1940338, "lon": -45.8948813}, {"type": "node", "id": 7556421186, "lat": -23.1942394, "lon": -45.8947207}, {"type": "node", "id": 7556421187, "lat": -23.1942973, "lon": -45.8947919}, {"type": "node", "id": 7686985069, "lat": -23.2334199, "lon": -45.9161183}, {"type": "node", "id": 7686985070, "lat": -23.2332363, "lon": -45.9163181}, {"type": "node", "id": 7686985071, "lat": -23.2331019, "lon": -45.9161787}, {"type": "node", "id": 7686985072, "lat": -23.2332745, "lon": -45.9159681}, {"type": "node", "id": 7686998822, "lat": -23.2226238, "lon": -45.9115603}, {"type": "node", "id": 7686998823, "lat": -23.2224822, "lon": -45.9115403}, {"type": "node", "id": 7686998824, "lat": -23.2224638, "lon": -45.9117498}, {"type": "node", "id": 7686998825, "lat": -23.2225955, "lon": -45.9117652}, {"type": "node", "id": 7714906615, "lat": -23.1983139, "lon": -45.8857349, "tags": {"addr:street": "Avenida Doutor N\u00e9lson D'\u00c1vila", "amenity": "bar", "name": "Moto Caf\u00e9"}}, {"type": "node", "id": 7726584157, "lat": -23.2298496, "lon": -45.8841072}, {"type": "node", "id": 7726584158, "lat": -23.2297469, "lon": -45.8840207}, {"type": "node", "id": 7726584159, "lat": -23.2297707, "lon": -45.8840223}, {"type": "node", "id": 7726584160, "lat": -23.2298647, "lon": -45.8841082}, {"type": "node", "id": 7727265955, "lat": -23.2419855, "lon": -45.9059355}, {"type": "node", "id": 7727265956, "lat": -23.2420827, "lon": -45.9059651}, {"type": "node", "id": 7727265957, "lat": -23.242108, "lon": -45.9058763}, {"type": "node", "id": 7727265958, "lat": -23.2420108, "lon": -45.9058488}, {"type": "node", "id": 7729212719, "lat": -23.2335859, "lon": -45.9021788}, {"type": "node", "id": 7729212720, "lat": -23.2336749, "lon": -45.9021811}, {"type": "node", "id": 7729212721, "lat": -23.2336884, "lon": -45.9019021}, {"type": "node", "id": 7729212722, "lat": -23.2335994, "lon": -45.9019011}, {"type": "node", "id": 7729446553, "lat": -23.2312112, "lon": -45.8701683}, {"type": "node", "id": 7729446554, "lat": -23.2313984, "lon": -45.8699432}, {"type": "node", "id": 7729446555, "lat": -23.2315616, "lon": -45.8700806}, {"type": "node", "id": 7729446556, "lat": -23.2314441, "lon": -45.8701777}, {"type": "node", "id": 7729446557, "lat": -23.2314811, "lon": -45.8702488}, {"type": "node", "id": 7729446558, "lat": -23.2313831, "lon": -45.8703696}, {"type": "node", "id": 7729446559, "lat": -23.23132, "lon": -45.8702843}, {"type": "node", "id": 7732458155, "lat": -23.2084986, "lon": -45.8846734, "tags": {"addr:street": "Rua das Ac\u00e1cias", "amenity": "cafe", "name": "caf\u00e9 do Posto"}}, {"type": "node", "id": 7737434057, "lat": -23.187833, "lon": -45.8731591, "tags": {"addr:street": "Avenida Presidente Juscelino Kubitschek", "amenity": "restaurant", "contact:mobile": "+55 12 980134 0060", "cuisine": "pizza", "name": "JK Pizzaria", "phone": "+55 12 3942 4549"}}, {"type": "node", "id": 7771235221, "lat": -23.2145533, "lon": -45.9094036, "tags": {"amenity": "ice_cream", "level": "0", "name": "Mio Sogno di Gelato", "operator": "Mio Gelato e Caf\u00e9", "outdoor_seating": "yes", "website": "http://www.miogelatoecafe.com.br"}}, {"type": "node", "id": 7835899795, "lat": -23.2145334, "lon": -45.9091953, "tags": {"amenity": "restaurant", "cuisine": "arab", "level": "0", "name": "Arab\u00edssimo"}}, {"type": "node", "id": 7835899796, "lat": -23.2145657, "lon": -45.9093177, "tags": {"amenity": "restaurant", "contact:facebook": "https://www.facebook.com/cantinadanena.aquarius", "contact:instagram": "https://www.instagram.com/cantinadanena.aquarius/", "contact:whatsapp": "+55 12 99103 4631", "cuisine": "italian", "delivery": "yes", "level": "0", "name": "Cantina da Nena", "outdoor_seating": "no", "phone": "+55 12 3308 3800", "takeaway": "yes", "website": "https://www.cantinadanena.com.br"}}, {"type": "node", "id": 7835899797, "lat": -23.2145763, "lon": -45.9092436, "tags": {"addr:postcode": "12246-011", "amenity": "restaurant", "contact:facebook": "https://www.facebook.com/pg/oahupokeshop", "contact:instagram": "https://www.instagram.com/oahupokeshop/", "cuisine": "hawaiian", "delivery": "yes", "level": "0", "name": "Oahu Pokeshop", "name:en": "Hawaii restaurant", "outdoor_seating": "yes", "phone": "+55 12 3341 2748", "takeaway": "yes"}}, {"type": "node", "id": 7838165756, "lat": -23.2144915, "lon": -45.9094211, "tags": {"amenity": "restaurant", "contact:facebook": "https://www.facebook.com/stjoeburgerhouse/", "contact:instagram": "https://www.instagram.com/stjoeburgerhouse/", "contact:whatsapp": "+55 12 99176 4449", "cuisine": "burger", "delivery": "yes", "name": "Saint Joe Burgerhouse", "outdoor_seating": "yes", "phone": "+55 12 3322 2512"}}, {"type": "node", "id": 7838165757, "lat": -23.2143413, "lon": -45.9093959, "tags": {"amenity": "restaurant", "cuisine": "pizza", "email": "pizzacrek@pizzacrek.com.br", "name": "Pizza Crek", "outdoor_seating": "yes", "phone": "+55 12 3308 0009", "website": "https://pizzacrek.com.br/"}}, {"type": "node", "id": 7844648315, "lat": -23.2152237, "lon": -45.9076894, "tags": {"amenity": "restaurant", "contact:facebook": "https://www.facebook.com/carbonicsjc/", "level": "0", "name": "Carbonic", "opening_hours": "Mo 08:00-19:30; Tu-Fr 07:00-19:30; Sa 08:00-17:00", "phone": "+55 12 3941 1130", "takeaway": "yes"}}, {"type": "node", "id": 7844648316, "lat": -23.2152288, "lon": -45.9076548, "tags": {"amenity": "restaurant", "delivery": "yes", "level": "0", "name": "Alho Por\u00f3", "opening_hours": "Mo-Sa 11:00-14:30,18:00-20:45", "phone": "+55 12 3923 1602", "takeaway": "yes", "website": "https://restaurantealhoporo.com/"}}, {"type": "node", "id": 7888412437, "lat": -23.2154756, "lon": -45.9094418, "tags": {"addr:housenumber": "401", "addr:street": "Avenida Cassiano Ricardo", "amenity": "restaurant", "cuisine": "burger", "delivery": "Mo-Su 11:30-22:30", "level": "0", "name": "Bullguer", "opening_hours": "Mo-Fr 11:30-13:30,17:00-21:00", "outdoor_seating": "yes", "phone": "+55 12 3797 2160", "takeaway": "Mo-Su 11:30-23:00", "website": "https://bullguer.com/"}}, {"type": "node", "id": 7900858820, "lat": -23.2041548, "lon": -45.9089502, "tags": {"amenity": "restaurant", "contact:facebook": "https://www.facebook.com/parrillacalle54", "contact:instagram": "https://instagram.com/calle_54/", "cuisine": "barbecue", "email": "contato@calle54.com.br", "level": "1", "name": "Calle 54", "phone": "+55 12 3941 5222", "website": "https://calle54.com.br/"}}, {"type": "node", "id": 7923526156, "lat": -23.2154864, "lon": -45.9093683, "tags": {"amenity": "restaurant", "contact:facebook": "https://www.facebook.com/bohpizzalounge/", "contact:instagram": "https://www.instagram.com/bohpizzalounge/", "cuisine": "pizza", "delivery": "Mo-Su 11:30-15:00,17:00-22:00", "level": "0", "name": "Boh Pizza Lounge", "opening_hours": "Mo 17:00-22:00; Tu-Fr 11:30-15:00,17:00-22:00; Sa-Su 12:00-16:00,17:00-22:00", "opening_hours:covid19": "Mo-Fr 11:30-15:00,17:00-21:00; Sa-Su 12:00-16:00", "phone": "+55 12 99211 1158"}}, {"type": "node", "id": 8019814847, "lat": -23.2189433, "lon": -45.9033425, "tags": {"amenity": "restaurant", "contact:facebook": "https://www.facebook.com/diaadiaitalyexpress", "cuisine": "italian", "level": "0", "name": "Dia a Dia Italy Express", "phone": "+55 12 3923 6671"}}, {"type": "node", "id": 8019814849, "lat": -23.2186438, "lon": -45.9033518}, {"type": "node", "id": 8019814850, "lat": -23.2188138, "lon": -45.9033828}, {"type": "node", "id": 8019814851, "lat": -23.2188009, "lon": -45.9034666}, {"type": "node", "id": 8019814852, "lat": -23.2186309, "lon": -45.9034357}, {"type": "node", "id": 8019852294, "lat": -23.2137924, "lon": -45.9072441, "tags": {"amenity": "cafe", "level": "0", "name": "Cr\u00e9mage - Handmade", "opening_hours": "Mo-Su 10:00-19:00", "website": "http://cremage.com.br/"}}, {"type": "node", "id": 8172075769, "lat": -23.2280924, "lon": -45.9019275}, {"type": "node", "id": 8172075770, "lat": -23.2281841, "lon": -45.9019789}, {"type": "node", "id": 8172075771, "lat": -23.2281588, "lon": -45.9020324}, {"type": "node", "id": 8172075772, "lat": -23.2280671, "lon": -45.901981}, {"type": "node", "id": 8172075792, "lat": -23.2290542, "lon": -45.9020302, "tags": {"amenity": "restaurant", "cuisine": "pizza", "delivery": "yes", "name": "Kiko Pizzaria e Lancheria", "phone": "+55 12 3933 5827;+55 12 3934 8262"}}, {"type": "node", "id": 8172075793, "lat": -23.2291035, "lon": -45.9020604, "tags": {"amenity": "pub", "name": "Bar do Mumu"}}, {"type": "node", "id": 8172075794, "lat": -23.2291505, "lon": -45.9022737}, {"type": "node", "id": 8172075795, "lat": -23.2292391, "lon": -45.9023266}, {"type": "node", "id": 8172075796, "lat": -23.2291779, "lon": -45.9024479}, {"type": "node", "id": 8172075797, "lat": -23.2290893, "lon": -45.902395}, {"type": "node", "id": 8211989997, "lat": -23.2155978, "lon": -45.9094534, "tags": {"amenity": "cafe", "contact:instagram": "https://www.instagram.com/casabauducco", "level": "0", "name": "Casa Bauduco", "website": "https://www.casabauducco.com.br"}}, {"type": "node", "id": 8477765761, "lat": -23.2220862, "lon": -45.9041834}, {"type": "node", "id": 8477765762, "lat": -23.2221159, "lon": -45.9038907}, {"type": "node", "id": 8477765763, "lat": -23.2218547, "lon": -45.9038376}, {"type": "node", "id": 8477765764, "lat": -23.2218166, "lon": -45.9041304}, {"type": "node", "id": 8477986227, "lat": -23.2503962, "lon": -45.8861006}, {"type": "node", "id": 8477986228, "lat": -23.2504073, "lon": -45.8859396}, {"type": "node", "id": 8477986229, "lat": -23.2504887, "lon": -45.8859396}, {"type": "node", "id": 8477986230, "lat": -23.2504776, "lon": -45.8861006}, {"type": "node", "id": 8570352290, "lat": -23.0677876, "lon": -45.9118041}, {"type": "node", "id": 8570352291, "lat": -23.0678338, "lon": -45.911756}, {"type": "node", "id": 8570352292, "lat": -23.0677241, "lon": -45.9116535}, {"type": "node", "id": 8570352293, "lat": -23.0676837, "lon": -45.9116974}, {"type": "node", "id": 8575975252, "lat": -23.1799758, "lon": -45.8837903, "tags": {"addr:housenumber": "214", "addr:street": "Rua Siqueira Campos", "amenity": "restaurant", "name": "Restaurante e Choperia Bom Ambiente", "phone": "+55 12 3921 3443"}}, {"type": "node", "id": 8576198864, "lat": -23.174333, "lon": -45.8841313}, {"type": "node", "id": 8576198865, "lat": -23.1746645, "lon": -45.8841036}, {"type": "node", "id": 8576198866, "lat": -23.1746525, "lon": -45.8841851}, {"type": "node", "id": 8576198867, "lat": -23.1745835, "lon": -45.88419}, {"type": "node", "id": 8576198868, "lat": -23.1745715, "lon": -45.8842618}, {"type": "node", "id": 8576198869, "lat": -23.1746105, "lon": -45.8842488}, {"type": "node", "id": 8576198870, "lat": -23.1746405, "lon": -45.8844005}, {"type": "node", "id": 8576198871, "lat": -23.1743405, "lon": -45.8844201}, {"type": "node", "id": 8576308332, "lat": -23.174481, "lon": -45.8860163, "tags": {"amenity": "restaurant", "contact:phone": "+55 12 3302 0001", "cuisine": "fish", "delivery": "yes", "name": "Esquina do Peixe", "outdoor_seating": "yes", "phone": "+55 12 3923 4507"}}, {"type": "node", "id": 8581145870, "lat": -23.1840953, "lon": -45.8590916}, {"type": "node", "id": 8581145871, "lat": -23.1840715, "lon": -45.859027}, {"type": "node", "id": 8581145872, "lat": -23.184136, "lon": -45.859003}, {"type": "node", "id": 8581145873, "lat": -23.1841581, "lon": -45.8590824}, {"type": "node", "id": 8581145874, "lat": -23.1841207, "lon": -45.8591046}, {"type": "node", "id": 8584410543, "lat": -23.1330511, "lon": -45.7723823, "tags": {"addr:street": "Rua Ant\u00f4nio Galv\u00e3o J\u00fanior", "addr:suburb": "Galo Branco", "amenity": "restaurant", "cuisine": "regional", "name": "Rancho dos Amigos Adega & Petiscaria"}}, {"type": "node", "id": 8588298884, "lat": -23.2293096, "lon": -45.8464275}, {"type": "node", "id": 8588298885, "lat": -23.2292161, "lon": -45.8461713}, {"type": "node", "id": 8588298886, "lat": -23.2293005, "lon": -45.8461596}, {"type": "node", "id": 8588298887, "lat": -23.2294023, "lon": -45.8463895}, {"type": "node", "id": 8588298888, "lat": -23.2293704, "lon": -45.8464043}, {"type": "node", "id": 8731818873, "lat": -23.2054488, "lon": -45.9506677, "tags": {"amenity": "restaurant", "name": "\u00c1rea de Alimenta\u00e7\u00e3o"}}, {"type": "node", "id": 8753241602, "lat": -23.1920178, "lon": -45.8703985, "tags": {"amenity": "pub", "name": "Comida de Boteco"}}, {"type": "node", "id": 8828071776, "lat": -23.1094025, "lon": -45.9331054}, {"type": "node", "id": 8828071777, "lat": -23.1094716, "lon": -45.9330672}, {"type": "node", "id": 8828071778, "lat": -23.1094205, "lon": -45.9329577}, {"type": "node", "id": 8828071779, "lat": -23.1093514, "lon": -45.9329958}, {"type": "node", "id": 8828114828, "lat": -23.1094543, "lon": -45.933078}, {"type": "node", "id": 8831947219, "lat": -23.2232344, "lon": -45.9199205, "tags": {"addr:postcode": "12240-000", "addr:street": "Avenida Doutor Jo\u00e3o Batista Soares de Queiroz J\u00fanior", "addr:suburb": "Jardim das Ind\u00fastrias", "amenity": "pub", "name": "P\u00e9rola, P\u00e3es, Petiscos e Salgados", "opening_hours": "Mo-Su 08:00-20:00; PH off"}}, {"type": "node", "id": 8839844718, "lat": -23.222415, "lon": -45.9194986, "tags": {"addr:housenumber": "1354", "addr:postcode": "12240-000", "addr:street": "Avenida Doutor Jo\u00e3o Batista Soares de Queiroz J\u00fanior", "addr:suburb": "Jardim das Ind\u00fastrias", "amenity": "restaurant", "contact:mobile": "+55 12 99141-2344", "contact:phone": "+55 12 3933-8393;+55 12 3939-4451", "cuisine": "pizza", "delivery": "yes", "diet:halal": "no", "diet:kosher": "no", "diet:vegan": "yes", "diet:vegetarian": "yes", "email": "contato@viladapizza.com.br", "name": "Vila da Pizza", "name:pt": "Vila da pizza", "opening_hours": "Tu-Su 06:00-22:30; PH off", "website": "https://www.viladapizza.com.br/", "wheelchair": "yes"}}, {"type": "node", "id": 8839863317, "lat": -23.2231741, "lon": -45.9198439, "tags": {"addr:housenumber": "1461", "addr:postcode": "12240-000", "addr:street": "Avenida Doutor Jo\u00e3o Batista Soares de Queiroz J\u00fanior", "addr:suburb": "Jardim das Ind\u00fastrias", "amenity": "restaurant", "name": "Janela Aberta Restaurante e Lanchonete", "opening_hours": "Mo-Sa 11:00-24:00; Su,PH off"}}, {"type": "node", "id": 8839972718, "lat": -23.2260439, "lon": -45.9167907, "tags": {"addr:street": "Avenida Doutor Jo\u00e3o Batista Soares de Queiroz J\u00fanior", "amenity": "fast_food", "drive_through": "no", "name": "A\u00e7a\u00ed Brasil", "phone": "+55 12 98183 3972"}}, {"type": "node", "id": 8851569767, "lat": -23.1951318, "lon": -45.8932249, "tags": {"addr:city": "S\u00e3o Jos\u00e9 dos Campos", "addr:housenumber": "232", "addr:postcode": "1224-610", "addr:street": "Avenida Paulo Becker", "addr:suburb": "Vila Adyana", "amenity": "cafe", "internet_access": "yes", "internet_access:fee": "no", "name": "Well Donuts", "outdoor_seating": "yes", "phone": "+55 12 39426198", "website": "https://www.welldonuts.com.br"}}, {"type": "node", "id": 8888112617, "lat": -23.225867, "lon": -45.9222429, "tags": {"addr:housenumber": "1831", "addr:postcode": "12240000", "addr:street": "Avenida Doutor Jo\u00e3o Batista Soares de Queiroz J\u00fanior", "amenity": "restaurant", "cuisine": "fish", "name": "Restaurante Tra\u00edra"}}, {"type": "node", "id": 8892405618, "lat": -23.2286017, "lon": -45.9226136, "tags": {"addr:street": "Avenida Doutor Jo\u00e3o Batista Soares de Queiroz J\u00fanior", "amenity": "fast_food", "name": "Julia salgados", "opening_hours": "Mo-Su 09:00-18:00", "phone": "1239314522"}}, {"type": "node", "id": 8892405717, "lat": -23.2287287, "lon": -45.9224804, "tags": {"addr:housenumber": "220", "addr:street": "Avenida Doutor Jo\u00e3o Batista Soares de Queiroz J\u00fanior", "amenity": "fast_food", "name": "Fritos na hora,  salgados para festa", "opening_hours": "Su-Fr 09:00-18:00", "phone": "1239392100"}}, {"type": "node", "id": 8892423018, "lat": -23.225195, "lon": -45.9217866, "tags": {"addr:housenumber": "1750", "addr:street": "Avenida Doutor Jo\u00e3o Batista Soares de Queiroz J\u00fanior", "addr:suburb": "Jardim das Ind\u00fastrias", "amenity": "fast_food", "cuisine": "burger", "diet:halal": "no", "diet:kosher": "no", "diet:vegetarian": "no", "drive_through": "no", "name": "KOK Burger", "opening_hours": "Mo-Sa 09:00-18:00; Su,PH off", "phone": "+55 12 98808 2861", "wheelchair": "yes"}}, {"type": "node", "id": 8892423117, "lat": -23.2254148, "lon": -45.9220012, "tags": {"addr:housenumber": "1760", "addr:street": "Avenida Doutor Jo\u00e3o Batista Soares de Queiroz J\u00fanior", "amenity": "fast_food", "diet:halal": "no", "diet:kosher": "no", "diet:vegetarian": "no", "name": "Mario Azevedo, churrascos", "opening_hours": "Mo-Sa 09:00-18:00", "phone": "12996407017", "wheelchair": "yes"}}, {"type": "node", "id": 8930517717, "lat": -23.222833, "lon": -45.9183353, "tags": {"addr:housenumber": "1180", "addr:street": "Avenida Doutor Jo\u00e3o Batista Soares de Queiroz J\u00fanior", "addr:suburb": "Jardim das Ind\u00fastrias", "amenity": "restaurant", "cuisine": "italian_pizza", "diet:halal": "no", "diet:kosher": "no", "diet:vegetarian": "no", "name": "Beto Massas", "opening_hours": "Mo-Fr 09:00-17:00; Sa,Su 09:00-15:00; PH off", "phone": "+55 12 99227 2585", "wheelchair": "yes"}}, {"type": "node", "id": 8930542617, "lat": -23.2241502, "lon": -45.9179021, "tags": {"addr:street": "Avenida Doutor Jo\u00e3o Batista Soares de Queiroz J\u00fanior", "amenity": "ice_cream", "name": "Sorvetes natuice", "phone": "1232073546"}}, {"type": "node", "id": 8972457917, "lat": -23.2179745, "lon": -45.9101455, "tags": {"addr:street": "Avenida Cassiano Ricardo", "amenity": "fast_food", "brand": "Subway", "brand:wikidata": "Q244457", "cuisine": "sandwich", "name": "Subway", "takeaway": "yes"}}, {"type": "node", "id": 8977371317, "lat": -23.2254477, "lon": -45.9169892, "tags": {"addr:housenumber": "900", "addr:street": "Avenida Doutor Jo\u00e3o Batista Soares de Queiroz J\u00fanior", "amenity": "restaurant", "cuisine": "brazilian", "internet_access": "wlan", "name": "Toca do vale", "opening_hours": "Mo-Sa 08:00-18:00+", "phone": "12981895971"}}, {"type": "node", "id": 9027210718, "lat": -23.2279073, "lon": -45.9213788, "tags": {"addr:housenumber": "530", "addr:street": "Rua Nelson C\u00e9sar de Oliveira", "amenity": "fast_food", "cuisine": "burger;friture", "name": "Gauch\u00e3o lanches", "opening_hours": "Mo-Su 18:00-22:00", "phone": "1232048213;1239331693", "website": "https://www.gauchaolanches.com.br/"}}, {"type": "node", "id": 9038428422, "lat": -23.1894703, "lon": -45.877249}, {"type": "node", "id": 9038428423, "lat": -23.1895015, "lon": -45.8771729}, {"type": "node", "id": 9038428424, "lat": -23.1896978, "lon": -45.877279}, {"type": "node", "id": 9038428425, "lat": -23.1896565, "lon": -45.8773565}, {"type": "node", "id": 9038428443, "lat": -23.1900278, "lon": -45.877528}, {"type": "node", "id": 9038428444, "lat": -23.189903, "lon": -45.8777445}, {"type": "node", "id": 9038428445, "lat": -23.1899507, "lon": -45.8777774}, {"type": "node", "id": 9038428446, "lat": -23.1900208, "lon": -45.8776628}, {"type": "node", "id": 9038428447, "lat": -23.1900114, "lon": -45.877656}, {"type": "node", "id": 9038428448, "lat": -23.190085, "lon": -45.8775358}, {"type": "node", "id": 9038428449, "lat": -23.1900579, "lon": -45.8775162}, {"type": "node", "id": 9038428450, "lat": -23.1900436, "lon": -45.8775395}, {"type": "node", "id": 9041773317, "lat": -23.1883217, "lon": -45.8742221}, {"type": "node", "id": 9041773318, "lat": -23.1883948, "lon": -45.8742256}, {"type": "node", "id": 9041773319, "lat": -23.1883955, "lon": -45.8742026}, {"type": "node", "id": 9041773320, "lat": -23.1883217, "lon": -45.8741996}, {"type": "node", "id": 9049943386, "lat": -23.1891407, "lon": -45.8741653, "tags": {"door": "opening", "entrance": "yes"}}, {"type": "node", "id": 9056162436, "lat": -23.1723586, "lon": -45.8419975}, {"type": "node", "id": 9056162437, "lat": -23.172381, "lon": -45.8417807}, {"type": "node", "id": 9056162438, "lat": -23.1722389, "lon": -45.841766}, {"type": "node", "id": 9056162439, "lat": -23.1722347, "lon": -45.8419413}, {"type": "node", "id": 9056162440, "lat": -23.172281, "lon": -45.8419914}, {"type": "node", "id": 9057378956, "lat": -23.2213692, "lon": -45.9108638, "tags": {"amenity": "ice_cream", "level": "0", "name": "A\u00e7a\u00ed 03", "outdoor_seating": "yes"}}, {"type": "node", "id": 9057378958, "lat": -23.2213554, "lon": -45.9109535, "tags": {"amenity": "restaurant", "contact:whatsapp": "+55 12 99636 8394", "cuisine": "brazilian", "level": "0", "name": "Restaurante Serrano", "phone": "+55 12 2170 9930"}}, {"type": "node", "id": 9105440469, "lat": -23.2157197, "lon": -45.9020752, "tags": {"amenity": "ice_cream", "contact:instagram": "https://www.instagram.com/saporegelatocaffe/", "name": "Sapore Gelato Caff\u00e9", "opening_hours": "Mo-Su 12:00-19:00", "outdoor_seating": "yes"}}, {"type": "node", "id": 9105440470, "lat": -23.2143002, "lon": -45.8981088, "tags": {"addr:housenumber": "6709", "addr:street": "Avenida Deputado Benedito Matarazzo", "amenity": "restaurant", "contact:instagram": "https://www.instagram.com/boigalechurrascaria/", "cuisine": "steak_house", "name": "Boigal\u00ea", "opening_hours": "Mo-Th 11:00-15:00,18:00-23:00; Fr-Sa 11:00-16:00,18:00-24:00; Su 11:00-18:00", "outdoor_seating": "yes"}}, {"type": "node", "id": 9129563817, "lat": -23.223117, "lon": -45.9182984, "tags": {"addr:housenumber": "1150", "addr:street": "Avenida Doutor Jo\u00e3o Batista Soares de Queiroz J\u00fanior", "amenity": "restaurant", "diet:halal": "no", "diet:kosher": "no", "diet:vegetarian": "no", "name": "Galeteiros", "opening_hours": "We-Su 11:00-23:00", "wheelchair": "yes"}}, {"type": "node", "id": 9227148517, "lat": -23.228864, "lon": -45.9157428, "tags": {"addr:housenumber": "488", "addr:street": "Avenida Doutor Jo\u00e3o Batista Soares de Queiroz J\u00fanior", "amenity": "restaurant", "cuisine": "regional", "delivery": "yes", "name": "Marmitaria Caseira", "opening_hours": "Mo-Sa 00:00-24:00", "phone": "+55 12 98850 5558"}}, {"type": "node", "id": 9227154517, "lat": -23.225371, "lon": -45.9170412, "tags": {"addr:street": "Avenida Doutor Jo\u00e3o Batista Soares de Queiroz J\u00fanior", "amenity": "cafe", "name": "New flavor,  cafeteria", "opening_hours": "Mo-Sa 09:00-18:00"}}, {"type": "node", "id": 9355482426, "lat": -23.2263059, "lon": -45.9156885, "tags": {"addr:housenumber": "94", "addr:street": "Rua Heitor de Andrade", "amenity": "pub", "name": "Boteco da N\u00e1", "phone": "+55 12 9883 58087"}}, {"type": "node", "id": 9376285617, "lat": -23.2599985, "lon": -45.9027536, "tags": {"addr:housenumber": "686", "addr:postcode": "12236560", "addr:street": "Rua Jos\u00e9 de Campos", "amenity": "ice_cream", "name": "A\u00e7a\u00ed nativa mix", "phone": "1236089614;12974019646", "website": "http://www.narivamix.com.br"}}, {"type": "node", "id": 9461882489, "lat": -23.2472704, "lon": -45.8868058}, {"type": "node", "id": 9461882490, "lat": -23.2473576, "lon": -45.8868113}, {"type": "node", "id": 9461882491, "lat": -23.2473654, "lon": -45.8866659}, {"type": "node", "id": 9461882492, "lat": -23.2472782, "lon": -45.8866604}, {"type": "node", "id": 9461882493, "lat": -23.2472721, "lon": -45.8867751, "tags": {"entrance": "main"}}, {"type": "node", "id": 9650536800, "lat": -23.2138904, "lon": -45.909239, "tags": {"amenity": "restaurant", "contact:facebook": "https://www.facebook.com/laguapaempanadas/", "contact:instagram": "https://www.instagram.com/laguapasp/", "contact:twitter": "https://twitter.com/LaGuapaSP", "cuisine": "empanada", "delivery": "yes", "level": "0", "name": "La Guapa", "opening_hours": "Mo-Fr 10:00-22:00;Sa-Su 12:00-22:00", "phone": "+55 12 3922 2030", "takeaway": "Mo-Fr 10:00-22:00;Sa-Su 12:00-22:00", "website": "https://www.laguapa.com.br"}}, {"type": "node", "id": 9654710492, "lat": -23.2143041, "lon": -45.9093401, "tags": {"amenity": "restaurant", "contact:facebook": "https://www.facebook.com/mezzobarsjc/", "contact:instagram": "https://www.instagram.com/mezzobarsjc/", "contact:mobile": "+55 12 99641 2263", "cuisine": "regional", "level": "1", "name": "Mezzo Bar", "opening_hours": "Tu 11:50-15:00,17:00-22:00; We-Th 11:50-15:00,17:00-23:00; Fr 11:50-15:00,17:00-24:00; Sa 12:00-24:00; Su 12:00-17:00", "phone": "+55 12 3941 9007"}}, {"type": "node", "id": 9678622289, "lat": -23.2037776, "lon": -45.8982037}, {"type": "node", "id": 9678622290, "lat": -23.203712, "lon": -45.8981708}, {"type": "node", "id": 9681382135, "lat": -23.2024132, "lon": -45.8963698, "tags": {"addr:housenumber": "1107", "addr:street": "Avenida Nove de Julho", "amenity": "restaurant", "contact:facebook": "https://www.facebook.com/orabowls", "contact:instagram": "https://www.instagram.com/orabowls", "contact:whatsapp": "+55 12 3922 7413", "name": "Ora Bowls", "opening_hours": "Mo-Fr 11:00-23:00; Sa 09:00-23:00; Su 09:00-20:00", "phone": "+55 12 3922 7413", "website": "https://orabowls.com.br/"}}, {"type": "node", "id": 9701331481, "lat": -23.2263829, "lon": -45.9199998, "tags": {"addr:housenumber": "3201", "amenity": "bar", "description": "A cerveja mais gelada e o melhor bolinho.", "name": "Bar do Peixoto"}}, {"type": "node", "id": 9875506452, "lat": -23.226873, "lon": -45.9160248, "tags": {"addr:housenumber": "730", "amenity": "fast_food", "cuisine": "pizza", "description": "Pizza e esfirra delivery", "name": "Torres de Pizza", "phone": "+55 12 3301 7214"}}, {"type": "node", "id": 9892012925, "lat": -23.2272906, "lon": -45.9145777, "tags": {"addr:housenumber": "172", "addr:street": "S\u00e3o Caetano Do Sul", "amenity": "ice_cream", "description": "A\u00e7a\u00ed, sorvete, cupua\u00e7u e \u00e1gua.", "name": "A\u00e7a\u00edteria", "phone": "12983099881"}}, {"type": "node", "id": 9929697405, "lat": -23.1843915, "lon": -45.8859561, "tags": {"addr:city": "S\u00e3o Jos\u00e9 dos Campos", "addr:housenumber": "84", "addr:postcode": "12210180", "addr:street": "Rua Doutor Rubi\u00e3o J\u00fanior", "addr:suburb": "Centro", "amenity": "cafe", "name": "Baita Caf\u00e9", "outdoor_seating": "yes", "payment:cash": "yes", "payment:credit_cards": "yes", "payment:debit_cards": "yes", "website": "@baita.cafe"}}, {"type": "node", "id": 9939581139, "lat": -23.1585955, "lon": -45.8947162}, {"type": "node", "id": 9939581140, "lat": -23.1585665, "lon": -45.8946318}, {"type": "node", "id": 9939581141, "lat": -23.1586915, "lon": -45.8945867}, {"type": "node", "id": 9939581142, "lat": -23.158716, "lon": -45.8946808}, {"type": "node", "id": 9968701187, "lat": -23.1597639, "lon": -45.8966034}, {"type": "node", "id": 9968701188, "lat": -23.1598448, "lon": -45.8965461}, {"type": "node", "id": 9968701189, "lat": -23.1598187, "lon": -45.8965024}, {"type": "node", "id": 9968701190, "lat": -23.1597378, "lon": -45.8965597}, {"type": "node", "id": 9968704078, "lat": -23.1597618, "lon": -45.8966049}, {"type": "node", "id": 9968704080, "lat": -23.1598682, "lon": -45.8965852}, {"type": "node", "id": 9968704081, "lat": -23.1597852, "lon": -45.896644}, {"type": "node", "id": 10049891815, "lat": -23.2153658, "lon": -45.9070552, "tags": {"amenity": "restaurant", "contact:facebook": "https://www.facebook.com/sucaocozinhasaudavel/", "contact:instagram": "https://www.instagram.com/sucaocozinhasaudavel/", "contact:linkedin": "https://www.linkedin.com/company/sucaocozinhasaudavel/", "contact:whatsapp": "+55 19 2512 1305", "cuisine": "regional;sandwich", "email": "contato@sucao.com.br", "name": "Suc\u00e3o", "website": "https://www.sucao.com.br/"}}, {"type": "node", "id": 10053802556, "lat": -23.2210428, "lon": -45.9052341, "tags": {"amenity": "restaurant", "contact:facebook": "http://www.facebook.com/ocortesbr", "cuisine": "brazilian", "delivery": "yes", "email": "ocortesbr@gmail.com", "level": "0", "name": "O Cort\u00eas", "outdoor_seating": "yes", "takeaway": "yes"}}, {"type": "node", "id": 10053802561, "lat": -23.2202716, "lon": -45.9057572, "tags": {"amenity": "restaurant", "contact:facebook": "https://www.facebook.com/montechivosjc", "contact:instagram": "https://www.instagram.com/montechivo", "contact:whatsapp": "+55 12 99635 2896", "cuisine": "uruguayan", "level": "0", "name": "Monte Chivo", "opening_hours": "Mo-Tu off; We-Fr 18:00-23:00; Sa 12:00-23:00; Su 12:00-17:00", "phone": "+55 12 3207 8555", "website": "https://montechivo.com.br"}}, {"type": "node", "id": 10056132120, "lat": -23.2207012, "lon": -45.9052167, "tags": {"amenity": "restaurant", "contact:instagram": "https://www.instagram.com/pitayahealthy/", "cuisine": "regional", "delivery": "yes", "level": "0", "name": "Pitaya", "takeaway": "only", "website": "https://pitayahealthyfoodsp.goomer.app"}}, {"type": "node", "id": 10056132123, "lat": -23.2205806, "lon": -45.9051973, "tags": {"amenity": "pub", "contact:instagram": "https://www.instagram.com/beerxperiencesjc/", "level": "0", "name": "Beer Xperience", "opening_hours": "Mo-Fr 15:00-22:00; Sa 12:00-22:00"}}, {"type": "node", "id": 10060868036, "lat": -23.2202482, "lon": -45.9059305, "tags": {"amenity": "cafe", "contact:facebook": "https://www.facebook.com/voltcoffee.sjc/", "contact:whatsapp": "+55 12 99136 3657", "email": "voltcoffee.sjc@gmail.com", "internet_access": "wlan", "internet_access:fee": "no", "name": "Volt Coffee", "opening_hours": "Mo-Sa 10:00-18:00", "phone": "+55 12 99136 3657"}}, {"type": "node", "id": 10087299636, "lat": -23.1822557, "lon": -45.8736467, "tags": {"amenity": "restaurant", "name": "Eskina Brasil", "phone": "+55 12 99707 8174"}}, {"type": "node", "id": 10087413489, "lat": -23.188658, "lon": -45.8763174}, {"type": "node", "id": 10087569364, "lat": -23.1887241, "lon": -45.8738977, "tags": {"amenity": "fast_food", "name": "Passa & Fica"}}, {"type": "node", "id": 10087569366, "lat": -23.1883857, "lon": -45.873296, "tags": {"amenity": "restaurant", "name": "Santa Fome"}}, {"type": "node", "id": 10087569392, "lat": -23.1887268, "lon": -45.872815, "tags": {"amenity": "fast_food", "name": "Bar do Chef"}}, {"type": "node", "id": 10087830533, "lat": -23.1919621, "lon": -45.8898464, "tags": {"amenity": "restaurant", "name": "Malagueta"}}, {"type": "node", "id": 10087830534, "lat": -23.191973, "lon": -45.8899722}, {"type": "node", "id": 10087830535, "lat": -23.1919613, "lon": -45.8899191}, {"type": "node", "id": 10087830538, "lat": -23.1919811, "lon": -45.8901392, "tags": {"amenity": "restaurant", "cuisine": "pizza", "name": "Irm\u00e3os Ramos", "phone": "+55 12 3923 4460"}}, {"type": "node", "id": 10087830540, "lat": -23.1921786, "lon": -45.8904989, "tags": {"amenity": "fast_food", "name": "Biga Lanches", "phone": "+55 12 99136 3018"}}, {"type": "node", "id": 10087830555, "lat": -23.1918212, "lon": -45.8931091}, {"type": "node", "id": 10087830556, "lat": -23.1916886, "lon": -45.892845}, {"type": "node", "id": 10087830557, "lat": -23.1919716, "lon": -45.8926456}, {"type": "node", "id": 10087830558, "lat": -23.1921399, "lon": -45.892866}, {"type": "node", "id": 10087830586, "lat": -23.1949431, "lon": -45.8932378}, {"type": "node", "id": 10087830587, "lat": -23.1950213, "lon": -45.8934262}, {"type": "node", "id": 10087830588, "lat": -23.1949422, "lon": -45.8933953}, {"type": "node", "id": 10087830589, "lat": -23.1949922, "lon": -45.8932443}, {"type": "node", "id": 10087830590, "lat": -23.1950712, "lon": -45.8932752}, {"type": "node", "id": 10087830595, "lat": -23.1951421, "lon": -45.8939579}, {"type": "node", "id": 10087830596, "lat": -23.1950986, "lon": -45.893943}, {"type": "node", "id": 10087830597, "lat": -23.1951777, "lon": -45.8937039}, {"type": "node", "id": 10087830598, "lat": -23.1952192, "lon": -45.8937201}, {"type": "node", "id": 10229165988, "lat": -23.1571622, "lon": -45.7920422, "tags": {"amenity": "restaurant", "name": "Bem Te Vi"}}, {"type": "node", "id": 10229165989, "lat": -23.1570932, "lon": -45.7919054, "tags": {"amenity": "fast_food", "name": "UaiFood"}}, {"type": "node", "id": 10229165990, "lat": -23.1571694, "lon": -45.7921587, "tags": {"amenity": "restaurant", "name": "Tov Caffe"}}, {"type": "node", "id": 10229165991, "lat": -23.1571676, "lon": -45.7909152, "tags": {"amenity": "fast_food", "name": "E-Brunch"}}, {"type": "node", "id": 10297342378, "lat": -23.2013433, "lon": -45.8930557, "tags": {"addr:housenumber": "1050", "addr:street": "Avenida Doutor Adhemar Barros, Jardim S\u00e3o Dimas", "amenity": "ice_cream", "brand": "Chiquinho Sorvetes", "brand:wikidata": "Q65164356", "name": "Chiquinho Sorvetes"}}, {"type": "node", "id": 10313739974, "lat": -23.2297596, "lon": -45.9157522, "tags": {"amenity": "pub", "name": "Espa\u00e7o 406"}}, {"type": "node", "id": 10548910395, "lat": -23.2211248, "lon": -45.9052791, "tags": {"amenity": "restaurant", "cuisine": "fried_chicken", "level": "0", "name": "Frango no Pote", "website": "https://frangonopote.com.br"}}, {"type": "node", "id": 10562290459, "lat": -23.1843418, "lon": -45.8619014, "tags": {"amenity": "restaurant", "cuisine": "steak_house", "name": "Marmitaria do Ga\u00facho"}}, {"type": "node", "id": 10577967269, "lat": -23.1988508, "lon": -45.8872145}, {"type": "node", "id": 10577967270, "lat": -23.199044, "lon": -45.8871468}, {"type": "node", "id": 10577967271, "lat": -23.1990955, "lon": -45.8873639}, {"type": "node", "id": 10577967272, "lat": -23.1988873, "lon": -45.8874106}, {"type": "node", "id": 10580284182, "lat": -23.1810811, "lon": -45.8678385, "tags": {"amenity": "fast_food", "brand": "Subway", "brand:wikidata": "Q244457", "cuisine": "sandwich", "name": "Subway", "takeaway": "yes"}}, {"type": "node", "id": 10746281150, "lat": -23.2251315, "lon": -45.9123394, "tags": {"addr:housenumber": "672", "amenity": "ice_cream", "brand": "Oggi Sorvetes", "brand:wikidata": "Q118946030", "name": "Oggi Sorvetes"}}, {"type": "node", "id": 10942378607, "lat": -23.2500232, "lon": -45.8192483}, {"type": "node", "id": 10942378608, "lat": -23.2499722, "lon": -45.8192144}, {"type": "node", "id": 10942378609, "lat": -23.2500572, "lon": -45.8190974}, {"type": "node", "id": 10942378610, "lat": -23.2500982, "lon": -45.8191328}, {"type": "node", "id": 10992637048, "lat": -23.230156, "lon": -45.9042256, "tags": {"addr:city": "S\u00e3o Jos\u00e9 dos Campos", "addr:housenumber": "465", "addr:postcode": "12235-580", "addr:street": "Rua Crato", "addr:suburb": "Parque Industrial", "amenity": "pub", "name": "Buchudinhu's Bar"}}, {"type": "node", "id": 11001062141, "lat": -23.2254762, "lon": -45.9121929}, {"type": "node", "id": 11001062142, "lat": -23.2254005, "lon": -45.912196, "tags": {"addr:city": "S\u00e3o Jos\u00e9 Dos Campos", "addr:postcode": "12240-540", "addr:street": "Avenida Cassiano Ricardo", "addr:suburb": "Jardim Alvorada", "amenity": "pub", "name": "OBECO", "opening_hours": "08:00-01:00"}}, {"type": "node", "id": 11001062143, "lat": -23.2316317, "lon": -45.9138846, "tags": {"addr:city": "S\u00e3o Jos\u00e9 dos Campos", "addr:postcode": "12240-420", "addr:street": "Rodovia Presidente Dutra", "addr:suburb": "Jardim das Ind\u00fastrias", "amenity": "pub", "name": "Restaurante S\u00e3o Christovam"}}, {"type": "node", "id": 11036373888, "lat": -23.2772461, "lon": -45.8445941, "tags": {"amenity": "restaurant", "brand:wikidata": "Q191615", "cuisine": "pizza", "name": "Pizza Hut"}}, {"type": "way", "id": 219695538, "nodes": [2288342655, 6168749995, 2288342646, 2288342643, 2288342655], "tags": {"amenity": "fast_food", "brand": "Habib's", "brand:wikidata": "Q2504930", "brand:wikipedia": "en:Habib's", "building": "yes", "building:colour": "#edd223", "building:levels": "1", "cuisine": "middle_eastern", "name": "Habib's", "roof:colour": "#b5b296", "roof:height": "4", "roof:shape": "gabled", "takeaway": "yes"}}, {"type": "way", "id": 219697607, "nodes": [2288363629, 2288363630, 2288363636, 2288363610, 7137658351, 2288363619, 2288363618, 7137658346, 2288363612, 2288363621, 2288363611, 7137658347, 2288363651, 2288363653, 2288363629], "tags": {"addr:city": "S\u00e3o Jos\u00e9 dos Campos", "addr:housenumber": "2200", "addr:postcode": "12242-000", "addr:street": "Avenida S\u00e3o Jo\u00e3o", "addr:suburb": "Jardim das Colinas", "amenity": "restaurant", "branch": "Bambu", "brand": "CoCo", "brand:wikidata": "Q65084369", "building": "commercial", "government": "yes", "name": "Coco Bambu", "opening_hours": "Su-Th 11:30-23:00; Fr-Sa 11:30-24:00", "short_name": "CoCo", "source": "https://cocobambu.com/unidade/sao-jose-dos-campos/", "takeaway": "yes", "website": "https://cocobambu.com/unidade/sao-jose-dos-campos/", "wheelchair": "yes"}}, {"type": "way", "id": 239666785, "nodes": [2474442275, 2474442276, 2474442278, 2474442280, 2474442275], "tags": {"amenity": "fast_food", "brand": "Habib's", "brand:wikidata": "Q2504930", "brand:wikipedia": "en:Habib's", "building": "yes", "building:levels": "1", "cuisine": "middle_eastern", "name": "Habib's", "roof:shape": "gabled", "takeaway": "yes"}}, {"type": "way", "id": 241248363, "nodes": [2489389496, 2489389498, 2489389499, 2489389500, 2489389496], "tags": {"addr:street": "Avenida Presidente Juscelino Kubitschek", "amenity": "fast_food", "brand": "Burger King", "brand:wikidata": "Q177054", "brand:wikipedia": "en:Burger King", "building": "yes", "building:levels": "1", "cuisine": "burger", "name": "Burger King", "takeaway": "yes"}}, {"type": "way", "id": 241783445, "nodes": [2493741307, 2493741308, 2493741309, 2493741310, 2493741311, 2493741317, 2493741312, 2493741307], "tags": {"amenity": "restaurant", "building": "yes", "building:levels": "1", "name": "Skina Lanches"}}, {"type": "way", "id": 249532901, "nodes": [2561218750, 2561218751, 2561218752, 2561218753, 2561218754, 2561218755, 2561218756, 2561218757, 2561218758, 2561218750], "tags": {"addr:city": "S\u00e3o Jos\u00e9 dos Campos", "addr:housenumber": "100", "addr:postcode": "12242-001", "addr:street": "Avenida Doutor Eduardo Cury", "addr:suburb": "Jardim das Colinas", "amenity": "fast_food", "brand": "McDonald's", "brand:wikidata": "Q38076", "brand:wikipedia": "en:McDonald's", "building": "yes", "contact:facebook": "https://www.facebook.com/McDonaldsBrasil", "contact:instagram": "https://www.instagram.com/mcdonalds_br/", "contact:twitter": "https://twitter.com/McDonalds_BR", "cuisine": "burger", "drive_through": "yes", "name": "McDonald's", "roof:shape": "hipped", "takeaway": "yes", "website": "https://www.mcdonalds.com.br/"}}, {"type": "way", "id": 252390686, "nodes": [2584490741, 2584490742, 2584490743, 2584490744, 2584490741], "tags": {"amenity": "restaurant", "building": "yes", "building:colour": "#ECE5B6", "building:levels": "1", "name": "Restaurante IDEAL"}}, {"type": "way", "id": 252931251, "nodes": [1824519408, 2589421205, 2589421206, 2589421207, 2589421208, 2589421210, 2589421211, 2589421212, 2589421213, 2589421214, 2589421215, 2589421216, 2589421217, 2589421218, 2589421219, 2589421227, 2589421220, 1824519408], "tags": {"addr:city": "S\u00e3o Jos\u00e9 dos Campos", "addr:street": "Avenida Cassiano Ricardo", "amenity": "restaurant", "building": "yes", "building:levels": "2", "cuisine": "pizza;regional", "delivery": "yes", "email": "goldeneventos@bovinus.com.br", "name": "Golden", "opening_hours": "Su 12:00-15:30,19:00-23:00; Mo-We 11:30-15:00,19:00-23:00; Th 11:30-15:00,19:00-23:30; Fr-Sa 12:00-15:30,19:00-00:00; PH 12:00-15:30", "phone": "+55 12 3923 5515", "roof:shape": "hipped", "website": "https://www.goldengrill.com.br/"}}, {"type": "way", "id": 252931252, "nodes": [2589421221, 2589421233, 2589421222, 2589421232, 2589421223, 2589421234, 2589421224, 2589421235, 2589421236, 2589421226, 2589421217, 2589421218, 2589421219, 2589421227, 2589421228, 2589421229, 2589421230, 2589421231, 2589421221], "tags": {"addr:city": "S\u00e3o Jos\u00e9 Dos Campos", "addr:housenumber": "70", "addr:street": "Avenida Cassiano Ricardo", "addr:suburb": "Parque Residencial Aquarius", "amenity": "restaurant", "building": "yes", "building:levels": "1", "contact:facebook": "https://www.facebook.com/paulistaburgersjc/", "contact:instagram": "https://www.instagram.com/paulistaburgersjc/", "cuisine": "burger", "delivery": "yes", "email": "contato@paulistaburger.com.br", "name": "Paulista Burger", "opening_hours": "Su-Mo 18:00-23:00; Tu-Sa 18:00-23:30", "phone": "+55 12 3911 7781", "roof:shape": "flat", "takeaway": "yes", "website": "http://paulistaburgersjc.com.br/"}}, {"type": "way", "id": 280368381, "nodes": [2845010783, 2845010784, 2845010785, 2845010786, 2845010783]}, {"type": "way", "id": 286902675, "nodes": [2905807281, 6113712713, 2905807282, 6113712716, 2905807283, 2905807284, 2905807281], "tags": {"amenity": "bar", "building": "yes"}}, {"type": "way", "id": 293931664, "nodes": [2975034796, 2975034795, 2975034794, 2975034799, 2975034800, 2975034802, 2975034801, 2975034796], "tags": {"addr:city": "S\u00e3o Jos\u00e9 dos Campos", "addr:street": "Rodovia Governador Carvalho Pinto", "amenity": "restaurant", "building": "yes", "cuisine": "chicken;regional", "name": "Restaurante Frango Assado", "operator": "Rede Frango Assado"}}, {"type": "way", "id": 297125463, "nodes": [3009660431, 3009660432, 3009661733, 3009661734, 3009660431], "tags": {"amenity": "restaurant", "building": "yes", "check_date": "2023-07-16", "name": "Vila Velha", "roof:shape": "hipped"}}, {"type": "way", "id": 298411725, "nodes": [3023156430, 3023156431, 3023156432, 3023157433, 3023157434, 3023156430], "tags": {"amenity": "cafe", "building": "yes", "internet_access": "wlan", "name": "Padaria e Confeitaria Capri"}}, {"type": "way", "id": 300656186, "nodes": [3047497222, 6228443198, 6228443205, 3047497223, 3047497224, 3047497225, 3047497226, 3047497222], "tags": {"amenity": "pub", "building": "yes", "name": "Bar P\u00e9 no Ch\u00e3o"}}, {"type": "way", "id": 307256418, "nodes": [3123507305, 3123507306, 3123507307, 3123507308, 3123507305], "tags": {"addr:city": "S\u00e3o Jos\u00e9 dos Campos", "addr:housenumber": "120", "addr:postcode": "12243-001", "addr:street": "Avenida Nove de Julho", "addr:suburb": "Jardim Apolo", "amenity": "fast_food", "brand": "McDonald's", "brand:wikidata": "Q38076", "brand:wikipedia": "en:McDonald's", "building": "yes", "check_date": "2023-04-16", "cuisine": "burger", "drive_through": "yes", "name": "McDonald's", "takeaway": "yes", "website": "https://www.mcdonalds.com.br/"}}, {"type": "way", "id": 307256419, "nodes": [3123507309, 3123507310, 3123507311, 3123507312, 3123507309], "tags": {"addr:city": "S\u00e3o Jos\u00e9 dos Campos", "addr:housenumber": "243", "addr:postcode": "12243-000", "addr:street": "Avenida Nove de Julho", "addr:suburb": "Jardim Apolo", "amenity": "pub", "building": "retail", "building:levels": "1", "check_date": "2023-04-16", "contact:facebook": "https://www.facebook.com/ocanecobar", "name": "O Caneco Bar", "opening_hours": "Mo-Fr 16:00-00:00; Sa-Su 11:00-00:00", "phone": "+55 12 3307 3339", "website": "https://linktr.ee/ocanecobar"}}, {"type": "way", "id": 307819648, "nodes": [3130608819, 3130608820, 3130608821, 10087830586, 3130608822, 3130608819], "tags": {"addr:city": "S\u00e3o Jos\u00e9 dos Campos", "addr:housenumber": "221", "addr:postcode": "12243-000", "addr:street": "Avenida Nove de Julho", "addr:suburb": "Jardim Apolo", "amenity": "fast_food", "brand": "Subway", "brand:wikidata": "Q244457", "brand:wikipedia": "en:Subway (restaurant)", "building": "yes", "cuisine": "sandwich", "drive_through": "no", "name": "Subway", "takeaway": "yes"}}, {"type": "way", "id": 308063855, "nodes": [3133459955, 3133459956, 3133459953, 3133459954, 3133459955], "tags": {"amenity": "cafe", "brand": "Fran's Caf\u00e9", "brand:wikidata": "Q62075645", "building": "yes", "cuisine": "coffee_shop", "name": "Fran's Caf\u00e9", "takeaway": "yes"}}, {"type": "way", "id": 310168055, "nodes": [3155462682, 3155462683, 3155462684, 3155462685, 3155462686, 3155462687, 3155462688, 3155462689, 3155462690, 3155462691, 3155462682]}, {"type": "way", "id": 310168056, "nodes": [3155462692, 3155462693, 3155462694, 3155462695, 3155462692]}, {"type": "way", "id": 310168551, "nodes": [3155469703, 3155469704, 3155469705, 4121738371, 4121738372, 4121738373, 4121738374, 3155469706, 4121738370, 4121738369, 3155469703], "tags": {"amenity": "restaurant", "building": "yes", "name": "Restaurante do COCTA"}}, {"type": "way", "id": 312062640, "nodes": [3178753324, 3178753325, 3178753326, 3178753327, 3178753324], "tags": {"amenity": "restaurant", "building": "yes", "name": "Cantina do IFI"}}, {"type": "way", "id": 312797983, "nodes": [3186865184, 3186865185, 3186865186, 3186865187, 3186865184]}, {"type": "way", "id": 330067790, "nodes": [3370285127, 3370285128, 3370285129, 3370285130, 3370285127], "tags": {"amenity": "restaurant", "building": "yes"}}, {"type": "way", "id": 336698894, "nodes": [3437618192, 3437625593, 3437625594, 3437625595, 3437618192], "tags": {"amenity": "restaurant", "building": "yes", "name": "Cantina X10"}}, {"type": "way", "id": 368084316, "nodes": [3719454318, 3719454319, 3719454320, 3719454321, 3719454318], "tags": {"addr:city": "S\u00e3o Jos\u00e9 dos Campos", "addr:housenumber": "1112", "addr:street": "Rodovia dos Tamoios", "amenity": "restaurant", "building": "yes", "cuisine": "regional", "name": "Restaurante Vaca Preta", "phone": "+55 12 3922 9930"}}, {"type": "way", "id": 371473773, "nodes": [3750383170, 3750383171, 3750383172, 3750383173, 3750383174, 3750383175, 3750383170], "tags": {"amenity": "pub", "building": "yes", "name": "Bar do Xuxu"}}, {"type": "way", "id": 371473774, "nodes": [3750383176, 3750383177, 3750383178, 3750383179, 3750383180, 3750383181, 3750383182, 3750383183, 3750383184, 3750383176], "tags": {"amenity": "bar", "building": "commercial", "name": "O Caneco", "operator": "Locadora Star Ciine Video"}}, {"type": "way", "id": 371473776, "nodes": [3750383189, 3750383190, 3750383191, 3750383192, 3750383189], "tags": {"amenity": "restaurant", "building": "yes", "name": "Fonseca's restaurante e lanchonete"}}, {"type": "way", "id": 429506257, "nodes": [4286601247, 4286601248, 4286601249, 4286601251, 4286601247], "tags": {"amenity": "cafe", "breakfast": "yes", "building": "yes", "name": "BR Mania"}}, {"type": "way", "id": 431993739, "nodes": [4311943527, 4311943528, 4311943529, 9049943386, 4311943530, 4311943527], "tags": {"addr:city": "S\u00e3o Jos\u00e9 dos Campos", "addr:street": "Avenida Santos Dumont", "addr:suburb": "Jardim Paulista", "amenity": "fast_food", "building": "yes", "name": "Ponto da Esfiha"}}, {"type": "way", "id": 473420631, "nodes": [4675378415, 7333431584, 7333515786, 7333515785, 11001062141, 4675378415], "tags": {"amenity": "bar", "building": "yes", "name": "Santo Onofre Boteco Bistr\u00f4", "smoking": "no"}}, {"type": "way", "id": 487424330, "nodes": [4798836258, 4798836257, 4798836256, 4798836259, 4798836258], "tags": {"amenity": "fast_food", "building": "yes", "name": "Pisca Lanches"}}, {"type": "way", "id": 503294016, "nodes": [10087830586, 4936307028, 4936307029, 4936307030, 3130608822, 10087830586], "tags": {"addr:city": "S\u00e3o Jos\u00e9 dos Campos", "addr:housenumber": "225", "addr:postcode": "12243-000", "addr:street": "Avenida Nove de Julho", "addr:suburb": "Jardim Apolo", "amenity": "fast_food", "building": "yes", "cuisine": "burger", "drive_through": "no", "name": "Kadu Lanches", "phone": "+55 12 3942 4333", "website": "http://www.kadulanches.com.br/"}}, {"type": "way", "id": 504391778, "nodes": [4945582867, 4945582866, 4945582865, 4945582864, 4945582863, 4945582862, 4945582861, 4945582860, 4945582867], "tags": {"addr:city": "S\u00e3o Jos\u00e9 dos Campos", "addr:country": "BR", "addr:housenumber": "15", "addr:place": "Jardim Vale do Sol", "addr:postcode": "12238-170", "addr:street": "Rua Caravelas", "amenity": "restaurant", "building": "yes", "cuisine": "steak_house", "internet_access": "yes", "name": "Churraskilo Eldorado", "phone": "+55 12 3933 3513", "website": "http://www.churraskilo.com.br/"}}, {"type": "way", "id": 511759698, "nodes": [5005165077, 5005165078, 5005165079, 5005165080, 5005165077], "tags": {"amenity": "restaurant", "building": "yes"}}, {"type": "way", "id": 511762273, "nodes": [5005187394, 5005187395, 5005187396, 5005187397, 5005187394], "tags": {"amenity": "restaurant", "building": "yes"}}, {"type": "way", "id": 543605102, "nodes": [5255031137, 5255031138, 5255031139, 5255031140, 5406162553, 5406162537, 5255031141, 5255031142, 5255031143, 5255031144, 5255031145, 5255031146, 5255031147, 5255031148, 5255031137], "tags": {"amenity": "restaurant", "building": "yes", "outdoor_seating": "yes"}}, {"type": "way", "id": 552077290, "nodes": [5330751896, 5330751897, 5330751898, 5330751899, 5330751900, 5330751901, 5330751896], "tags": {"amenity": "restaurant", "building": "yes", "name": "Churraskilo Aqu\u00e1rius"}}, {"type": "way", "id": 558448364, "nodes": [5385294744, 5385294741, 5385294742, 5385294743, 5385294744], "tags": {"addr:city": "S\u00e3o Jos\u00e9 dos Campos", "addr:country": "BR", "addr:housenumber": "1013", "addr:postcode": "12242-800", "addr:street": "Avenida Bar\u00e3o do Rio Branco", "addr:suburb": "Jardim Esplanada", "amenity": "restaurant", "building": "yes", "cuisine": "regional", "email": "domdacarne@outlook.com", "name": "Dom da Carne", "opening_hours": "Mo-Tu 11:30-15:00, 18:00-23:00; We-Sa 11:30-16:00, 18:00-23:00; Su 11:30-17:00", "payment:american_express": "yes", "payment:mastercard": "yes", "payment:notes": "no", "payment:visa": "yes", "phone": "+55 12 3302 5226", "website": "https://www.domdacarne.com.br/"}}, {"type": "way", "id": 559239007, "nodes": [5394261613, 5394261614, 5394261615, 5394261613], "tags": {"amenity": "restaurant", "building": "yes", "cuisine": "regional", "name": "Restaurante do La\u00e9rcio"}}, {"type": "way", "id": 622544623, "nodes": [5880222820, 5880222821, 5880222822, 5880222823, 6191093096, 6191093082, 5880222824, 5880222825, 5880222820], "tags": {"amenity": "restaurant", "building": "yes", "check_date": "2023-04-16", "cuisine": "pizza", "name": "Caldinho e Pizzaria S\u00e3o Dimas"}}, {"type": "way", "id": 638633394, "nodes": [6018670233, 6018670232, 6018670231, 6018670230, 6018670229, 6018670228, 6018670227, 6018670226, 6018670225, 6018670224, 6018670233], "tags": {"addr:city": "S\u00e3o Jos\u00e9 dos Campos", "addr:housenumber": "318", "addr:postcode": "12243-010", "addr:street": "Rua Madre Paula de S\u00e3o Jos\u00e9", "addr:suburb": "Vila Ema", "amenity": "restaurant", "building": "retail", "building:levels": "1", "contact:facebook": "https://www.facebook.com/AuaGastronomia/", "cuisine": "regional", "email": "contato@auagastronomia.com.br", "name": "Au\u00e1 Gastronomia", "opening_hours": "Mo-Sa 11:30-15:00,19:00-23:45; Su 11:30-16:00", "phone": "+55 12 3942 1197", "website": "https://www.auagastronomia.com.br/"}}, {"type": "way", "id": 638633403, "nodes": [6018670393, 6018670392, 6018670391, 6018670390, 6018670389, 6018670388, 6018670393]}, {"type": "way", "id": 638633404, "nodes": [6018670397, 6018670396, 6018670395, 6018670394, 6018670397]}, {"type": "way", "id": 638633405, "nodes": [6018670401, 6018670400, 6018670399, 6018670398, 6018670401]}, {"type": "way", "id": 638773623, "nodes": [6019863908, 6019863907, 6019863906, 6019863905, 6019863908], "tags": {"addr:city": "S\u00e3o Jos\u00e9 dos Campos", "addr:housenumber": "648", "addr:postcode": "12243-260", "addr:street": "Avenida Heitor Villa Lobos", "addr:suburb": "Vila Ema", "amenity": "pub", "building": "yes", "check_date": "2023-07-14", "contact:facebook": "https://www.facebook.com/espetinhodaemasjc/", "name": "Espetinho da Ema", "opening_hours": "Mo-Sa 17:00-01:00", "phone": "+55 12 3922 1770"}}, {"type": "way", "id": 638773630, "nodes": [4938728202, 6019863929, 6019863928, 6019863927, 6019863926, 6019863925, 4938728202], "tags": {"addr:city": "S\u00e3o Jos\u00e9 dos Campos", "addr:country": "BR", "addr:housenumber": "690", "addr:postcode": "12243-260", "addr:street": "Avenida Heitor Villa Lobos", "addr:suburb": "Vila Ema", "amenity": "restaurant", "building": "yes", "cuisine": "regional", "name": "Fam\u00edlia Ga\u00facha", "opening_hours": "Mo-Th 11:00-15:00,18:00-23:00; Fr 11:00-15:00,18:00-24:00; Sa 11:00-16:00,18:00-24:00; Su 11:00-16:00,18:00-23:00; PH 11:00-16:00,18:00-24:00", "payment:coins": "yes", "payment:mastercard": "yes", "payment:notes": "yes", "payment:visa": "yes", "phone": "+55 12 3921 7633", "smoking": "no", "website": "http://www.familiagaucha.com.br/"}}, {"type": "way", "id": 638773644, "nodes": [6019863975, 6019863955, 6019863974, 6019863965, 6019863966, 6019863973, 6019863972, 6019863971, 6019863970, 6019863969, 6019863968, 6019863975], "tags": {"addr:city": "S\u00e3o Jos\u00e9 dos Campos", "addr:housenumber": "12", "addr:postcode": "12243-340", "addr:street": "Rua Jos\u00e9 Bonif\u00e1cio", "addr:suburb": "Vila Guaianazes", "amenity": "restaurant", "building": "yes", "name": "Litsue"}}, {"type": "way", "id": 639112570, "nodes": [6022652878, 6022652875, 6022652859, 6022652876, 6022652877, 6022652878], "tags": {"amenity": "restaurant", "building": "yes", "check_date": "2023-03-28", "cuisine": "pizza", "name": "Itali Genils"}}, {"type": "way", "id": 639112584, "nodes": [6022653049, 6022653046, 6022653047, 6022653048, 6022653049], "tags": {"addr:city": "S\u00e3o Jos\u00e9 dos Campos", "addr:housenumber": "1520", "addr:postcode": "12245-280", "addr:street": "Avenida Heitor Villa Lobos", "addr:suburb": "Vila Adyana", "amenity": "fast_food", "brand": "China in Box", "brand:wikidata": "Q18463999", "building": "yes", "cuisine": "chinese", "delivery": "yes", "name": "China in Box", "opening_hours": "24/7 11:00-15:00, 18:00-23:00", "takeaway": "yes"}}, {"type": "way", "id": 642606526, "nodes": [6049160214, 6049160213, 6049160212, 6049160211, 6049160214], "tags": {"addr:city": "S\u00e3o Jos\u00e9 Dos Campos", "addr:housenumber": "604", "addr:postcode": "12246-856", "addr:street": "Avenida Comendador Vicente de Paulo Penido", "addr:suburb": "Parque Residencial Aquarius", "amenity": "restaurant", "building": "yes", "contact:facebook": "https://www.facebook.com/albadahcozinhaarabe", "cuisine": "arab", "delivery": "Mo-Su 18:00-23:00", "name": "Al Badah", "opening_hours": "Mo-Fr 12:00-15:00,18:00-22:00; Sa-Su 12:00-16:00,18:00-22:00", "phone": "+55 12 3923 2338", "website": "https://albadah.com.br/"}}, {"type": "way", "id": 642606538, "nodes": [6049160270, 6049160265, 6049160264, 6049160263, 6049160266, 6049160269, 6049160268, 6049160267, 6049160270], "tags": {"amenity": "restaurant", "building": "yes", "name": "Bar e Restaurante S\u00e3o Cristovam"}}, {"type": "way", "id": 652048788, "nodes": [6113712717, 6113712714, 6113712715, 6113712716, 2905807282, 6113712713, 6113712717], "tags": {"amenity": "fast_food", "building": "yes", "cuisine": "kebab", "name": "Fil\u00e9miau"}}, {"type": "way", "id": 655248060, "nodes": [6139407731, 7726584158, 7726584159, 6139407728, 6139407729, 7726584157, 7726584160, 6139407730, 6139407731], "tags": {"amenity": "fast_food", "brand": "McDonald's", "brand:wikidata": "Q38076", "brand:wikipedia": "en:McDonald's", "building": "yes", "cuisine": "burger", "name": "McDonald's", "takeaway": "yes"}}, {"type": "way", "id": 656609869, "nodes": [6150601267, 6150601266, 6150601265, 6150601264, 6150601263, 6150601262, 6150601261, 6150601260, 6150601259, 6150601258, 6150601257, 6150601267], "tags": {"addr:housenumber": "975", "addr:street": "Avenida dos Astronautas", "amenity": "restaurant", "building": "yes", "contact:facebook": "https://www.facebook.com/Sr.Mignon/", "contact:website": "http://www.srmignon.com.br/", "cuisine": "brazilian;barbecue", "name": "Sr. Mignon", "opening_hours": "Mo-Fr 11:00-14:30", "self_service": "yes"}}, {"type": "way", "id": 656622363, "nodes": [6150718124, 6150718118, 6150718117, 6150718123, 6150718122, 6150718121, 6150718124], "tags": {"addr:city": "S\u00e3o Jos\u00e9 dos Campos", "addr:housenumber": "98", "addr:postcode": "12243-610", "addr:street": "Avenida Paulo Becker", "addr:suburb": "Vila Adyana", "amenity": "restaurant", "building": "yes", "check_date": "2023-04-16", "contact:facebook": "https://www.facebook.com/marbellesjc/", "cuisine": "seafood", "email": "contato@marbellerestaurant.com.br", "name": "Marbelle", "opening_hours": "Mo-Fr 11:30-17:00,19:00-22:30; Sa 11:30-16:30,19:00-23:00; Su 11:30-16:30", "phone": "+55 12 3923 5307"}}, {"type": "way", "id": 658818387, "nodes": [6168749794, 6168749791, 6168749792, 6168749793, 6168749790, 6168749789, 6168749794], "tags": {"addr:housenumber": "111", "addr:street": "Rua Francisco Paes", "amenity": "restaurant", "building": "yes", "diet:vegan": "yes", "diet:vegetarian": "yes", "name": "Com-Sci\u00eancia", "opening_hours": "Mo-Su 11:00-15:00; Sa off", "self_service": "yes", "shop": "health_food", "website": "http://comsciencia.com.br/"}}, {"type": "way", "id": 658818438, "nodes": [6168750054, 6168750051, 6168750052, 6168750053, 6168750054], "tags": {"addr:city": "S\u00e3o Jos\u00e9 dos Campos", "addr:housenumber": "216", "addr:postcode": "12245-710", "addr:street": "Rua Luiz Jacinto", "addr:suburb": "Centro", "amenity": "restaurant", "building": "yes", "cuisine": "japanese;fast_food", "delivery": "yes", "name": "Sukiya S\u00e3o Jos\u00e9 dos Campos", "opening_hours": "Mo-Su 11:00-22:40", "phone": "+55 12 3911 9002"}}, {"type": "way", "id": 658959832, "nodes": [6169697334, 6169697331, 6169697332, 6169697333, 6169697334], "tags": {"amenity": "fast_food", "brand": "Burger King", "brand:wikidata": "Q177054", "building": "yes", "building:levels": "1", "cuisine": "burger", "name": "Burger King", "takeaway": "yes"}}, {"type": "way", "id": 659450643, "nodes": [6174205735, 6174205732, 6174205733, 6174205734, 6174205735], "tags": {"addr:city": "S\u00e3o Jos\u00e9 dos Campos", "addr:housenumber": "70", "addr:postcode": "12243-001", "addr:street": "Avenida Nove de Julho", "addr:suburb": "Jardim Apolo", "amenity": "cafe", "building": "yes", "check_date": "2023-04-16", "contact:facebook": "https://www.facebook.com/fikacafesespeciais/", "cuisine": "coffee_shop", "email": "fikacafesespeciais@hotmail.com", "internet_access": "wlan", "internet_access:fee": "no", "name": "Fika Caf\u00e9s Especiais", "opening_hours": "Mo-Su 08:00-22:00", "phone": "+55 12 3922 0402"}}, {"type": "way", "id": 659450644, "nodes": [6174205739, 6174205736, 6174205734, 6174205737, 6174205738, 6174205739], "tags": {"amenity": "restaurant", "building": "yes", "building:levels": "1", "name": "Fog\u00e3o de Minas"}}, {"type": "way", "id": 659590439, "nodes": [6175529816, 6175529813, 6175529814, 6175529812, 6175529811, 6175529815, 6175529816], "tags": {"amenity": "restaurant", "building": "retail", "building:levels": "1", "delivery": "yes", "name": "Emp\u00f3rio Churraskilo", "operator": "Churraskilo"}}, {"type": "way", "id": 659590441, "nodes": [6175529822, 6175529819, 6175529820, 6175529821, 6175529822], "tags": {"amenity": "restaurant", "building": "retail", "building:levels": "1", "delivery": "yes", "name": "Churraskilo", "operator": "Churraskilo"}}, {"type": "way", "id": 659711708, "nodes": [3353162270, 6176617530, 6176617531, 6176617532, 3353162270], "tags": {"amenity": "fast_food", "brand": "Subway", "brand:wikidata": "Q244457", "brand:wikipedia": "en:Subway (restaurant)", "building": "yes", "cuisine": "sandwich", "drive_through": "no", "name": "Subway", "takeaway": "yes"}}, {"type": "way", "id": 659711726, "nodes": [6176617663, 6176617660, 6176617661, 6176617662, 6176617663], "tags": {"addr:city": "S\u00e3o Jos\u00e9 dos Campos", "addr:housenumber": "231", "addr:postcode": "12243-070", "addr:street": "Rua Jorge Barbosa Moreira", "addr:suburb": "Vila Ema", "amenity": "cafe", "building": "commercial", "cuisine": "coffee_shop", "name": "Floresteria", "phone": "+55 12 3916 4151", "website": "https://www.floresteriaonline.com/"}}, {"type": "way", "id": 659711733, "nodes": [6176617802, 6176617798, 6176617799, 6176617800, 6176617797, 6176617796, 6176617801, 6176617802], "tags": {"addr:city": "S\u00e3o Jos\u00e9 dos Campos", "addr:housenumber": "133", "addr:postcode": "12243-010", "addr:street": "Rua Madre Paula de S\u00e3o Jos\u00e9", "addr:suburb": "Vila Ema", "amenity": "pub", "building": "yes"}}, {"type": "way", "id": 659711752, "nodes": [6176617924, 6176617921, 6176617922, 6176617923, 6176617924], "tags": {"addr:city": "S\u00e3o Jos\u00e9 dos Campos", "addr:housenumber": "191", "addr:postcode": "12243-080", "addr:street": "Rua Padre Rodolfo", "addr:suburb": "Vila Ema", "amenity": "ice_cream", "building": "retail", "building:levels": "2", "contact:facebook": "https://www.facebook.com/cremearte/", "contact:instagram": "https://www.instagram.com/cremearte/", "contact:whatsapp": "+55 12 98194 3715", "name": "Cremearte", "opening_hours": "Mo 09:00-17:00; Tu-Su 13:00-20:00", "outdoor_seating": "yes", "phone": "+55 12 3346 3010", "roof:levels": "1", "roof:shape": "hipped", "website": "https://cremearte.com.br/"}}, {"type": "way", "id": 660020954, "nodes": [6179528324, 6179528368, 6179528321, 6179528322, 6179528323, 6179528324], "tags": {"addr:city": "S\u00e3o Jos\u00e9 dos Campos", "addr:housenumber": "230", "addr:postcode": "12243-740", "addr:street": "Rua Pedro de Toledo", "addr:suburb": "Vila Adyana", "amenity": "restaurant", "building": "retail", "building:levels": "1", "check_date": "2023-03-28", "contact:facebook": "https://www.facebook.com/churraskilorestaurantegrill/", "contact:instagram": "https://www.instagram.com/churraskilo/", "cuisine": "barbecue;regional", "name": "Churraskilo", "phone": "+55 12 3941 1164"}}, {"type": "way", "id": 660021000, "nodes": [6179528702, 6179528701, 6179528697, 6179528700, 6179528702], "tags": {"addr:housenumber": "569", "addr:street": "Rua Santa Clara", "amenity": "restaurant", "building": "retail", "building:levels": "1", "name": "Aj\u00ed Limo"}}, {"type": "way", "id": 660021024, "nodes": [6179528994, 6179528991, 6179528992, 6179528993, 6179528994], "tags": {"addr:housenumber": "1050", "addr:street": "Avenida Doutor Adhemar de Barros", "amenity": "ice_cream", "brand": "Chiquinho Sorvetes", "brand:wikidata": "Q65164356", "building": "retail", "building:levels": "1", "name": "Chiquinho Sorvetes"}}, {"type": "way", "id": 660021050, "nodes": [6179529114, 6179529111, 6179529112, 6179529113, 6179529114], "tags": {"addr:city": "S\u00e3o Jos\u00e9 dos Campos", "addr:housenumber": "937", "addr:postcode": "12243-000", "addr:street": "Avenida Nove de Julho", "addr:suburb": "Jardim Apolo", "amenity": "restaurant", "building": "commercial", "building:levels": "1", "check_date": "2023-03-28", "cuisine": "japanese", "name": "Yotsuia Sushi", "opening_hours": "Tu-Th 12:00-14:30,18:30-23:00; Fr 12:00-14:30,18:30-00:00; Sa 12:00-15:00,18:30-00:00; Su 12:00-15:00,18:30-23:00; PH 12:00-15:00,18:30-23:00", "phone": "+55 12 3209 6000", "roof:levels": "0", "website": "http://yotsuia.com.br/"}}, {"type": "way", "id": 660021067, "nodes": [6179529218, 6179529217, 6179529216, 6179529215, 6179529218], "tags": {"addr:city": "S\u00e3o Jos\u00e9 dos Campos", "addr:housenumber": "747", "addr:postcode": "12243-000", "addr:street": "Avenida Nove de Julho", "addr:suburb": "Jardim Apolo", "amenity": "fast_food", "building": "yes", "check_date": "2023-06-05", "contact:instagram": "https://www.instagram.com/delijoybr/", "cuisine": "burger;dessert", "drive_through": "no", "email": "contato@delijoy.com.br", "name": "Deli Joy", "opening_hours": "Tu-Fr 17:00-23:00; Sa 13:00-23:00; Su 13:00-22:00", "phone": "+55 12 3346 1002", "website": "http://delijoy.com.br"}}, {"type": "way", "id": 660021070, "nodes": [4506833837, 6179529233, 6179529234, 6179529235, 4506833837], "tags": {"addr:city": "S\u00e3o Jos\u00e9 dos Campos", "addr:housenumber": "108", "addr:postcode": "12243-740", "addr:street": "Rua Pedro de Toledo", "addr:suburb": "Vila Adyana", "amenity": "pub", "building": "retail", "building:levels": "1", "check_date": "2023-03-28", "contact:facebook": "https://www.facebook.com/TurcoGordo", "name": "O Turco Gordo", "opening_hours": "Mo-Su,PH 17:00-24:00", "outdoor_seating": "yes", "phone": "+55 12 3922 9952", "roof:levels": "1", "roof:shape": "hipped"}}, {"type": "way", "id": 660021078, "nodes": [4506825503, 6179529277, 6179529276, 6179529275, 7270612200, 4506825503], "tags": {"addr:city": "S\u00e3o Jos\u00e9 dos Campos", "addr:housenumber": "706", "addr:postcode": "12243-630", "addr:street": "Rua Santa Clara", "addr:suburb": "Vila Adyana", "amenity": "restaurant", "building": "yes", "check_date": "2023-03-28", "cuisine": "japanese;brazilian", "name": "Adissai", "phone": "+55 12 3922 6634", "website": "https://www.adissai.com.br/"}}, {"type": "way", "id": 660021099, "nodes": [6179529413, 6179529412, 6179529411, 6179529410, 6179529409, 6179529413], "tags": {"addr:city": "S\u00e3o Jos\u00e9 dos Campos", "addr:housenumber": "1166", "addr:postcode": "12245-011", "addr:street": "Avenida Doutor Adhemar de Barros", "addr:suburb": "Jardim S\u00e3o Dimas", "amenity": "pub", "building": "yes", "check_date": "2023-03-28", "contact:facebook": "https://www.facebook.com/bargogodaema", "contact:instagram": "https://www.instagram.com/bargogodaema/", "email": "contato@bargogodaema.com.br", "name": "Gog\u00f3 da Ema", "opening_hours": "Mo 11:00-15:00; Tu-Fr 11:00-15:00,17:30-23:30; Sa 11:30-23:30; Su 11:30-16:00", "phone": "+55 12 3922 8105", "website": "https://www.bargogodaema.com.br"}}, {"type": "way", "id": 660634909, "nodes": [6185221428, 6185221427, 6185221426, 2845010783, 2845010784, 2845010785, 6185221425, 6185221428]}, {"type": "way", "id": 660797004, "nodes": [6186657696, 6186657693, 6186657694, 6186657695, 6186657696], "tags": {"amenity": "fast_food", "building": "yes", "name": "Bom Gosto"}}, {"type": "way", "id": 660875663, "nodes": [6187375250, 6187375249, 6187375251, 6187375248, 6187375252, 6187375253, 6187375255, 6187375254, 6187375250], "tags": {"addr:city": "S\u00e3o Jos\u00e9 dos Campos", "addr:housenumber": "32", "addr:street": "Pra\u00e7a dos Servidores P\u00fablicos Municipais", "addr:suburb": "Vila Bet\u00e2nia", "amenity": "restaurant", "building": "yes", "building:levels": "1", "name": "Bahamas"}}, {"type": "way", "id": 662530946, "nodes": [6202461837, 6202461831, 6202461832, 6202461834, 6202461835, 6202461833, 6202461836, 6202461837], "tags": {"addr:city": "S\u00e3o Jos\u00e9 Dos Campos", "addr:housenumber": "551", "addr:street": "Avenida Doutor Adhemar de Barros", "amenity": "restaurant", "building": "yes", "name:signed": "no"}}, {"type": "way", "id": 662797095, "nodes": [6204781631, 6331702373, 6331702374, 6204781630, 6204781631], "tags": {"addr:housenumber": "15", "addr:street": "Rua J\u00fapiter", "amenity": "restaurant", "building": "yes", "contact:facebook": "https://www.facebook.com/ruspost", "name": "Ukon Yakissoba", "opening_hours": "Tu-Sa 18:00-23:00", "takeaway": "only"}}, {"type": "way", "id": 665453852, "nodes": [6228443179, 6228443176, 6228443177, 6228443178, 6228443179], "tags": {"amenity": "restaurant", "building": "yes", "name": "Pizzas"}}, {"type": "way", "id": 667984839, "nodes": [6254953276, 6254953277, 6254953278, 6254953279, 6254953276], "tags": {"addr:city": "S\u00e3o Jos\u00e9 dos Campos", "addr:housenumber": "58", "addr:postcode": "12243-070", "addr:street": "Rua Jorge Barbosa Moreira", "addr:suburb": "Vila Ema", "amenity": "cafe", "building": "retail", "building:levels": "1", "contact:facebook": "https://www.facebook.com/OrigemCultural/", "cuisine": "coffee_shop", "internet_access": "wlan", "internet_access:fee": "no", "internet_access:ssid": "Origem Cultural", "name": "Origem Cultural Caf\u00e9", "opening_hours": "Mo-Fr 09:00-21:00; Sa 09:00-17:00", "outdoor_seating": "yes"}}, {"type": "way", "id": 669635450, "nodes": [6270880298, 6270880301, 6270880294, 6270880299, 6270880298], "tags": {"addr:street": "Avenida Santos Dumont", "addr:suburb": "Jardim Paulista", "amenity": "fast_food", "building": "yes", "name": "Lanchonete Ka Lu"}}, {"type": "way", "id": 673961885, "nodes": [6311570646, 6433345132, 6433345136, 6311570647, 2618943348, 6311570648, 6311570649, 6311570650, 6433345131, 6311570651, 6311570646], "tags": {"addr:housenumber": "71", "addr:street": "Rua Francisco Rafael", "amenity": "restaurant", "building": "yes", "contact:facebook": "https://www.facebook.com/RestauranteHarmony/", "contact:phone": "+55 12 3921-3962", "cuisine": "japanese", "diet:vegan": "yes", "diet:vegetarian": "only", "name": "Harmony", "opening_hours": "Mo-Sa 11:30-15:00", "outdoor_seating": "no", "self_service": "yes", "takeaway": "yes", "website": "https://harmonyrestaurantevegetariano.negocio.site/"}}, {"type": "way", "id": 678964490, "nodes": [6357399159, 6357399152, 6357399153, 6357399154, 6357399155, 6357399156, 6357399157, 6357399151, 6357399148, 6357399158, 6357399159], "tags": {"amenity": "restaurant", "building": "yes", "name": "Restaurante Gira-Brasil", "phone": "+55 12 3943 3660"}}, {"type": "way", "id": 681779101, "nodes": [6384783079, 6384783080, 6384783081, 6384783082, 6384783079], "tags": {"amenity": "fast_food", "building": "yes", "cuisine": "pizza", "name": "F\u00e3 de Pizza"}}, {"type": "way", "id": 682721197, "nodes": [6394191592, 6394191593, 6394191594, 6394191595, 6394191596, 6394191597, 6394191598, 6394191592], "tags": {"addr:city": "S\u00e3o Jos\u00e9 dos Campos", "addr:housenumber": "15", "addr:postcode": "12243-360", "addr:street": "Rua Serimbura", "addr:suburb": "Vila Ema", "amenity": "restaurant", "building": "yes", "check_date": "2023-04-06", "contact:facebook": "https://www.facebook.com/albadahcozinhaarabe", "cuisine": "arab", "delivery": "yes", "name": "Al Badah", "opening_hours": "Mo-Fr 12:00-15:00, 18:00-23:00; Sa-Su 12:00-23:00", "outdoor_seating": "no", "phone": "+55 12 3923 2454", "website": "https://albadah.com.br/"}}, {"type": "way", "id": 684784769, "nodes": [6416249051, 6416249052, 6416249053, 6416249054, 6416249055, 6416249056, 6416249051], "tags": {"addr:city": "S\u00e3o Jos\u00e9 dos Campos", "addr:housenumber": "265", "addr:postcode": "12243-030", "addr:street": "Rua Justino Cobra", "addr:suburb": "Vila Ema", "amenity": "restaurant", "building": "yes", "contact:facebook": "https://www.facebook.com/espaconandakumaradas", "cuisine": "indian", "diet:lacto_vegetarian": "only", "diet:vegan": "yes", "diet:vegetarian": "only", "name": "Krsna", "phone": "+55 12 3911 3784"}}, {"type": "way", "id": 684798167, "nodes": [6416331024, 6416331025, 6416331026, 6416331027, 6416331028, 6416331024], "tags": {"addr:city": "S\u00e3o Jos\u00e9 dos Campos", "addr:housenumber": "979", "addr:postcode": "12243-260", "addr:street": "Avenida Heitor Villa Lobos", "addr:suburb": "Vila Ema", "amenity": "pub", "building": "yes", "check_date": "2023-04-16", "contact:facebook": "https://www.facebook.com/VillaEmaBarChopperia/", "name": "Villa Ema Bar & Chopperia", "opening_hours": "Tu-Fr 17:00-01:00; Sa 11:00-01:00; Su 11:00-22:00", "outdoor_seating": "yes", "phone": "+55 12 3911 5865"}}, {"type": "way", "id": 684798175, "nodes": [6416331041, 6416331051, 6416331042, 9678622289, 9678622290, 6416331041], "tags": {"addr:housenumber": "43", "addr:street": "Rua Madre Paula de S\u00e3o Jos\u00e9", "addr:suburb": "Vila Ema", "amenity": "cafe", "building": "retail", "building:levels": "1", "contact:facebook": "https://www.facebook.com/duckbillcookiescoffee/", "contact:instagram": "https://www.instagram.com/duckbill.oficial/", "contact:twitter": "https://twitter.com/DuckbillOficial", "email": "contato@duckbillcookies.com.br", "name": "Duckbill", "phone": "+55 12 98858 1234", "website": "http://www.duckbillcookies.com.br/"}}, {"type": "way", "id": 684817955, "nodes": [6416509198, 6591461196, 6416509200, 6416509201, 6416509198], "tags": {"addr:city": "S\u00e3o Jos\u00e9 dos Campos", "addr:housenumber": "452", "addr:postcode": "12245-011", "addr:street": "Avenida Doutor Adhemar de Barros", "addr:suburb": "Jardim S\u00e3o Dimas", "amenity": "fast_food", "building": "commercial", "building:levels": "2", "contact:facebook": "https://www.facebook.com/theburgerboxtogo", "contact:phone": "+55 12 98898 5001", "cuisine": "burger", "delivery": "yes", "drive_through": "no", "name": "The Burguer Box", "opening_hours": "Su-Th 18:33-23:04; Fr-Sa 18:33-00:04", "phone": "+55 12 3028 5000", "website": "https://theburgerbox.com.br/"}}, {"type": "way", "id": 684817956, "nodes": [3123507230, 6416509198, 6416509201, 3123507231, 3123507230], "tags": {"addr:city": "S\u00e3o Jos\u00e9 dos Campos", "addr:housenumber": "444", "addr:postcode": "12245-011", "addr:street": "Avenida Doutor Adhemar de Barros", "amenity": "fast_food", "building": "commercial", "building:levels": "2", "check_date": "2023-03-28", "contact:facebook": "https://www.facebook.com/natureba.acai/", "cuisine": "sandwich;regional", "delivery": "yes", "drive_through": "no", "name": "Natureba", "note": "H\u00e1 diverg\u00eancia entre o bairro fornecido no site da empresa (\"Vila Adyana\") e no site dos correios (\"Jardim S\u00e3o Dimas\").", "phone": "+55 12 3207 9411", "website": "https://www.naturebasucos.com.br"}}, {"type": "way", "id": 685085731, "nodes": [6419291885, 6419291886, 6419291887, 6419291888, 6419291885], "tags": {"addr:city": "S\u00e3o Jos\u00e9 dos Campos", "addr:housenumber": "77", "addr:postcode": "12243-360", "addr:street": "Rua Serimbura", "addr:suburb": "Vila Guaianazes", "amenity": "fast_food", "building": "commercial", "building:levels": "1", "contact:instagram": "https://www.instagram.com/stargeekbg", "cuisine": "burger", "description": "Hamburgueria com in\u00fameros jogos de tabuleiro.", "diet:vegetarian": "yes", "drive_through": "no", "name": "Star Geek", "opening_hours": "We 17:00-23:00; Th-Sa 17:00-00:00", "phone": "+55 12 3923 3979"}}, {"type": "way", "id": 685426024, "nodes": [6423242303, 6423242304, 6423242305, 6423242306, 10087830595, 6423242303], "tags": {"addr:city": "S\u00e3o Jos\u00e9 dos Campos", "addr:housenumber": "274", "addr:postcode": "12243-001", "addr:street": "Avenida Nove de Julho", "addr:suburb": "Jardim Apolo", "amenity": "cafe", "building": "yes", "contact:email": "contato@baristassjc.com.br", "contact:facebook": "https://www.facebook.com/baristassjc", "contact:phone": "+55 12 3943-2208", "contact:website": "https://baristassjc.com.br", "cuisine": "coffee_shop", "diet:vegan": "yes", "diet:vegetarian": "yes", "name": "BARISTA'S", "opening_hours": "Mo-Su 08:00-20:00"}}, {"type": "way", "id": 686509618, "nodes": [6434745129, 6434745140, 6434745130, 6434745131, 6434745132, 6434745133, 6434745134, 6434745129], "tags": {"amenity": "restaurant", "building": "retail", "cuisine": "burger", "delivery": "yes", "name": "Frango & Rango"}}, {"type": "way", "id": 686874549, "nodes": [6438600725, 6438600726, 6438600727, 6438600728, 6438600729, 6438600730, 6438600731, 6438600732, 6438600725], "tags": {"addr:city": "S\u00e3o Jos\u00e9 dos Campos", "addr:housenumber": "755", "addr:postcode": "12242-800", "addr:street": "Avenida Bar\u00e3o do Rio Branco", "addr:suburb": "Jardim Esplanada II", "amenity": "fast_food", "building": "yes", "contact:facebook": "https://www.facebook.com/ContainerBurger", "contact:instagram": "https://www.instagram.com/containerburger/", "cuisine": "burger", "email": "contato@containerburger.com.br", "name": "Container Burger", "opening_hours": "Mo-Th 11:30-23:00; Fr-Sa 11:30-00:00; Su 11:30-23:00", "phone": "+55 12 3346 4677", "website": "http://containerburger.com.br/"}}, {"type": "way", "id": 686874568, "nodes": [6438601233, 6438601234, 6438601235, 6438601236, 6438601237, 6438601238, 6438601239, 6438601240, 6438601233], "tags": {"addr:city": "S\u00e3o Jos\u00e9 dos Campos", "addr:housenumber": "651", "addr:postcode": "12242-800", "addr:street": "Avenida Bar\u00e3o do Rio Branco", "addr:suburb": "Jardim Esplanada II", "amenity": "pub", "building": "yes", "contact:facebook": "https://www.facebook.com/outsidetheboxsjc/", "contact:instagram": "https://www.instagram.com/outsidetheboxsjc/", "email": "outsidetheboxsjc@gmail.com", "name": "Outside The Box", "opening_hours": "Mo-We 18:00-22:00; Th-Fr 18:00-24:00; Sa 18:00-01:00", "phone": "+55 12 3901 8392"}}, {"type": "way", "id": 686874602, "nodes": [6438601534, 6438601535, 6461921642, 6438601536, 6438601537, 6770681898, 6438601534], "tags": {"addr:city": "S\u00e3o Jos\u00e9 dos Campos", "addr:housenumber": "499", "addr:postcode": "12242-800", "addr:street": "Avenida Bar\u00e3o do Rio Branco", "addr:suburb": "Jardim Esplanada II", "amenity": "ice_cream", "building": "yes", "contact:facebook": "https://www.facebook.com/moahacai", "contact:instagram": "https://www.instagram.com/moahacai/", "delivery": "yes", "name": "Moah A\u00e7a\u00ed", "opening_hours": "Mo-Fr 12:00-21:00; Sa-Su,PH 13:00-21:00", "outdoor_seating": "yes", "phone": "+55 12 3922 8740"}}, {"type": "way", "id": 691328753, "nodes": [6487014763, 6487014764, 3009776825, 6487014765, 6487014763], "tags": {"amenity": "restaurant", "building": "yes", "name": "Churraskilo"}}, {"type": "way", "id": 700019710, "nodes": [6573694044, 6573694045, 6573694046, 6573694047, 6573694048, 6573694049, 6573694050, 6573694051, 6573694052, 6573694053, 6573694054, 6573694055, 6573694056, 6573694057, 6573694058, 6573694059, 6573694060, 6573694061, 6573694062, 6573694063, 6573694064, 6573694065, 6573694066, 6573694067, 6573694068, 6573694069, 6573694070, 6573694044], "tags": {"addr:city": "S\u00e3o Jos\u00e9 dos Campos", "addr:housenumber": "227", "addr:postcode": "12230-000", "addr:street": "Avenida Andr\u00f4meda", "addr:suburb": "Jardim Sat\u00e9lite", "amenity": "restaurant", "building": "yes", "contact:facebook": "https://www.facebook.com/Churrascaria-Nova-Brescia-Vale-Sul-Shopping-136635969819808/", "cuisine": "steak_house", "email": "contato.sjc@novabrescia.com", "name": "Nova Brescia", "opening_hours": "Mo-Fr 11:30-15:00,18:30-22:30; Sa 11:30-16:00,18:30-22:30; Su 11:30-16:30", "phone": "+55 12 3931 1277"}}, {"type": "way", "id": 721429271, "nodes": [6768130108, 6768130109, 6768130110, 6768130111, 6768130108], "tags": {"addr:city": "S\u00e3o Jos\u00e9 dos Campos", "addr:housenumber": "735", "addr:postcode": "12242-800", "addr:street": "Avenida Bar\u00e3o do Rio Branco", "addr:suburb": "Jardim Esplanada II", "amenity": "restaurant", "building": "yes", "contact:facebook": "https://www.facebook.com/MauaRestauranteSJC/", "cuisine": "regional;pizza", "name": "Mau\u00e1", "opening_hours": "Mo 11:30-15:00; Tu-Sa 11:30-15:00,18:30-23:00; Su 18:30-23:00", "phone": "+55 12 3207 0451"}}, {"type": "way", "id": 730333397, "nodes": [5726284613, 6841994491, 6841994492, 6841994493, 6841994494, 6841994495, 5726284613], "tags": {"addr:city": "S\u00e3o Jos\u00e9 dos Campos", "addr:housenumber": "49", "addr:postcode": "12243-570", "addr:street": "Pra\u00e7a Pedro Am\u00e9rico", "addr:suburb": "Jardim Maring\u00e1", "amenity": "pub", "building": "yes", "contact:facebook": "https://www.facebook.com/fcrazyboss", "contact:instagram": "https://www.instagram.com/fcrazyboss", "contact:youtube": "https://www.youtube.com/channel/UCJO10j566xjUiFbH219FknQ", "email": "fcrazyboss@gmail.com", "name": "Fucking Crazy Boss", "opening_hours": "Tu-Th 18:00-00:00; Fr 18:00-01:00; Sa 13:00-01:00; Su 13:00-23:00", "phone": "+55 12 3308 3349", "website": "https://fcboss.com.br"}}, {"type": "way", "id": 733436411, "nodes": [6868614195, 6868614196, 6868614197, 6168750339, 6868614195], "tags": {"addr:city": "S\u00e3o Jos\u00e9 dos Campos", "addr:housenumber": "244", "addr:postcode": "12245-642", "addr:street": "Avenida Doutor N\u00e9lson D'\u00c1vila", "addr:suburb": "Centro", "air_conditioning": "yes", "amenity": "restaurant", "building": "yes", "cuisine": "italian;pizza;cafeteria;fast_food", "name": "Bocattino Box - SJC/Centro", "opening_hours": "Mo-Sa 08:00-18:00"}}, {"type": "way", "id": 736647293, "nodes": [6896970892, 6896970893, 6896970894, 6896970895, 6896970896, 6896970897, 6896970898, 6896970899, 6896970892], "tags": {"addr:city": "S\u00e3o Jos\u00e9 dos Campos", "addr:housenumber": "500", "addr:postcode": "12242-012", "addr:street": "Avenida Florestan Fernandes", "addr:suburb": "Jardim Serimbura", "amenity": "fast_food", "building": "yes", "contact:facebook": "https://www.facebook.com/jeronimoburger/", "contact:instagram": "https://www.instagram.com/jeronimoburger/", "cuisine": "burger", "delivery": "yes", "drive_through": "yes", "name": "Jeronimo Track", "opening_hours": "Mo-Su 11:30-23:00", "operator": "Jeronimo", "payment:alelo_refei\u00e7\u00e3o": "yes", "payment:american_express": "yes", "payment:cash": "yes", "payment:diners_club": "yes", "payment:elo": "yes", "payment:hipercard": "yes", "payment:maestro": "yes", "payment:mastercard": "yes", "payment:sodexo": "yes", "payment:visa": "yes", "phone": "+55 12 3942 1365", "website": "https://jeronimoburger.com.br/"}}, {"type": "way", "id": 740767948, "nodes": [6618132926, 6935362836, 6935362837, 6935362838, 6935362841, 6618132926], "tags": {"addr:city": "S\u00e3o Jos\u00e9 dos Campos", "addr:housenumber": "2585", "addr:postcode": "12242-000", "addr:street": "Avenida S\u00e3o Jo\u00e3o", "addr:suburb": "Jardim das Colinas", "amenity": "restaurant", "brand": "Madero", "brand:wikidata": "Q115206711", "building": "yes", "capacity": "56", "contact:facebook": "https://www.facebook.com/maderobrasil/", "contact:instagram": "https://www.instagram.com/maderobrasil/", "cuisine": "burger", "name": "Madero", "opening_hours": "Mo-Su 11:30-23:00", "phone": "+55 12 3308 5178", "website": "https://www.restaurantemadero.com.br"}}, {"type": "way", "id": 763481695, "nodes": [7134285756, 7134285757, 7134285758, 7134285759, 7134285756], "tags": {"amenity": "pub", "building": "yes", "building:levels": "1", "name": "Prainha"}}, {"type": "way", "id": 765274422, "nodes": [5021214203, 7147612126, 7147612127, 7147612128, 7147612129, 7147612130, 7147612131, 7147612132, 7147612133, 7147612134, 7147612135, 5021214203], "tags": {"addr:city": "S\u00e3o Jos\u00e9 dos Campos", "addr:housenumber": "654", "addr:postcode": "12231-675", "addr:street": "Avenida Cidade Jardim", "addr:suburb": "Jardim Sat\u00e9lite", "amenity": "restaurant", "building": "yes", "cuisine": "regional;pizza;caldos", "name": "Demoiselle Pizzaria e Choperia", "opening_hours": "Mo-Su 11:00-15:00, Mo-Su 18:00-00:00", "outdoor_seating": "no", "smoking": "outside"}}, {"type": "way", "id": 769725447, "nodes": [7184990352, 7184990353, 7184990354, 7184990355, 7184990352], "tags": {"amenity": "cafe", "building": "detached", "building:levels": "1", "cuisine": "sandwich", "height": "2", "name": "Bentevi", "wheelchair": "limited"}}, {"type": "way", "id": 799290428, "nodes": [7475350813, 6019864635, 6019864634, 7475350814, 7475350813], "tags": {"amenity": "pub", "building": "yes"}}, {"type": "way", "id": 808069494, "nodes": [7556382084, 7556421185, 7556421186, 7556421187, 7556382084], "tags": {"amenity": "restaurant", "building": "yes", "check_date": "2023-04-16", "cuisine": "chinese", "name": "Restaurante Chinese House"}}, {"type": "way", "id": 823362256, "nodes": [7686985069, 7686985070, 7686985071, 7686985072, 7686985069], "tags": {"amenity": "restaurant", "building": "yes", "cuisine": "steak_house", "name": "Churrascaria S\u00e3o Jodas Tadeu"}}, {"type": "way", "id": 823362262, "nodes": [7686998822, 7686998823, 7686998824, 7686998825, 7686998822], "tags": {"amenity": "restaurant", "building": "yes", "cuisine": "steak_house", "name": "Prime Meat Grill"}}, {"type": "way", "id": 827713967, "nodes": [7727265955, 7727265956, 7727265957, 7727265958, 7727265955], "tags": {"addr:street": "Avenida Doutor Jo\u00e3o Batista de Souza Soares", "amenity": "fast_food", "brand": "Subway", "brand:wikidata": "Q244457", "brand:wikipedia": "en:Subway (restaurant)", "building": "yes", "cuisine": "sandwich", "name": "Subway", "takeaway": "yes"}}, {"type": "way", "id": 827932890, "nodes": [7729212719, 7729212720, 7729212721, 7729212722, 7729212719], "tags": {"addr:housenumber": "381", "addr:street": "Rua Valpara\u00edso", "amenity": "restaurant", "building": "yes", "contact:mobile": "+55 12 999187 6534", "cuisine": "regional;pizza", "name": "Restaurante e Pizzaria Artezanal", "phone": "+55 12 3931 3253"}}, {"type": "way", "id": 827955241, "nodes": [7729446553, 7729446554, 7729446555, 7729446556, 7729446557, 7729446558, 7729446559, 7729446553], "tags": {"addr:street": "Rodovia dos Tamoios", "amenity": "restaurant", "building": "yes", "cuisine": "steak_house", "name": "S\u00e3o Bento Churrascaria e Eventos"}}, {"type": "way", "id": 860499798, "nodes": [8019814852, 8019814849, 8019814850, 8019814851, 8019814852], "tags": {"addr:city": "S\u00e3o Jos\u00e9 Dos Campos", "addr:housenumber": "554", "addr:postcode": "12246-856", "addr:street": "Avenida Comendador Vicente de Paulo Penido", "addr:suburb": "Parque Residencial Aquarius", "amenity": "restaurant", "building": "yes", "cuisine": "pizza", "delivery": "yes", "name": "Republic CA", "takeaway": "yes"}}, {"type": "way", "id": 878433599, "nodes": [8172075772, 8172075769, 8172075770, 8172075771, 8172075772], "tags": {"addr:housenumber": "196", "addr:street": "Rua An\u00e1polis", "amenity": "restaurant", "building": "yes", "contact:whatsapp": "+55 12 98712 1020", "cuisine": "brazilian", "delivery": "yes", "name": "Feijoada da V\u00f3 Alda", "opening_hours": "We 10:00-15:00; Sa-Su 10:00-15:00", "phone": "+55 12 3028 4453", "website": "https://www.feijoadadav\u00f3alda.com/"}}, {"type": "way", "id": 878433604, "nodes": [8172075797, 8172075794, 8172075795, 8172075796, 8172075797], "tags": {"amenity": "restaurant", "building": "yes", "name": "Restaurante Barril"}}, {"type": "way", "id": 912618506, "nodes": [8477765761, 8477765762, 8477765763, 8477765764, 6157350350, 6157350349, 8477765761], "tags": {"amenity": "restaurant", "building": "yes", "building:levels": "2", "cuisine": "steak_house", "name": "Churrascaria Aquarius do Vale"}}, {"type": "way", "id": 912640813, "nodes": [8477986227, 8477986228, 8477986229, 8477986230, 8477986227], "tags": {"amenity": "fast_food", "brand": "Subway", "brand:wikidata": "Q244457", "brand:wikipedia": "en:Subway (restaurant)", "building": "yes", "cuisine": "sandwich", "name": "Subway", "takeaway": "yes"}}, {"type": "way", "id": 923234725, "nodes": [8570352290, 8570352291, 8570352292, 8570352293, 8570352290], "tags": {"addr:street": "Rodovia Monteiro Lobato", "amenity": "restaurant", "building": "yes", "cuisine": "regional", "name": "Rancho Feij\u00e3o Caipira"}}, {"type": "way", "id": 923888875, "nodes": [8576198871, 8576198864, 8576198865, 8576198866, 8576198867, 8576198868, 8576198869, 8576198870, 8576198871], "tags": {"addr:housenumber": "606", "addr:street": "Avenida Engenheiro Sebasti\u00e3o Gualberto", "addr:suburb": "Vila Maria", "amenity": "fast_food", "building": "yes", "contact:mobile": "+ 55 12 3923 1839", "contact:phone": "+55 12 3922  6110", "cuisine": "burger", "delivery": "yes", "drive_through": "no", "email": "contato@baitaburger.com.br", "name": "Baitaburger-Tche", "phone": "+55 12 3923 1839", "start_date": "1982", "website": "https://baitaburger.com.br/"}}, {"type": "way", "id": 924586633, "nodes": [8581145870, 8581145871, 8581145872, 8581145873, 8581145874, 8581145870], "tags": {"addr:housenumber": "6812", "addr:street": "Avenida Presidente Juscelino Kubitschek", "amenity": "fast_food", "building": "yes", "name": "Chiquinho"}}, {"type": "way", "id": 925393413, "nodes": [8588298884, 8588298885, 8588298886, 8588298887, 8588298888, 8588298884], "tags": {"amenity": "restaurant", "building": "yes", "cuisine": "regional", "layer": "1", "name": "sal\u00e3o de festas"}}, {"type": "way", "id": 953811712, "nodes": [8828071776, 8828114828, 8828071777, 8828071778, 8828071779, 8828071776], "tags": {"amenity": "bar", "building": "yes"}}, {"type": "way", "id": 976724659, "nodes": [9038428422, 9038428423, 9038428424, 9038428425, 9038428422], "tags": {"addr:city": "S\u00e3o Jos\u00e9 dos Campos", "addr:street": "Pra\u00e7a Duque de Caxias", "addr:suburb": "Jardim Paulista", "amenity": "restaurant", "building": "yes", "building:levels": "2", "name": "Ren\u00ea Lanches"}}, {"type": "way", "id": 976724663, "nodes": [9038428443, 9038428444, 9038428445, 9038428446, 9038428447, 9038428448, 9038428449, 9038428450, 9038428443], "tags": {"addr:city": "S\u00e3o Jos\u00e9 dos Campos", "addr:street": "Pra\u00e7a Duque de Caxias", "addr:suburb": "Jardim Paulista", "amenity": "restaurant", "building": "yes", "name": "M & G Cantina Paulista"}}, {"type": "way", "id": 977069000, "nodes": [9041773317, 9041773318, 9041773319, 9041773320, 9041773317], "tags": {"addr:city": "S\u00e3o Jos\u00e9 dos Campos", "addr:street": "Rua Domingos Campoy Bernal", "addr:suburb": "Jardim Paulista", "amenity": "restaurant", "building": "yes", "name": "Cachorro Quente do Alem\u00e3o"}}, {"type": "way", "id": 978736950, "nodes": [9056162436, 9056162437, 9056162438, 9056162439, 9056162440, 9056162436], "tags": {"addr:city": "S\u00e3o Jos\u00e9 dos Campos", "addr:housenumber": "79", "addr:postcode": "12221-300", "addr:street": "Rua Enfermeiras", "addr:suburb": "Jardim Valpara\u00edba", "amenity": "pub", "building": "yes", "name": "Bar do Barba"}}, {"type": "way", "id": 1026253232, "nodes": [9461882489, 9461882490, 9461882491, 9461882492, 9461882493, 9461882489], "tags": {"addr:city": "S\u00e3o Jos\u00e9 dos Campos", "addr:postcode": "12233-596", "addr:street": "Rua Campo Belo", "amenity": "restaurant", "building": "yes", "cuisine": "brazilian;crepe", "name": "Crepe Supremo", "phone": "(12) 3916-1068;(12) 98843-5708"}}, {"type": "way", "id": 1084686712, "nodes": [9939581139, 9939581140, 9939581141, 9939581142, 9939581139], "tags": {"addr:city": "S\u00e3o Jos\u00e9 dos Campos", "addr:housenumber": "1851", "addr:postcode": "12211-620", "addr:street": "Avenida Princesa Isabel", "addr:suburb": "Santana", "amenity": "ice_cream", "building": "yes", "name": "Sorvetes Fl\u00f3rida", "phone": "+55 12 3302-3188"}}, {"type": "way", "id": 1088011090, "nodes": [9968701187, 9968701188, 9968701189, 9968701190, 9968701187], "tags": {"addr:city": "S\u00e3o Jos\u00e9 dos Campos", "addr:housenumber": "46", "addr:postcode": "12212-730", "addr:street": "Pra\u00e7a Monsenhor Luiz Gonzaga Alves Cavalheiro", "addr:suburb": "Santana", "amenity": "fast_food", "building": "yes", "cuisine": "a\u00e7a\u00ed", "name": "Skina do A\u00e7a\u00ed", "opening_hours": "Mo-Sa 09:00-23:00", "phone": "+55 12 99672-0496", "website": "https://skinadoacai.com.br"}}, {"type": "way", "id": 1088011537, "nodes": [9968704078, 9968701187, 9968701188, 9968704080, 9968704081, 9968704078], "tags": {"addr:city": "S\u00e3o Jos\u00e9 dos Campos", "addr:housenumber": "42", "addr:postcode": "12212-730", "addr:street": "Pra\u00e7a Monsenhor Luiz Gonzaga Alves Cavalheiro", "addr:suburb": "Santana", "amenity": "fast_food", "building": "yes", "cuisine": "a\u00e7a\u00ed", "name": "Ilha do A\u00e7a\u00ed", "opening_hours": "Mo-Sa 09:00-23:45", "phone": "+55 12 3921-0626"}}, {"type": "way", "id": 1102392139, "nodes": [6353491702, 10087413489, 6353491692, 6353491691, 6353491702], "tags": {"amenity": "fast_food", "building": "yes", "name": "Renatinho Lanches", "phone": "+55 12 98276 5850"}}, {"type": "way", "id": 1102433864, "nodes": [6190865615, 6190865620, 10087830534, 10087830535, 6190865615], "tags": {"amenity": "fast_food", "building": "yes", "name": "Salgados Maravilha"}}, {"type": "way", "id": 1102433867, "nodes": [10087830555, 10087830556, 10087830557, 10087830558, 10087830555], "tags": {"amenity": "restaurant", "name": "Sheriff"}}, {"type": "way", "id": 1102433873, "nodes": [10087830587, 10087830588, 4936307029, 4936307028, 10087830589, 10087830590, 3123507310, 3123507311, 10087830587], "tags": {"amenity": "restaurant", "building": "yes", "cuisine": "pizza", "name": "Forneria Romana"}}, {"type": "way", "id": 1102433875, "nodes": [10087830595, 10087830596, 10087830597, 10087830598, 6423242306, 10087830595], "tags": {"amenity": "restaurant", "building": "yes", "name": "Tuttis Batata"}}, {"type": "way", "id": 1134677394, "nodes": [10577967269, 10577967270, 10577967271, 10577967272, 10577967269], "tags": {"amenity": "restaurant", "building": "yes"}}, {"type": "way", "id": 1177916005, "nodes": [10942378607, 10942378608, 10942378609, 10942378610, 10942378607], "tags": {"amenity": "pub", "building": "yes", "name": "Caminho da Ro\u00e7a - Putim"}}, {"type": "relation", "id": 4195079, "members": [{"type": "way", "ref": 310168055, "role": "outer"}, {"type": "way", "ref": 310168056, "role": "outer"}, {"type": "way", "ref": 312797983, "role": "outer"}], "tags": {"amenity": "restaurant", "building": "yes", "name": "Rancho", "type": "multipolygon"}}, {"type": "relation", "id": 9991576, "members": [{"type": "way", "ref": 638633403, "role": "outer"}, {"type": "way", "ref": 638633404, "role": "outer"}, {"type": "way", "ref": 638633405, "role": "outer"}], "tags": {"addr:city": "S\u00e3o Jos\u00e9 dos Campos", "addr:housenumber": "841", "addr:postcode": "12243-260", "addr:street": "Avenida Heitor Villa Lobos", "addr:suburb": "Vila Ema", "amenity": "restaurant", "building": "yes", "cuisine": "italian", "email": "atendimento@vlobos.com.br", "fax": "+55 12 3921 9061", "name": "Villa Lobos Espa\u00e7o Gastron\u00f4mico", "opening_hours": "Tu-Fr 18:30-23:00; Sa 12:00-15:00,18:30-23:00; Su 12:00-15:00", "phone": "+55 12 3922 0505", "type": "multipolygon", "website": "http://www.vlobos.com.br"}}, {"type": "relation", "id": 16012152, "members": [{"type": "way", "ref": 280368381, "role": "outer"}, {"type": "way", "ref": 660634909, "role": "outer"}], "tags": {"amenity": "bar", "building": "yes", "name": "Coronel", "type": "multipolygon"}}]}