{"version": 0.6, "generator": "Overpass API 0.7.61.5 4133829e", "osm3s": {"timestamp_osm_base": "2023-09-28T01:18:57Z", "copyright": "The data included in this document is from www.openstreetmap.org. The data is made available under ODbL."}, "elements": [{"type": "node", "id": 915413847, "lat": -22.8269972, "lon": -47.0632169}, {"type": "node", "id": 979976380, "lat": -22.8104486, "lon": -47.0769043, "tags": {"amenity": "pharmacy", "healthcare": "pharmacy", "name": "Companhia das Ervas"}}, {"type": "node", "id": 1143263841, "lat": -22.8829165, "lon": -47.0682782, "tags": {"amenity": "pharmacy", "dispensing": "yes", "healthcare": "pharmacy"}}, {"type": "node", "id": 1143281449, "lat": -22.8227354, "lon": -47.0700358, "tags": {"amenity": "pharmacy", "healthcare": "pharmacy", "name": "Vitoria"}}, {"type": "node", "id": 1143281453, "lat": -22.8347654, "lon": -47.0788463, "tags": {"amenity": "pharmacy", "brand": "Drogasil", "brand:wikidata": "Q5308185", "brand:wikipedia": "pt:Drogasil", "healthcare": "pharmacy", "name": "Drogasil", "wheelchair": "yes"}}, {"type": "node", "id": 1520334844, "lat": -22.8891189, "lon": -47.0658473, "tags": {"amenity": "pharmacy", "brand": "Droga Raia", "brand:wikidata": "Q10357101", "brand:wikipedia": "pt:RaiaDrogasil", "healthcare": "pharmacy", "name": "Droga Raia"}}, {"type": "node", "id": 1548792780, "lat": -22.8848987, "lon": -47.0646511, "tags": {"amenity": "pharmacy", "healthcare": "pharmacy", "name": "Drogaria Beletti"}}, {"type": "node", "id": 1556171260, "lat": -22.8781594, "lon": -46.9673223, "tags": {"amenity": "pharmacy", "name": "Drogaria S\u00e3o Paulo"}}, {"type": "node", "id": 1557585163, "lat": -22.8475132, "lon": -47.1196517}, {"type": "node", "id": 1557585296, "lat": -22.8476835, "lon": -47.1199269}, {"type": "node", "id": 1603738032, "lat": -22.9061665, "lon": -47.0636001, "tags": {"addr:city": "Campinas", "addr:street": "Avenida Doutor Campos Sales", "amenity": "pharmacy", "dispensing": "no", "healthcare": "pharmacy", "name": "Drog\u00e3o Super"}}, {"type": "node", "id": 1603738133, "lat": -22.9059348, "lon": -47.0635732, "tags": {"addr:city": "Campinas", "addr:street": "Avenida Doutor Campos Sales", "amenity": "pharmacy", "dispensing": "no", "healthcare": "pharmacy", "name": "Drogaria Familiar"}}, {"type": "node", "id": 1603738208, "lat": -22.9058603, "lon": -47.0634564, "tags": {"addr:city": "Campinas", "addr:street": "Avenida Doutor Campos Sales", "amenity": "pharmacy", "dispensing": "no", "healthcare": "pharmacy", "name": "Drogaria Campe\u00e3"}}, {"type": "node", "id": 1607085667, "lat": -22.8993238, "lon": -47.0630667}, {"type": "node", "id": 1607420124, "lat": -22.9221461, "lon": -47.1193352, "tags": {"addr:postcode": "13060-904", "addr:street": "Avenida John Boyd Dunlop", "addr:suburb": "Jardim Ipaussurama", "alt_name": "Hospital da PUC-Campinas", "amenity": "hospital", "emergency": "yes", "healthcare": "hospital", "healthcare:speciality": "maternity", "name": "Hospital e Maternidade Celso Pierro", "phone": "+55 19 3343-8600", "website": "http://www.hospitaldapuc-campinas.com.br/", "wikidata": "Q10298567"}}, {"type": "node", "id": 1607435096, "lat": -22.9413195, "lon": -47.121799}, {"type": "node", "id": 1607435097, "lat": -22.940915, "lon": -47.1223301}, {"type": "node", "id": 1607435098, "lat": -22.9410791, "lon": -47.1223615}, {"type": "node", "id": 1607435099, "lat": -22.9406762, "lon": -47.1215549}, {"type": "node", "id": 1607871214, "lat": -22.8992683, "lon": -47.0828677, "tags": {"addr:housenumber": "1226", "addr:street": "Avenida Governador Pedro de Toledo", "amenity": "pharmacy", "healthcare": "pharmacy", "name": "drogaria leal", "wheelchair": "no"}}, {"type": "node", "id": 1608009333, "lat": -22.9186946, "lon": -47.1095418, "tags": {"amenity": "pharmacy", "brand": "Drogasil", "brand:wikidata": "Q5308185", "healthcare": "pharmacy", "name": "Drogasil", "name:pt": "Drogasil", "wheelchair": "yes"}}, {"type": "node", "id": 1609070077, "lat": -22.9199164, "lon": -47.1129478, "tags": {"addr:street": "Rua Jos\u00e9 Rosolen", "amenity": "veterinary", "name": "Doce Vida de Cachorro"}}, {"type": "node", "id": 1609517654, "lat": -22.9004735, "lon": -47.0637489, "tags": {"addr:city": "Campinas", "amenity": "pharmacy", "healthcare": "pharmacy", "name": "Farma Futura"}}, {"type": "node", "id": 1611055696, "lat": -22.8924705, "lon": -47.0775933, "tags": {"amenity": "pharmacy", "healthcare": "pharmacy", "name": "Farm\u00e1cia de manipula\u00e7\u00e3o botica artesanal"}}, {"type": "node", "id": 1616184097, "lat": -22.9028059, "lon": -47.0700406}, {"type": "node", "id": 1622921600, "lat": -22.8919814, "lon": -47.0636787, "tags": {"addr:street": "Avenida Bar\u00e3o de Itapura", "amenity": "pharmacy", "healthcare": "pharmacy", "name": "Farmaxima"}}, {"type": "node", "id": 1622921656, "lat": -22.8946054, "lon": -47.0620713, "tags": {"amenity": "dentist", "healthcare": "dentist", "name": "Oralcamp"}}, {"type": "node", "id": 1637936795, "lat": -22.8940846, "lon": -47.0609531, "tags": {"amenity": "pharmacy", "brand": "Drogaria S\u00e3o Paulo", "brand:wikidata": "Q5308184", "brand:wikipedia": "en:Grupo DPSP", "dispensing": "yes", "healthcare": "pharmacy", "name": "Drogaria S\u00e3o Paulo"}}, {"type": "node", "id": 1637936868, "lat": -22.898481, "lon": -47.0628133, "tags": {"amenity": "clinic", "healthcare": "clinic", "name": "Franco do Amaral"}}, {"type": "node", "id": 1645056308, "lat": -22.9044922, "lon": -47.068203, "tags": {"entrance": "yes"}}, {"type": "node", "id": 1647176750, "lat": -22.9021043, "lon": -47.0597589, "tags": {"amenity": "pharmacy", "healthcare": "pharmacy", "name": "Farmaxima"}}, {"type": "node", "id": 1670800170, "lat": -22.901023, "lon": -47.0553735}, {"type": "node", "id": 1670800173, "lat": -22.9011714, "lon": -47.055305}, {"type": "node", "id": 1670800176, "lat": -22.9013041, "lon": -47.0560078}, {"type": "node", "id": 1670800177, "lat": -22.9011777, "lon": -47.0560284}, {"type": "node", "id": 1670800191, "lat": -22.9002113, "lon": -47.0569472}, {"type": "node", "id": 1670800194, "lat": -22.9001924, "lon": -47.0567689}, {"type": "node", "id": 1670800197, "lat": -22.9004766, "lon": -47.0566318}, {"type": "node", "id": 1670800200, "lat": -22.9001545, "lon": -47.0558912}, {"type": "node", "id": 1670800207, "lat": -22.9003945, "lon": -47.0557541}, {"type": "node", "id": 1670800208, "lat": -22.9002366, "lon": -47.055353}, {"type": "node", "id": 1670800210, "lat": -22.9005114, "lon": -47.0551987}, {"type": "node", "id": 1670800212, "lat": -22.9002492, "lon": -47.054657}, {"type": "node", "id": 1670800214, "lat": -22.9008019, "lon": -47.0543656}, {"type": "node", "id": 1670800219, "lat": -22.9011462, "lon": -47.0550993}, {"type": "node", "id": 1670800222, "lat": -22.9011651, "lon": -47.055281}, {"type": "node", "id": 1670800226, "lat": -22.9009851, "lon": -47.0553667}, {"type": "node", "id": 1670800230, "lat": -22.901263, "lon": -47.0563541}, {"type": "node", "id": 1670800285, "lat": -22.8984422, "lon": -47.0525338, "tags": {"addr:street": "Rua Coronel Quirino", "amenity": "pharmacy", "brand": "Drogasil", "brand:wikidata": "Q5308185", "brand:wikipedia": "pt:Drogasil", "healthcare": "pharmacy", "name": "Drogasil", "wheelchair": "yes"}}, {"type": "node", "id": 1700436566, "lat": -22.9017003, "lon": -47.0922916}, {"type": "node", "id": 1700436573, "lat": -22.9014039, "lon": -47.0920311}, {"type": "node", "id": 1700436578, "lat": -22.9015488, "lon": -47.0923716}, {"type": "node", "id": 1700436580, "lat": -22.9015875, "lon": -47.0919487}, {"type": "node", "id": 1704640226, "lat": -22.9076563, "lon": -47.0550069, "tags": {"entrance": "yes"}}, {"type": "node", "id": 1706051636, "lat": -22.9038236, "lon": -47.0692667, "tags": {"amenity": "pharmacy", "brand": "Drogaria S\u00e3o Paulo", "brand:wikidata": "Q5308184", "brand:wikipedia": "en:Grupo DPSP", "healthcare": "pharmacy", "name": "Drogaria S\u00e3o Paulo", "name:pt": "Drogaria S\u00e3o Paulo"}}, {"type": "node", "id": 1712160731, "lat": -22.9031406, "lon": -47.0535656, "tags": {"addr:housenumber": "652", "addr:postcode": "13010-050", "addr:street": "Rua Concei\u00e7\u00e3o", "amenity": "pharmacy", "brand": "Drogaria S\u00e3o Paulo", "brand:wikidata": "Q5308184", "brand:wikipedia": "en:Grupo DPSP", "healthcare": "pharmacy", "name": "Drogaria S\u00e3o Paulo", "opening_hours": "24/7", "phone": "+55 19 32554884", "website": "https://www.drogariasaopaulo.com.br/", "wheelchair": "yes"}}, {"type": "node", "id": 1712160732, "lat": -22.90306, "lon": -47.0533917, "tags": {"amenity": "pharmacy", "brand": "Drogasil", "brand:wikidata": "Q5308185", "brand:wikipedia": "pt:Drogasil", "healthcare": "pharmacy", "name": "Drogasil", "website": "https://www.drogasil.com.br/", "wheelchair": "yes"}}, {"type": "node", "id": 1719982548, "lat": -22.9030683, "lon": -47.0607106, "tags": {"amenity": "pharmacy", "brand": "Droga Raia", "brand:wikidata": "Q10357101", "brand:wikipedia": "pt:RaiaDrogasil", "healthcare": "pharmacy", "name": "Droga Raia", "opening_hours": "24/7"}}, {"type": "node", "id": 1732405945, "lat": -22.8905758, "lon": -47.0771947, "tags": {"addr:city": "Campinas", "addr:housenumber": "1117/1125", "addr:postcode": "13070-711", "addr:street": "Avenida Doutor Alberto Sarmento", "addr:suburb": "Castelo", "amenity": "pharmacy", "dispensing": "no", "healthcare": "pharmacy", "name": "PoupaFarma", "phone": "+55 19 35000705", "website": "https://www.poupafarma.com.br/"}}, {"type": "node", "id": 1732406046, "lat": -22.8902839, "lon": -47.0773806, "tags": {"amenity": "pharmacy", "brand": "Drogasil", "brand:wikidata": "Q5308185", "dispensing": "no", "healthcare": "pharmacy", "name": "Drogasil", "wheelchair": "yes"}}, {"type": "node", "id": 1734559204, "lat": -22.889057, "lon": -47.0612484, "tags": {"addr:housenumber": "1888", "addr:street": "Avenida Bar\u00e3o de Itapura", "amenity": "pharmacy", "brand": "Drogasil", "brand:wikidata": "Q5308185", "brand:wikipedia": "pt:Drogasil", "dispensing": "yes", "healthcare": "pharmacy", "name": "Drogasil", "wheelchair": "yes"}}, {"type": "node", "id": 1734559213, "lat": -22.8885665, "lon": -47.0609142, "tags": {"addr:housenumber": "1934", "addr:street": "Avenida Bar\u00e3o de Itapura", "amenity": "pharmacy", "dispensing": "yes", "healthcare": "pharmacy", "name": "Drog\u00e3o Super"}}, {"type": "node", "id": 1734576355, "lat": -22.8921206, "lon": -47.0596958, "tags": {"addr:housenumber": "1057", "amenity": "dentist", "healthcare": "dentist", "name": "Odontologia RM", "website": "http://www.odontologiarm.com.br/"}}, {"type": "node", "id": 1756560040, "lat": -22.8973473, "lon": -47.0806816, "tags": {"amenity": "pharmacy", "healthcare": "pharmacy", "name": "Farma Plus"}}, {"type": "node", "id": 1756565991, "lat": -22.8998033, "lon": -47.0820012, "tags": {"amenity": "pharmacy", "brand": "Pague Menos", "brand:wikidata": "Q7124466", "brand:wikipedia": "pt:Pague Menos", "healthcare": "pharmacy", "name": "Pague Menos"}}, {"type": "node", "id": 1760445144, "lat": -22.9083335, "lon": -47.0870027, "tags": {"amenity": "pharmacy", "brand": "Drogasil", "brand:wikidata": "Q5308185", "brand:wikipedia": "pt:Drogasil", "healthcare": "pharmacy", "name": "Drogasil", "operator": "Drogasil", "wheelchair": "yes"}}, {"type": "node", "id": 1760464606, "lat": -22.9156069, "lon": -47.1036967, "tags": {"amenity": "pharmacy", "healthcare": "pharmacy", "name": "Farmaxima"}}, {"type": "node", "id": 1760464607, "lat": -22.9183837, "lon": -47.1080312, "tags": {"amenity": "clinic", "emergency": "no", "healthcare": "clinic", "name": "Posto de Sa\u00fade Noroeste"}}, {"type": "node", "id": 1760490095, "lat": -22.918527, "lon": -47.1089726, "tags": {"amenity": "pharmacy", "healthcare": "pharmacy", "name": "Droga Marques"}}, {"type": "node", "id": 1799695179, "lat": -22.8240391, "lon": -47.0349651, "tags": {"amenity": "pharmacy", "healthcare": "pharmacy", "name": "Farmaxima"}}, {"type": "node", "id": 1833666083, "lat": -22.9043872, "lon": -47.0689585, "tags": {"entrance": "yes"}}, {"type": "node", "id": 2012313400, "lat": -22.9196498, "lon": -47.1040642, "tags": {"amenity": "pharmacy", "healthcare": "pharmacy", "name": "Medfarma"}}, {"type": "node", "id": 2208718064, "lat": -22.8080942, "lon": -47.064249, "tags": {"amenity": "hospital", "healthcare": "hospital", "name": "Centro Infantil Boldrini", "website": "http://www.boldrini.org.br/"}}, {"type": "node", "id": 2208722717, "lat": -22.8068349, "lon": -47.0774852, "tags": {"amenity": "veterinary"}}, {"type": "node", "id": 2354979136, "lat": -22.8245485, "lon": -47.0355204, "tags": {"amenity": "pharmacy", "healthcare": "pharmacy"}}, {"type": "node", "id": 2596047154, "lat": -23.0381217, "lon": -47.1300678}, {"type": "node", "id": 2623061788, "lat": -22.8255565, "lon": -47.065822}, {"type": "node", "id": 2623061791, "lat": -22.8269148, "lon": -47.0648496}, {"type": "node", "id": 2623061792, "lat": -22.827102, "lon": -47.0652954}, {"type": "node", "id": 2663261484, "lat": -22.8709382, "lon": -46.9661451, "tags": {"amenity": "veterinary", "name": "Animaleto"}}, {"type": "node", "id": 2800344793, "lat": -22.8783214, "lon": -47.0441444, "tags": {"addr:city": "Campinas", "addr:housenumber": "1318", "addr:postcode": "13076-000", "addr:street": "Avenida Nossa Senhora de F\u00e1tima", "amenity": "pharmacy", "brand": "Drogasil", "brand:wikidata": "Q5308185", "brand:wikipedia": "pt:Drogasil", "healthcare": "pharmacy", "name": "Drogasil", "wheelchair": "yes"}}, {"type": "node", "id": 2800346733, "lat": -22.8782596, "lon": -47.0445548, "tags": {"addr:city": "Campinas", "addr:housenumber": "1287", "addr:postcode": "13076-000", "addr:street": "Avenida Nossa Senhora de F\u00e1tima", "amenity": "pharmacy", "brand": "Drogaria S\u00e3o Paulo", "brand:wikidata": "Q5308184", "brand:wikipedia": "en:Grupo DPSP", "healthcare": "pharmacy", "name": "Drogaria S\u00e3o Paulo", "phone": "+55 19 3295-9058"}}, {"type": "node", "id": 2805083502, "lat": -22.8789329, "lon": -47.0363191, "tags": {"addr:city": "Campinas", "addr:street": "Avenida Palmital", "amenity": "pharmacy", "healthcare": "pharmacy", "name": "Drogaria Tibiri\u00e7a"}}, {"type": "node", "id": 2886373323, "lat": -22.8480294, "lon": -47.1199637}, {"type": "node", "id": 2886373324, "lat": -22.8480838, "lon": -47.1198833}, {"type": "node", "id": 2886373325, "lat": -22.8480873, "lon": -47.1194664}, {"type": "node", "id": 2886373326, "lat": -22.8474749, "lon": -47.1194037}, {"type": "node", "id": 2892304293, "lat": -22.8635103, "lon": -47.1535267}, {"type": "node", "id": 2892304294, "lat": -22.8636684, "lon": -47.153186}, {"type": "node", "id": 2892304295, "lat": -22.8636808, "lon": -47.1531619}, {"type": "node", "id": 2892304301, "lat": -22.8631593, "lon": -47.1533657}, {"type": "node", "id": 2892304302, "lat": -22.863142, "lon": -47.1533335}, {"type": "node", "id": 2892304303, "lat": -22.8633249, "lon": -47.1529956}, {"type": "node", "id": 2892304304, "lat": -22.8633546, "lon": -47.1529956}, {"type": "node", "id": 2933355706, "lat": -22.847806, "lon": -47.1199399}, {"type": "node", "id": 2933355707, "lat": -22.8480869, "lon": -47.1195178}, {"type": "node", "id": 3235148359, "lat": -22.9763862, "lon": -47.1402899}, {"type": "node", "id": 3235148360, "lat": -22.9765936, "lon": -47.1400431}, {"type": "node", "id": 3235151161, "lat": -22.9769344, "lon": -47.1405608}, {"type": "node", "id": 3235151162, "lat": -22.9768529, "lon": -47.1406466}, {"type": "node", "id": 3235151163, "lat": -22.9767023, "lon": -47.1405045}, {"type": "node", "id": 3235231481, "lat": -22.962408, "lon": -47.1365013}, {"type": "node", "id": 3235231482, "lat": -22.9618429, "lon": -47.1350354}, {"type": "node", "id": 3235231483, "lat": -22.9629852, "lon": -47.1346217}, {"type": "node", "id": 3235231484, "lat": -22.9632194, "lon": -47.1348788}, {"type": "node", "id": 3235231485, "lat": -22.9633815, "lon": -47.1347591}, {"type": "node", "id": 3235231486, "lat": -22.9636063, "lon": -47.135132}, {"type": "node", "id": 3235231487, "lat": -22.9633972, "lon": -47.1353106}, {"type": "node", "id": 3235231488, "lat": -22.9635787, "lon": -47.1355681}, {"type": "node", "id": 3235235862, "lat": -22.9623937, "lon": -47.1346116}, {"type": "node", "id": 3235235863, "lat": -22.9620573, "lon": -47.1359863}, {"type": "node", "id": 3235235864, "lat": -22.9621833, "lon": -47.1364235}, {"type": "node", "id": 3235235865, "lat": -22.9627562, "lon": -47.136217}, {"type": "node", "id": 3235291544, "lat": -22.9630321, "lon": -47.1345949}, {"type": "node", "id": 3235291545, "lat": -22.9629172, "lon": -47.1345359}, {"type": "node", "id": 3235291546, "lat": -22.9627357, "lon": -47.134674}, {"type": "node", "id": 3235294069, "lat": -22.9624616, "lon": -47.1347303}, {"type": "node", "id": 3235294070, "lat": -22.962574, "lon": -47.1346552}, {"type": "node", "id": 3235294071, "lat": -22.9625517, "lon": -47.1348792}, {"type": "node", "id": 3235294072, "lat": -22.9627913, "lon": -47.1347799}, {"type": "node", "id": 3235294073, "lat": -22.9626073, "lon": -47.1349677}, {"type": "node", "id": 3235294074, "lat": -22.9626517, "lon": -47.134792}, {"type": "node", "id": 3235294075, "lat": -22.9626703, "lon": -47.1349851}, {"type": "node", "id": 3235294076, "lat": -22.9626468, "lon": -47.1349409}, {"type": "node", "id": 3235294077, "lat": -22.9627901, "lon": -47.1348872}, {"type": "node", "id": 3235294078, "lat": -22.962753, "lon": -47.1348269}, {"type": "node", "id": 3235416671, "lat": -22.9649999, "lon": -47.1341389, "tags": {"addr:city": "Campinas", "addr:housenumber": "723", "addr:postcode": "13054105", "addr:street": "Av sua\u00e7una", "addr:suburb": "VILA AEROPORTO", "amenity": "clinic", "healthcare": "clinic", "name": "Odonto Ouro Verde", "phone": "+55 19 3306 2050"}}, {"type": "node", "id": 3243837177, "lat": -22.9623142, "lon": -47.1363484}, {"type": "node", "id": 3243837178, "lat": -22.9621042, "lon": -47.1362867}, {"type": "node", "id": 3243837179, "lat": -22.9621981, "lon": -47.1362089}, {"type": "node", "id": 3243837180, "lat": -22.9619215, "lon": -47.1355303}, {"type": "node", "id": 3243837181, "lat": -22.9621437, "lon": -47.1359166}, {"type": "node", "id": 3243837182, "lat": -22.9618523, "lon": -47.1353211}, {"type": "node", "id": 3243837183, "lat": -22.961961, "lon": -47.1354794}, {"type": "node", "id": 3243837184, "lat": -22.9619684, "lon": -47.1352192}, {"type": "node", "id": 3243837185, "lat": -22.9629069, "lon": -47.1359729}, {"type": "node", "id": 3243837186, "lat": -22.9628797, "lon": -47.1361526}, {"type": "node", "id": 3243837187, "lat": -22.9632996, "lon": -47.1357878}, {"type": "node", "id": 3243837188, "lat": -22.9632699, "lon": -47.1357181}, {"type": "node", "id": 3243837189, "lat": -22.963144, "lon": -47.1359353}, {"type": "node", "id": 3243837190, "lat": -22.9631069, "lon": -47.1358549}, {"type": "node", "id": 3243837191, "lat": -22.9630575, "lon": -47.1359139}, {"type": "node", "id": 3243837192, "lat": -22.9629933, "lon": -47.1359809}, {"type": "node", "id": 3250954372, "lat": -22.8806653, "lon": -47.0885113}, {"type": "node", "id": 3250954373, "lat": -22.881424, "lon": -47.0872676}, {"type": "node", "id": 3250954375, "lat": -22.881709, "lon": -47.0874792}, {"type": "node", "id": 3250954376, "lat": -22.8809234, "lon": -47.0887282}, {"type": "node", "id": 3252971675, "lat": -22.9634614, "lon": -47.1353763}, {"type": "node", "id": 3252971676, "lat": -22.9634392, "lon": -47.1353871}, {"type": "node", "id": 3305131050, "lat": -22.9657708, "lon": -47.132296, "tags": {"addr:city": "Campinas", "addr:street": "Rua Armando Frederico Renganeschi", "amenity": "pharmacy", "healthcare": "pharmacy"}}, {"type": "node", "id": 3305148361, "lat": -22.9763416, "lon": -47.1452323}, {"type": "node", "id": 3305148362, "lat": -22.9764107, "lon": -47.1450982}, {"type": "node", "id": 3305148363, "lat": -22.9765021, "lon": -47.1451706}, {"type": "node", "id": 3305148364, "lat": -22.9764305, "lon": -47.1452913}, {"type": "node", "id": 3306855777, "lat": -22.9668335, "lon": -47.1389335, "tags": {"addr:city": "Campinas", "addr:street": "Avenida Ruy Rodrigues", "amenity": "pharmacy", "healthcare": "pharmacy"}}, {"type": "node", "id": 3407184727, "lat": -22.8253619, "lon": -47.0791997, "tags": {"amenity": "veterinary", "name": "100% Pet"}}, {"type": "node", "id": 3611196771, "lat": -22.8953776, "lon": -47.0603677, "tags": {"amenity": "clinic", "healthcare": "clinic", "name": "Doctor Med Clinic"}}, {"type": "node", "id": 3611196772, "lat": -22.905955, "lon": -47.0553712, "tags": {"amenity": "pharmacy", "brand": "Droga Raia", "brand:wikidata": "Q10357101", "brand:wikipedia": "pt:RaiaDrogasil", "healthcare": "pharmacy", "name": "Droga Raia"}}, {"type": "node", "id": 3611196773, "lat": -22.906748, "lon": -47.0406208, "tags": {"amenity": "pharmacy", "brand": "Drogaria S\u00e3o Paulo", "brand:wikidata": "Q5308184", "brand:wikipedia": "en:Grupo DPSP", "dispensing": "yes", "healthcare": "pharmacy", "name": "Drogaria S\u00e3o Paulo"}}, {"type": "node", "id": 3664805141, "lat": -22.9159972, "lon": -47.0679483}, {"type": "node", "id": 3686278292, "lat": -22.9039177, "lon": -47.0751312, "tags": {"amenity": "dentist", "healthcare": "dentist"}}, {"type": "node", "id": 3699304617, "lat": -22.8890446, "lon": -47.0329326, "tags": {"amenity": "pharmacy", "healthcare": "pharmacy"}}, {"type": "node", "id": 3870155703, "lat": -22.9398062, "lon": -47.1152352}, {"type": "node", "id": 3870155704, "lat": -22.9395172, "lon": -47.1152352}, {"type": "node", "id": 3870155705, "lat": -22.9393714, "lon": -47.1150045}, {"type": "node", "id": 3870155706, "lat": -22.9397173, "lon": -47.1147175}, {"type": "node", "id": 3870155707, "lat": -22.9397469, "lon": -47.1148758}, {"type": "node", "id": 3964391059, "lat": -22.8910786, "lon": -47.0628652, "tags": {"amenity": "pharmacy", "brand": "Droga Raia", "brand:wikidata": "Q10357101", "brand:wikipedia": "pt:RaiaDrogasil", "healthcare": "pharmacy", "name": "Droga Raia", "opening_hours": "24/7"}}, {"type": "node", "id": 4068903157, "lat": -22.9141049, "lon": -47.0646733}, {"type": "node", "id": 4068903158, "lat": -22.9150781, "lon": -47.0651635}, {"type": "node", "id": 4068903159, "lat": -22.9151269, "lon": -47.064513}, {"type": "node", "id": 4068903160, "lat": -22.9145199, "lon": -47.0643622}, {"type": "node", "id": 4068903161, "lat": -22.9145027, "lon": -47.0644239}, {"type": "node", "id": 4068903162, "lat": -22.9143025, "lon": -47.0643636}, {"type": "node", "id": 4068903163, "lat": -22.9142444, "lon": -47.06455}, {"type": "node", "id": 4068903164, "lat": -22.9141506, "lon": -47.0645204}, {"type": "node", "id": 4069975897, "lat": -22.8318025, "lon": -47.0784555}, {"type": "node", "id": 4069975908, "lat": -22.8268329, "lon": -47.07787}, {"type": "node", "id": 4069975909, "lat": -22.8268761, "lon": -47.0781078}, {"type": "node", "id": 4069975910, "lat": -22.8274365, "lon": -47.078353}, {"type": "node", "id": 4069975911, "lat": -22.8273581, "lon": -47.0779256}, {"type": "node", "id": 4072059913, "lat": -22.8943503, "lon": -47.0540225, "tags": {"addr:city": "Campinas", "addr:housenumber": "347", "addr:street": "Avenida Coronel Silva Teles", "addr:suburb": "Cambu\u00ed", "amenity": "pharmacy", "drive_through": "no", "healthcare": "pharmacy", "name": "Ao Pharmaceutico", "website": "http://www.aopharmaceutico.com.br/unidades/campinas/"}}, {"type": "node", "id": 4118977672, "lat": -22.8257898, "lon": -47.0631386}, {"type": "node", "id": 4118977675, "lat": -22.8259465, "lon": -47.0635418}, {"type": "node", "id": 4118977678, "lat": -22.8262718, "lon": -47.0629002}, {"type": "node", "id": 4118977680, "lat": -22.8264839, "lon": -47.0634053}, {"type": "node", "id": 4134545690, "lat": -22.9460184, "lon": -47.0598395, "tags": {"addr:street": "Rua Jer\u00f4nimo Tognolo", "amenity": "hospital", "healthcare": "hospital", "opening_hours": "Mo-Fr 07:00-21:00", "phone": "160"}}, {"type": "node", "id": 4156225289, "lat": -22.9151584, "lon": -47.06456}, {"type": "node", "id": 4205522895, "lat": -22.9027688, "lon": -47.0555611, "tags": {"addr:city": "Campinas", "addr:street": "Rua Padre Vieira", "amenity": "clinic", "healthcare": "clinic", "operator": "Munc\u00edpio de Campinas"}}, {"type": "node", "id": 4205522897, "lat": -22.8981552, "lon": -47.0560044, "tags": {"addr:city": "Campinas", "addr:street": "Avenida J\u00falio de Mesquita", "addr:suburb": "Cambu\u00ed", "amenity": "pharmacy", "brand": "Droga Raia", "brand:wikidata": "Q10357101", "brand:wikipedia": "pt:RaiaDrogasil", "healthcare": "pharmacy", "name": "Droga Raia"}}, {"type": "node", "id": 4205522898, "lat": -22.8987027, "lon": -47.0556658, "tags": {"addr:city": "Campinas", "addr:housenumber": "797", "addr:street": "Avenida J\u00falio de Mesquita", "addr:suburb": "Cambu\u00ed", "amenity": "pharmacy", "brand": "Drogaria S\u00e3o Paulo", "brand:wikidata": "Q5308184", "brand:wikipedia": "en:Grupo DPSP", "healthcare": "pharmacy", "name": "Drogaria S\u00e3o Paulo"}}, {"type": "node", "id": 4205522903, "lat": -22.8989629, "lon": -47.0554809, "tags": {"addr:housenumber": "763", "addr:street": "Avenida J\u00falio de Mesquita", "amenity": "clinic", "healthcare": "clinic", "name": "Insituto de Radiodiagn\u00f3stico Odontol\u00f3gico"}}, {"type": "node", "id": 4205522909, "lat": -22.899109, "lon": -47.055379, "tags": {"addr:city": "Campinas", "addr:housenumber": "741", "addr:street": "Avenida J\u00falio de Mesquita", "addr:suburb": "Cambu\u00ed", "amenity": "pharmacy", "brand": "Pague Menos", "brand:wikidata": "Q7124466", "brand:wikipedia": "pt:Pague Menos", "healthcare": "pharmacy", "name": "Pague Menos"}}, {"type": "node", "id": 4267563210, "lat": -22.8271803, "lon": -47.0780428}, {"type": "node", "id": 4267563211, "lat": -22.8272449, "lon": -47.078394}, {"type": "node", "id": 4299339528, "lat": -22.824402, "lon": -47.080267, "tags": {"addr:street": "Avenida Albino Jos\u00e9 Barbosa de Oliveira", "amenity": "pharmacy", "contact:phone": "19 32035559", "healthcare": "pharmacy", "name": "Drogaria Total"}}, {"type": "node", "id": 4314962481, "lat": -22.8318248, "lon": -47.0782892}, {"type": "node", "id": 4314962482, "lat": -22.8315492, "lon": -47.0782452}, {"type": "node", "id": 4314962483, "lat": -22.831532, "lon": -47.078369}, {"type": "node", "id": 4362094143, "lat": -22.8943204, "lon": -47.0589397, "tags": {"addr:city": "Campinas", "addr:housenumber": "175", "addr:street": "Rua Santa Cruz", "addr:suburb": "Cambu\u00ed", "amenity": "clinic", "healthcare": "clinic", "name": "PC&C"}}, {"type": "node", "id": 4362094148, "lat": -22.8942709, "lon": -47.059338, "tags": {"addr:city": "Campinas", "addr:housenumber": "141", "addr:street": "Rua Santa Cruz", "addr:suburb": "Cambu\u00ed", "amenity": "dentist", "healthcare": "dentist", "name": "Clean Odonto"}}, {"type": "node", "id": 4454952486, "lat": -22.8936314, "lon": -47.0574554, "tags": {"addr:city": "Campinas", "addr:housenumber": "287", "addr:street": "Rua Doutor Ant\u00f4nio da Costa Carvalho", "addr:suburb": "Cambu\u00ed", "amenity": "clinic", "healthcare": "clinic", "name": "Clinical Cambui"}}, {"type": "node", "id": 4454952487, "lat": -22.8933419, "lon": -47.0569545, "tags": {"addr:city": "Campinas", "addr:country": "BR", "addr:housenumber": "44", "addr:place": "Pingo's Vet", "addr:state": "SP", "addr:street": "Rua Hildebrand Siqueira", "addr:suburb": "Cambu\u00ed", "amenity": "veterinary", "name": "Pingo's Vet"}}, {"type": "node", "id": 4520056681, "lat": -23.0385003, "lon": -47.1295582}, {"type": "node", "id": 4520056682, "lat": -23.0383326, "lon": -47.1294229}, {"type": "node", "id": 4520056683, "lat": -23.0378714, "lon": -47.1300077}, {"type": "node", "id": 4520056684, "lat": -23.0380667, "lon": -47.1301418}, {"type": "node", "id": 4523600191, "lat": -22.937258, "lon": -47.0497733, "tags": {"addr:street": "Avenida Washington Luis", "amenity": "pharmacy", "brand": "Drogasil", "brand:wikidata": "Q5308185", "brand:wikipedia": "pt:Drogasil", "healthcare": "pharmacy", "name": "Drogasil", "name:en": "Drogasil", "name:pt": "Drogasil", "wheelchair": "yes"}}, {"type": "node", "id": 4549160277, "lat": -22.8932298, "lon": -47.055417, "tags": {"addr:housenumber": "448", "addr:street": "Rua Santos Dumont", "amenity": "dentist", "healthcare": "dentist", "name": "Azuaga"}}, {"type": "node", "id": 4549160288, "lat": -22.8890066, "lon": -47.0338321, "tags": {"amenity": "clinic", "healthcare": "clinic", "name": "Cl\u00ednica Elo"}}, {"type": "node", "id": 4549175790, "lat": -22.89357, "lon": -47.0566369, "tags": {"amenity": "clinic", "healthcare": "clinic", "name": "Companhia da Vacina"}}, {"type": "node", "id": 4549175791, "lat": -22.8929155, "lon": -47.0594761, "tags": {"amenity": "clinic", "healthcare": "clinic", "name": "Confiance"}}, {"type": "node", "id": 4549175802, "lat": -22.8936378, "lon": -47.0566456, "tags": {"amenity": "clinic", "healthcare": "clinic", "name": "Laborat\u00f3rio Ramos de Souza"}}, {"type": "node", "id": 4549175824, "lat": -22.8944046, "lon": -47.0550337, "tags": {"addr:housenumber": "51", "addr:street": "Rua Gustavo Enge", "amenity": "dentist", "healthcare": "dentist", "name": "VS Odontologia"}}, {"type": "node", "id": 4550044692, "lat": -22.890052, "lon": -47.0513463, "tags": {"addr:housenumber": "25", "addr:street": "Rua Ant\u00f4nio Galizia", "amenity": "clinic", "healthcare": "clinic", "name": "Instituto Patr\u00edcia Lacombe"}}, {"type": "node", "id": 4550044699, "lat": -22.8899469, "lon": -47.0513441, "tags": {"addr:housenumber": "35", "addr:street": "Rua Ant\u00f4nio Galizia", "amenity": "clinic", "healthcare": "clinic", "name": "Rehabilitare"}}, {"type": "node", "id": 4550044700, "lat": -22.8899786, "lon": -47.0504698, "tags": {"addr:housenumber": "2", "addr:street": "Rua Lais Bertoni Pereira", "amenity": "veterinary", "name": "Sant\u00e9 Vie Vet"}}, {"type": "node", "id": 4550044701, "lat": -22.8885452, "lon": -47.0461493, "tags": {"addr:housenumber": "1560", "addr:street": "Rua Doutor Em\u00edlio Ribas", "addr:suburb": "Cambu\u00ed", "amenity": "clinic", "healthcare": "clinic", "name": "Stanza Benessere"}}, {"type": "node", "id": 4559125367, "lat": -22.8252358, "lon": -47.0671584, "tags": {"amenity": "pharmacy", "healthcare": "pharmacy", "name": "Drogaria do Campus"}}, {"type": "node", "id": 4559198495, "lat": -22.9002348, "lon": -47.0530239}, {"type": "node", "id": 4559198502, "lat": -22.8939178, "lon": -47.0541456, "tags": {"addr:housenumber": "1595", "addr:street": "Rua Coronel Quirino", "addr:suburb": "Cambu\u00ed", "amenity": "clinic", "healthcare": "clinic", "name": "Centro de Oftalmologia Especializada"}}, {"type": "node", "id": 4559198505, "lat": -22.8935285, "lon": -47.0566068, "tags": {"addr:housenumber": "283", "addr:street": "Rua Olavo Bilac", "amenity": "clinic", "healthcare": "clinic", "name": "Companhia da Vacina"}}, {"type": "node", "id": 4559198512, "lat": -22.9037976, "lon": -47.0493756, "tags": {"addr:housenumber": "29", "addr:street": "Rua Coronel Francisco de Andrade Coutinho", "addr:suburb": "Cambu\u00ed", "amenity": "clinic", "healthcare": "clinic", "name": "DMS Burnier"}}, {"type": "node", "id": 4559198516, "lat": -22.9048144, "lon": -47.0479925, "tags": {"addr:housenumber": "211", "addr:street": "Rua Coronel Francisco de Andrade Coutinho", "addr:suburb": "Cambu\u00ed", "amenity": "clinic", "healthcare": "clinic", "name": "Dermage"}}, {"type": "node", "id": 4559198519, "lat": -22.8922911, "lon": -47.0531533, "tags": {"addr:housenumber": "235", "addr:street": "Rua dos Bandeirantes", "amenity": "dentist", "healthcare": "dentist", "name": "Espa\u00e7o Riso"}}, {"type": "node", "id": 4559198532, "lat": -22.8939967, "lon": -47.0541155, "tags": {"addr:street": "Rua Coronel Quirino", "addr:suburb": "Cambu\u00ed", "amenity": "clinic", "healthcare": "clinic", "name": "Instituto de Olhos"}}, {"type": "node", "id": 4559198538, "lat": -22.8929529, "lon": -47.056135, "tags": {"addr:housenumber": "361", "addr:street": "Rua Santos Dumont", "amenity": "pharmacy", "healthcare": "pharmacy", "name": "Lab Brasil"}}, {"type": "node", "id": 4559198555, "lat": -22.9006621, "lon": -47.0521446, "tags": {"amenity": "pharmacy", "brand": "Droga Raia", "brand:wikidata": "Q10357101", "brand:wikipedia": "pt:RaiaDrogasil", "healthcare": "pharmacy", "name": "Droga Raia"}}, {"type": "node", "id": 4559198558, "lat": -22.8923151, "lon": -47.0527469, "tags": {"amenity": "clinic", "healthcare": "clinic", "name": "Pediatria"}}, {"type": "node", "id": 4559198562, "lat": -22.8935991, "lon": -47.0566285, "tags": {"addr:housenumber": "267", "addr:street": "Rua Olavo Bilac", "amenity": "clinic", "healthcare": "clinic", "name": "Ramos de Souza"}}, {"type": "node", "id": 4559198566, "lat": -22.8950728, "lon": -47.05378, "tags": {"addr:housenumber": "1483", "addr:street": "Rua Coronel Quirino", "addr:suburb": "Cambu\u00ed", "amenity": "clinic", "healthcare": "clinic", "name": "SYMCO"}}, {"type": "node", "id": 4559198572, "lat": -22.8982665, "lon": -47.0528243, "tags": {"addr:housenumber": "1101", "addr:street": "Rua Coronel Quirino", "addr:suburb": "Cambu\u00ed", "amenity": "clinic", "healthcare": "clinic", "name": "Skincenter"}}, {"type": "node", "id": 4559198582, "lat": -22.8922742, "lon": -47.053266, "tags": {"addr:housenumber": "225", "addr:street": "Rua dos Bandeirantes", "amenity": "dentist", "healthcare": "dentist", "name": "Uniodonto"}}, {"type": "node", "id": 4587811469, "lat": -22.8945747, "lon": -47.0544988, "tags": {"amenity": "pharmacy", "healthcare": "pharmacy", "name": "F\u00f3rmula e Cia"}}, {"type": "node", "id": 4589623291, "lat": -22.8956172, "lon": -47.0563607, "tags": {"addr:housenumber": "89", "addr:street": "Avenida Coronel Silva Teles", "amenity": "pharmacy", "healthcare": "pharmacy", "name": "Droga Brasil"}}, {"type": "node", "id": 4699213426, "lat": -22.8255145, "lon": -47.0657254}, {"type": "node", "id": 4767935713, "lat": -22.8236083, "lon": -47.0824083, "tags": {"addr:housenumber": "262", "amenity": "dentist", "healthcare": "dentist", "name": "Odontologia Integrada"}}, {"type": "node", "id": 4767935716, "lat": -22.8230283, "lon": -47.0825917, "tags": {"addr:housenumber": "300", "amenity": "dentist", "healthcare": "dentist", "name": "Reinaldo Filho"}}, {"type": "node", "id": 4767950233, "lat": -22.90588, "lon": -47.0381092, "tags": {"amenity": "pharmacy", "healthcare": "pharmacy", "name": "Drogaria SP"}}, {"type": "node", "id": 4779853525, "lat": -22.8472551, "lon": -47.0862048, "tags": {"amenity": "doctors", "name": "Instituto Wilson Melo"}}, {"type": "node", "id": 4851818290, "lat": -22.8931306, "lon": -47.0565206, "tags": {"amenity": "pharmacy", "brand": "Drogasil", "brand:wikidata": "Q5308185", "brand:wikipedia": "pt:Drogasil", "healthcare": "pharmacy", "name": "Drogasil", "wheelchair": "yes"}}, {"type": "node", "id": 4851829275, "lat": -22.899045, "lon": -47.0484867, "tags": {"amenity": "clinic", "healthcare": "clinic", "name": "Azahar Spa"}}, {"type": "node", "id": 4851833377, "lat": -22.8938577, "lon": -47.0502684, "tags": {"amenity": "clinic", "healthcare": "clinic", "name": "Unidade de Sa\u00fade da Fam\u00edlia"}}, {"type": "node", "id": 4879494921, "lat": -22.8398803, "lon": -47.0511253, "tags": {"addr:street": "Rua Geraldo C. Christ\u00f3faro", "amenity": "clinic", "healthcare": "clinic", "name": "Centro Avan\u00e7ado de Estudos e Pesquisas", "name:pt": "Centro Avan\u00e7ado de Estudos e Pesquisas", "opening_hours": "Mo-Fr 07:00-17:00", "phone": "37566893", "website": "http://www.caep.com.br"}}, {"type": "node", "id": 4951828659, "lat": -22.8717531, "lon": -47.0283842}, {"type": "node", "id": 4951828660, "lat": -22.8717514, "lon": -47.0282178}, {"type": "node", "id": 4951828661, "lat": -22.8718786, "lon": -47.0282214}, {"type": "node", "id": 4951828662, "lat": -22.8718672, "lon": -47.0281842}, {"type": "node", "id": 4951828663, "lat": -22.8720139, "lon": -47.0281453}, {"type": "node", "id": 4951828664, "lat": -22.8720563, "lon": -47.0282851}, {"type": "node", "id": 4951828665, "lat": -22.8719976, "lon": -47.0283152}, {"type": "node", "id": 4951828666, "lat": -22.8720172, "lon": -47.0283736}, {"type": "node", "id": 4951828667, "lat": -22.8719063, "lon": -47.0283912}, {"type": "node", "id": 4951830971, "lat": -22.8764211, "lon": -47.0326557}, {"type": "node", "id": 4951830972, "lat": -22.8764123, "lon": -47.0330238}, {"type": "node", "id": 4951830973, "lat": -22.8765753, "lon": -47.0330284}, {"type": "node", "id": 4951830974, "lat": -22.8765841, "lon": -47.0326603}, {"type": "node", "id": 5046258422, "lat": -22.9512123, "lon": -47.1892834}, {"type": "node", "id": 5046309821, "lat": -22.9506991, "lon": -47.1864497, "tags": {"addr:housenumber": "43", "addr:street": "Rua Armando M\u00e1rio Tozzi", "amenity": "pharmacy", "email": "contato@drogal.com.br", "healthcare": "pharmacy", "name": "Drogal", "name:pt": "Drogal", "opening_hours": "Mo-Su 08:00-23:00", "phone": "19 3221 1991", "website": "https://www.drogal.com.br/"}}, {"type": "node", "id": 5046457223, "lat": -22.9497441, "lon": -47.1868521, "tags": {"amenity": "pharmacy", "healthcare": "pharmacy", "name": "Farmaxima", "name:pt": "Farmaxima"}}, {"type": "node", "id": 5046459422, "lat": -22.948472, "lon": -47.187666, "tags": {"amenity": "doctors", "healthcare": "doctor", "name": "Centro de Sa\u00fade Parque Valen\u00e7a", "name:pt": "Posto de Sa\u00fade"}}, {"type": "node", "id": 5046459423, "lat": -22.9487396, "lon": -47.1867108, "tags": {"amenity": "pharmacy", "healthcare": "pharmacy"}}, {"type": "node", "id": 5053562621, "lat": -22.929759, "lon": -47.1008085, "tags": {"addr:housenumber": "35", "addr:postcode": "13060-864", "addr:street": "Avenida Paulo Provenza Sobrinho", "amenity": "doctors", "healthcare": "doctor", "name": "Centro de Sa\u00fade Dr. Pedro Ag\u00e1pio de Aquino Netto", "opening_hours": "Mo-Fr 07:00-19:00", "phone": "(19) 3229-9865", "website": "http://www.saude.campinas.sp.gov.br/saude/"}}, {"type": "node", "id": 5053928622, "lat": -22.9257851, "lon": -47.1267861, "tags": {"amenity": "pharmacy", "brand": "Drogasil", "brand:wikidata": "Q5308185", "brand:wikipedia": "pt:Drogasil", "healthcare": "pharmacy", "name": "Drogasil", "name:pt": "Drogasil", "wheelchair": "yes"}}, {"type": "node", "id": 5054986521, "lat": -22.9370722, "lon": -47.1590379, "tags": {"addr:street": "Avenida John Boyd Dunlop", "amenity": "pharmacy", "dispensing": "yes", "drive_through": "no", "healthcare": "pharmacy", "mobile": "+55 11 98727 3561", "name": "Dr.Pharma Popular", "phone": "+55 19 3267 3380"}}, {"type": "node", "id": 5054986621, "lat": -22.9373358, "lon": -47.158481, "tags": {"addr:street": "Avenida John Boyd Dunlop", "amenity": "pharmacy", "contact:phone": "+55 19 3261 4666", "dispensing": "yes", "drive_through": "no", "healthcare": "pharmacy", "mobile": "+55 19 3221 1667", "name": "Drograria Serv Farma", "opening_hours": "Mo-Su,PH 08:00-22:00"}}, {"type": "node", "id": 5054987021, "lat": -22.937931, "lon": -47.1583192, "tags": {"amenity": "veterinary", "name": "Florencevet", "name:pt": "Florencevet"}}, {"type": "node", "id": 5058747221, "lat": -22.9299695, "lon": -47.0870839, "tags": {"amenity": "pharmacy", "healthcare": "pharmacy"}}, {"type": "node", "id": 5059192322, "lat": -22.9520871, "lon": -47.1887891, "tags": {"amenity": "dentist", "healthcare": "dentist", "name": "Odontoclinic", "name:pt": "Odontoclinic"}}, {"type": "node", "id": 5060520827, "lat": -22.9588335, "lon": -47.1922916, "tags": {"amenity": "clinic", "healthcare": "clinic", "name": "Posto de Sa\u00fade", "name:pt": "Posto de Sa\u00fade"}}, {"type": "node", "id": 5060667123, "lat": -22.9137634, "lon": -47.1013057, "tags": {"amenity": "dentist", "healthcare": "dentist"}}, {"type": "node", "id": 5062191736, "lat": -22.9481874, "lon": -47.1853808, "tags": {"amenity": "pharmacy", "healthcare": "pharmacy", "name": "Rede Farma do Povo", "name:pt": "Rede Farma do Povo"}}, {"type": "node", "id": 5066986024, "lat": -22.9463958, "lon": -47.1868551, "tags": {"amenity": "veterinary"}}, {"type": "node", "id": 5084247522, "lat": -22.9269543, "lon": -47.1259939, "tags": {"amenity": "pharmacy", "healthcare": "pharmacy"}}, {"type": "node", "id": 5157283749, "lat": -22.8289944, "lon": -47.0787763, "tags": {"addr:city": "Campinas", "addr:housenumber": "1060", "addr:postcode": "13084-008", "addr:street": "Avenida Albino Jos\u00e9 Barbosa de Oliveira", "addr:suburb": "Barao Geraldo", "amenity": "pharmacy", "brand": "Droga Raia", "brand:wikidata": "Q10357101", "brand:wikipedia": "pt:RaiaDrogasil", "healthcare": "pharmacy", "name": "Droga Raia", "opening_hours": "24/7"}}, {"type": "node", "id": 5189446011, "lat": -22.8399595, "lon": -47.0510902}, {"type": "node", "id": 5189446012, "lat": -22.8408579, "lon": -47.0509441}, {"type": "node", "id": 5189446013, "lat": -22.8409968, "lon": -47.0519396}, {"type": "node", "id": 5189446014, "lat": -22.8400801, "lon": -47.052071}, {"type": "node", "id": 5191946929, "lat": -22.8275835, "lon": -47.064519}, {"type": "node", "id": 5191983951, "lat": -22.8248983, "lon": -47.0642978}, {"type": "node", "id": 5201872277, "lat": -22.8271559, "lon": -47.0678125}, {"type": "node", "id": 5201872278, "lat": -22.827583, "lon": -47.0673885}, {"type": "node", "id": 5201872279, "lat": -22.8280742, "lon": -47.0679932}, {"type": "node", "id": 5201872280, "lat": -22.8282969, "lon": -47.0682926}, {"type": "node", "id": 5201872281, "lat": -22.8283216, "lon": -47.0684213}, {"type": "node", "id": 5201872282, "lat": -22.8283068, "lon": -47.0685313}, {"type": "node", "id": 5201872283, "lat": -22.8281634, "lon": -47.0690892}, {"type": "node", "id": 5201872284, "lat": -22.828109, "lon": -47.0692367}, {"type": "node", "id": 5201872285, "lat": -22.8280348, "lon": -47.0692984}, {"type": "node", "id": 5201872287, "lat": -22.8278816, "lon": -47.0693199}, {"type": "node", "id": 5201872288, "lat": -22.8277407, "lon": -47.0691509}, {"type": "node", "id": 5201872289, "lat": -22.8276245, "lon": -47.068938}, {"type": "node", "id": 5214154829, "lat": -22.8311142, "lon": -47.0790533}, {"type": "node", "id": 5214154830, "lat": -22.8311208, "lon": -47.0788193}, {"type": "node", "id": 5214154831, "lat": -22.8314526, "lon": -47.0788304}, {"type": "node", "id": 5214154832, "lat": -22.8314459, "lon": -47.0790644}, {"type": "node", "id": 5219639798, "lat": -22.8070332, "lon": -47.0610033}, {"type": "node", "id": 5219639799, "lat": -22.8068994, "lon": -47.062926}, {"type": "node", "id": 5219639800, "lat": -22.8052131, "lon": -47.0628152}, {"type": "node", "id": 5219639802, "lat": -22.8052848, "lon": -47.0611419}, {"type": "node", "id": 5219639804, "lat": -22.8076811, "lon": -47.0646959}, {"type": "node", "id": 5219639805, "lat": -22.8083465, "lon": -47.0647356}, {"type": "node", "id": 5219639806, "lat": -22.8086122, "lon": -47.0647594}, {"type": "node", "id": 5219639807, "lat": -22.8091987, "lon": -47.0647066}, {"type": "node", "id": 5219639808, "lat": -22.809234, "lon": -47.0648449}, {"type": "node", "id": 5219639809, "lat": -22.809295, "lon": -47.0650515}, {"type": "node", "id": 5219639810, "lat": -22.8093307, "lon": -47.0666022}, {"type": "node", "id": 5219639811, "lat": -22.8080052, "lon": -47.0664942}, {"type": "node", "id": 5219639812, "lat": -22.8075938, "lon": -47.0664722}, {"type": "node", "id": 5221359326, "lat": -22.8271215, "lon": -47.0778083}, {"type": "node", "id": 5221359327, "lat": -22.8271509, "lon": -47.07797}, {"type": "node", "id": 5283056040, "lat": -22.8921902, "lon": -47.0617042}, {"type": "node", "id": 5283056041, "lat": -22.8918264, "lon": -47.0617228}, {"type": "node", "id": 5283056042, "lat": -22.8920409, "lon": -47.061908}, {"type": "node", "id": 5283056043, "lat": -22.8919134, "lon": -47.0614652}, {"type": "node", "id": 5283056044, "lat": -22.8918565, "lon": -47.0615428}, {"type": "node", "id": 5283056045, "lat": -22.8919189, "lon": -47.0615966}, {"type": "node", "id": 5366509438, "lat": -22.8259799, "lon": -47.0658159}, {"type": "node", "id": 5366509448, "lat": -22.827765, "lon": -47.0665894}, {"type": "node", "id": 5366509461, "lat": -22.8276703, "lon": -47.0666063}, {"type": "node", "id": 5366509462, "lat": -22.8275672, "lon": -47.0663211}, {"type": "node", "id": 5366509464, "lat": -22.8277303, "lon": -47.0661978}, {"type": "node", "id": 5366509465, "lat": -22.8275622, "lon": -47.065833}, {"type": "node", "id": 5366509466, "lat": -22.8274732, "lon": -47.0658813}, {"type": "node", "id": 5366509467, "lat": -22.8273645, "lon": -47.0656399}, {"type": "node", "id": 5366509471, "lat": -22.8272901, "lon": -47.0653991}, {"type": "node", "id": 5366509472, "lat": -22.8272359, "lon": -47.065259}, {"type": "node", "id": 5366509473, "lat": -22.8273595, "lon": -47.0651893}, {"type": "node", "id": 5366509476, "lat": -22.827765, "lon": -47.0649854}, {"type": "node", "id": 5366509487, "lat": -22.8271906, "lon": -47.0647132}, {"type": "node", "id": 5366509488, "lat": -22.8270912, "lon": -47.0647624}, {"type": "node", "id": 5366509491, "lat": -22.8270164, "lon": -47.0647994}, {"type": "node", "id": 5366509494, "lat": -22.8278191, "lon": -47.0666686}, {"type": "node", "id": 5366509495, "lat": -22.828027, "lon": -47.0665196}, {"type": "node", "id": 5366509496, "lat": -22.8279776, "lon": -47.0664016}, {"type": "node", "id": 5366509497, "lat": -22.8283088, "lon": -47.0662085}, {"type": "node", "id": 5366509498, "lat": -22.8273025, "lon": -47.0654311}, {"type": "node", "id": 5366509499, "lat": -22.8274065, "lon": -47.0653773}, {"type": "node", "id": 5366509500, "lat": -22.8274732, "lon": -47.0655782}, {"type": "node", "id": 5366585637, "lat": -22.8250818, "lon": -47.0632793}, {"type": "node", "id": 5366585638, "lat": -22.8255491, "lon": -47.0630366}, {"type": "node", "id": 5366585639, "lat": -22.8257957, "lon": -47.0636004}, {"type": "node", "id": 5366585640, "lat": -22.8253347, "lon": -47.0638378}, {"type": "node", "id": 5420735178, "lat": -22.9061046, "lon": -47.0407518}, {"type": "node", "id": 5420735179, "lat": -22.9063467, "lon": -47.0406579}, {"type": "node", "id": 5420735180, "lat": -22.9063047, "lon": -47.0405425}, {"type": "node", "id": 5420735181, "lat": -22.9062207, "lon": -47.0404594}, {"type": "node", "id": 5436431456, "lat": -22.8267015, "lon": -47.0809754, "tags": {"amenity": "pharmacy", "healthcare": "pharmacy", "name": "Farmais"}}, {"type": "node", "id": 5436431496, "lat": -22.8076487, "lon": -47.0777825, "tags": {"amenity": "pharmacy", "brand": "Drogasil", "brand:wikidata": "Q5308185", "brand:wikipedia": "pt:Drogasil", "healthcare": "pharmacy", "name": "Drogasil", "wheelchair": "yes"}}, {"type": "node", "id": 5482240421, "lat": -22.9082759, "lon": -47.0538325, "tags": {"addr:housenumber": "780", "addr:street": "Rua Duque de Caxias", "amenity": "doctors", "healthcare": "doctor", "name": "c\u00edrculo m\u00e9dico"}}, {"type": "node", "id": 5495031721, "lat": -22.8831088, "lon": -47.0338282, "tags": {"addr:city": "Campinas", "addr:housenumber": "1504", "addr:postcode": "13091-101", "addr:street": "Rua Mogi Gua\u00e7u", "amenity": "pharmacy", "brand": "Droga Raia", "brand:wikidata": "Q10357101", "brand:wikipedia": "pt:RaiaDrogasil", "dispensing": "yes", "healthcare": "pharmacy", "name": "Droga Raia", "opening_hours": "Mo-Su 07:00-23:00", "phone": "+55 19 2514-0050"}}, {"type": "node", "id": 5559958022, "lat": -22.9468609, "lon": -47.1868379, "tags": {"amenity": "pharmacy", "healthcare": "pharmacy", "name": "Farma Bento"}}, {"type": "node", "id": 5559963801, "lat": -22.9470194, "lon": -47.186902, "tags": {"addr:housenumber": "10", "addr:postcode": "13058-510", "addr:street": "Rua Manoel Machado Pereira", "amenity": "pharmacy", "brand": "Drogasil", "brand:wikidata": "Q5308185", "brand:wikipedia": "pt:Drogasil", "healthcare": "pharmacy", "name": "Drogasil", "opening_hours": "Mo-Su 08:00-22:00", "phone": "19 3221 0690", "website": "https://www.drogasil.com.br/", "wheelchair": "yes"}}, {"type": "node", "id": 5728964521, "lat": -22.9177611, "lon": -47.0594202, "tags": {"entrance": "yes"}}, {"type": "node", "id": 5743530648, "lat": -22.8532709, "lon": -47.0275331}, {"type": "node", "id": 5743530649, "lat": -22.8533673, "lon": -47.0274688}, {"type": "node", "id": 5743530650, "lat": -22.8533006, "lon": -47.0272998}, {"type": "node", "id": 5743530651, "lat": -22.8531968, "lon": -47.0273615}, {"type": "node", "id": 5773407853, "lat": -22.9301159, "lon": -47.0876677, "tags": {"addr:housenumber": "204", "addr:postcode": "13050470", "addr:street": "Avenida Mirand\u00f3polis", "amenity": "dentist", "healthcare": "dentist", "name": "Radiodoc - Radiologia Odontol\u00f3gica", "phone": "+55 19 3229 3800"}}, {"type": "node", "id": 5894328685, "lat": -22.9201818, "lon": -47.1115535, "tags": {"addr:housenumber": "1269", "addr:street": "Rua Oswaldo Oscar Barthelson", "amenity": "pharmacy", "brand": "Drogaria S\u00e3o Paulo", "brand:wikidata": "Q5308184", "brand:wikipedia": "en:Grupo DPSP", "healthcare": "pharmacy", "name": "Drogaria S\u00e3o Paulo", "opening_hours": "Mo-Su 07:00-23:00", "phone": "19 2519 0276"}}, {"type": "node", "id": 5894328785, "lat": -22.919534, "lon": -47.1098203, "tags": {"addr:housenumber": "1097", "addr:street": "Rua Oswaldo Oscar Barthelson", "amenity": "pharmacy", "healthcare": "pharmacy", "name": "Drogaria Familiar", "name:pt": "Ultrafamiliar", "opening_hours": "Mo-Sa 07:00-22:00", "phone": "19 3227 7272", "website": "https://www.ultrafarma.com.br/mobile.html"}}, {"type": "node", "id": 5909661187, "lat": -22.9251734, "lon": -47.0566739, "tags": {"amenity": "pharmacy", "brand": "Drogaria S\u00e3o Paulo", "brand:wikidata": "Q5308184", "brand:wikipedia": "en:Grupo DPSP", "dispensing": "yes", "drive_through": "no", "healthcare": "pharmacy", "name": "Drogaria S\u00e3o Paulo"}}, {"type": "node", "id": 5911459785, "lat": -22.9308147, "lon": -47.0925497, "tags": {"amenity": "dentist", "healthcare": "dentist"}}, {"type": "node", "id": 5916647186, "lat": -22.9178034, "lon": -47.0724348}, {"type": "node", "id": 5916647187, "lat": -22.915801, "lon": -47.0679394, "tags": {"amenity": "hospital", "healthcare": "hospital", "name": "Hospital"}}, {"type": "node", "id": 5916647787, "lat": -22.9048647, "lon": -47.0686417, "tags": {"amenity": "doctors", "healthcare": "doctor", "name": "Vera Cruz"}}, {"type": "node", "id": 5916647889, "lat": -22.9040963, "lon": -47.069022, "tags": {"amenity": "doctors", "healthcare": "doctor", "name": "Beneficiencia Portuguesa"}}, {"type": "node", "id": 5919466389, "lat": -22.9307038, "lon": -47.0873311, "tags": {"amenity": "dentist", "healthcare": "dentist"}}, {"type": "node", "id": 5920553074, "lat": -22.8074406, "lon": -47.0647375}, {"type": "node", "id": 5920553075, "lat": -22.8075296, "lon": -47.0647401}, {"type": "node", "id": 5920553076, "lat": -22.8075395, "lon": -47.064547}, {"type": "node", "id": 5920553077, "lat": -22.8074975, "lon": -47.064547}, {"type": "node", "id": 5920553078, "lat": -22.8074975, "lon": -47.0644934}, {"type": "node", "id": 5920553079, "lat": -22.8074505, "lon": -47.0644907}, {"type": "node", "id": 5920601450, "lat": -22.8240459, "lon": -47.0743925}, {"type": "node", "id": 5920601451, "lat": -22.824114, "lon": -47.0743124}, {"type": "node", "id": 5920601452, "lat": -22.8242446, "lon": -47.0744757}, {"type": "node", "id": 5920601453, "lat": -22.824168, "lon": -47.0745558}, {"type": "node", "id": 5922490798, "lat": -22.9305156, "lon": -47.1091689, "tags": {"amenity": "pharmacy", "healthcare": "pharmacy"}}, {"type": "node", "id": 5937112085, "lat": -22.9287797, "lon": -47.0548923, "tags": {"amenity": "pharmacy", "brand": "Pague Menos", "brand:wikidata": "Q7124466", "brand:wikipedia": "pt:Pague Menos", "dispensing": "yes", "drive_through": "no", "healthcare": "pharmacy", "name": "Pague Menos"}}, {"type": "node", "id": 5951587986, "lat": -22.9173638, "lon": -47.0726387, "tags": {"amenity": "clinic", "healthcare": "clinic"}}, {"type": "node", "id": 5955387585, "lat": -22.9306399, "lon": -47.0871922, "tags": {"amenity": "pharmacy", "brand": "Drogasil", "brand:wikidata": "Q5308185", "brand:wikipedia": "pt:Drogasil", "healthcare": "pharmacy", "name": "Drogasil", "wheelchair": "yes"}}, {"type": "node", "id": 5955718486, "lat": -22.9212068, "lon": -47.1199011, "tags": {"amenity": "hospital", "healthcare": "hospital", "name": "Hospital da PUC"}}, {"type": "node", "id": 5966931488, "lat": -22.906139, "lon": -47.0640144, "tags": {"amenity": "pharmacy", "healthcare": "pharmacy", "name": "Super Popular"}}, {"type": "node", "id": 5978943607, "lat": -22.8289072, "lon": -47.0788322}, {"type": "node", "id": 5978943608, "lat": -22.8288837, "lon": -47.0787115}, {"type": "node", "id": 5978943609, "lat": -22.8290122, "lon": -47.0786873}, {"type": "node", "id": 5978943610, "lat": -22.8290258, "lon": -47.0787638}, {"type": "node", "id": 5978943611, "lat": -22.8289986, "lon": -47.0788134}, {"type": "node", "id": 5978943613, "lat": -22.8289598, "lon": -47.0788214}, {"type": "node", "id": 6028629601, "lat": -22.8891787, "lon": -47.0457909}, {"type": "node", "id": 6028629602, "lat": -22.8892818, "lon": -47.045639}, {"type": "node", "id": 6028629603, "lat": -22.8894858, "lon": -47.0458022}, {"type": "node", "id": 6028629604, "lat": -22.8894515, "lon": -47.0459786}, {"type": "node", "id": 6028629605, "lat": -22.8894325, "lon": -47.0459938}, {"type": "node", "id": 6053439023, "lat": -22.9886584, "lon": -47.1195825}, {"type": "node", "id": 6053439024, "lat": -22.988903, "lon": -47.1195438}, {"type": "node", "id": 6053439025, "lat": -22.9888885, "lon": -47.1194356}, {"type": "node", "id": 6053439026, "lat": -22.9887945, "lon": -47.1194505}, {"type": "node", "id": 6053439027, "lat": -22.9887864, "lon": -47.1193904}, {"type": "node", "id": 6053439028, "lat": -22.9887112, "lon": -47.1194022}, {"type": "node", "id": 6053439029, "lat": -22.9887187, "lon": -47.1194578}, {"type": "node", "id": 6053439030, "lat": -22.9886432, "lon": -47.1194697}, {"type": "node", "id": 6153900433, "lat": -22.9110827, "lon": -47.0555165, "tags": {"amenity": "dentist", "healthcare": "dentist", "name": "A Odontologia Integrada"}}, {"type": "node", "id": 6153910838, "lat": -22.9093293, "lon": -47.0536346, "tags": {"amenity": "clinic", "healthcare": "clinic", "name": "Fleury"}}, {"type": "node", "id": 6153910875, "lat": -22.9100655, "lon": -47.0535096, "tags": {"amenity": "pharmacy", "healthcare": "pharmacy", "name": "Farmaxima"}}, {"type": "node", "id": 6350339151, "lat": -22.8079762, "lon": -47.0607932}, {"type": "node", "id": 6350339152, "lat": -22.8079544, "lon": -47.0613049}, {"type": "node", "id": 6350339153, "lat": -22.8077923, "lon": -47.0617082}, {"type": "node", "id": 6350339154, "lat": -22.8075515, "lon": -47.0619185}, {"type": "node", "id": 6350339155, "lat": -22.8072244, "lon": -47.0621084}, {"type": "node", "id": 6350339156, "lat": -22.8070682, "lon": -47.0622022}, {"type": "node", "id": 6350339157, "lat": -22.8069445, "lon": -47.062513}, {"type": "node", "id": 6350339162, "lat": -22.8081085, "lon": -47.0629117}, {"type": "node", "id": 6350339164, "lat": -22.8077415, "lon": -47.0631978}, {"type": "node", "id": 6350339165, "lat": -22.8083245, "lon": -47.0636056}, {"type": "node", "id": 6350339166, "lat": -22.8084256, "lon": -47.0636672}, {"type": "node", "id": 6350339167, "lat": -22.8086038, "lon": -47.0636864}, {"type": "node", "id": 6350339168, "lat": -22.808833, "lon": -47.0640736}, {"type": "node", "id": 6350339169, "lat": -22.8090005, "lon": -47.0640593}, {"type": "node", "id": 6356527487, "lat": -22.9355177, "lon": -47.0508769, "tags": {"amenity": "pharmacy", "brand": "Droga Raia", "brand:wikidata": "Q10357101", "brand:wikipedia": "pt:RaiaDrogasil", "dispensing": "yes", "healthcare": "pharmacy", "name": "Droga Raia"}}, {"type": "node", "id": 6379754644, "lat": -22.9042831, "lon": -47.0623619, "tags": {"entrance": "main"}}, {"type": "node", "id": 6380889285, "lat": -22.9172882, "lon": -47.0549766, "tags": {"amenity": "pharmacy", "brand": "Pague Menos", "brand:wikidata": "Q7124466", "brand:wikipedia": "pt:Pague Menos", "healthcare": "pharmacy", "name": "Pague Menos"}}, {"type": "node", "id": 6382443429, "lat": -22.8513829, "lon": -47.067537}, {"type": "node", "id": 6382443430, "lat": -22.8514953, "lon": -47.0674801}, {"type": "node", "id": 6382443431, "lat": -22.851441, "lon": -47.0673663}, {"type": "node", "id": 6382443432, "lat": -22.8513304, "lon": -47.0674272}, {"type": "node", "id": 6391216785, "lat": -22.8928638, "lon": -47.1054836, "tags": {"amenity": "clinic", "healthcare": "clinic"}}, {"type": "node", "id": 6462101487, "lat": -22.8912721, "lon": -47.0630812, "tags": {"amenity": "pharmacy", "dispensing": "no", "healthcare": "pharmacy", "name": "Farma Viva", "phone": "019-3396-6475"}}, {"type": "node", "id": 6641981494, "lat": -22.8467135, "lon": -47.1436279}, {"type": "node", "id": 6641981495, "lat": -22.8467041, "lon": -47.1436243}, {"type": "node", "id": 6641981496, "lat": -22.8466905, "lon": -47.143609}, {"type": "node", "id": 6641981497, "lat": -22.8466875, "lon": -47.1435987}, {"type": "node", "id": 6641981498, "lat": -22.8467234, "lon": -47.1436282}, {"type": "node", "id": 6641981499, "lat": -22.8466962, "lon": -47.1436178}, {"type": "node", "id": 6641981500, "lat": -22.8466876, "lon": -47.1435879}, {"type": "node", "id": 6641981501, "lat": -22.846737, "lon": -47.1434122}, {"type": "node", "id": 6641981502, "lat": -22.8468223, "lon": -47.1426478}, {"type": "node", "id": 6641981503, "lat": -22.8468754, "lon": -47.142621}, {"type": "node", "id": 6641981504, "lat": -22.8471918, "lon": -47.143372}, {"type": "node", "id": 6641981505, "lat": -22.8483535, "lon": -47.1419558, "tags": {"amenity": "pharmacy"}}, {"type": "node", "id": 6838722654, "lat": -22.8935337, "lon": -47.0505122, "tags": {"addr:housenumber": "713", "amenity": "clinic", "healthcare": "clinic", "name": "CCR"}}, {"type": "node", "id": 6838722655, "lat": -22.8861138, "lon": -47.0706503, "tags": {"addr:housenumber": "615", "amenity": "veterinary", "name": "Animatec"}}, {"type": "node", "id": 6838738079, "lat": -22.8859262, "lon": -47.0708993, "tags": {"addr:housenumber": "719", "amenity": "dentist", "healthcare": "dentist", "name": "Valejo Piva"}}, {"type": "node", "id": 6838750724, "lat": -22.892267, "lon": -47.0554733, "tags": {"addr:housenumber": "298", "amenity": "veterinary", "name": "Upvet"}}, {"type": "node", "id": 6838753277, "lat": -22.8858844, "lon": -47.0707302, "tags": {"addr:housenumber": "686", "amenity": "clinic", "healthcare": "clinic", "name": "Casa da Gestante"}}, {"type": "node", "id": 6838763313, "lat": -22.8936695, "lon": -47.0539777, "tags": {"addr:housenumber": "1614", "amenity": "clinic", "healthcare": "clinic", "name": "Pasquinelli"}}, {"type": "node", "id": 7077995285, "lat": -22.9514211, "lon": -47.1862162, "tags": {"amenity": "dentist", "healthcare": "dentist"}}, {"type": "node", "id": 7107954324, "lat": -22.8276597, "lon": -47.0798088, "tags": {"amenity": "pharmacy", "healthcare": "pharmacy", "name": "Botica da Terra"}}, {"type": "node", "id": 7107954326, "lat": -22.8971237, "lon": -47.0519146, "tags": {"amenity": "pharmacy", "brand": "Droga Raia", "brand:wikidata": "Q10357101", "brand:wikipedia": "pt:RaiaDrogasil", "healthcare": "pharmacy", "name": "Droga Raia"}}, {"type": "node", "id": 7107977423, "lat": -22.8090458, "lon": -47.078441, "tags": {"amenity": "pharmacy", "healthcare": "pharmacy", "name": "Farma Bar\u00e3o"}}, {"type": "node", "id": 7108011440, "lat": -22.895211, "lon": -47.0523146, "tags": {"amenity": "pharmacy", "brand": "Drogaria S\u00e3o Paulo", "brand:wikidata": "Q5308184", "brand:wikipedia": "en:Grupo DPSP", "healthcare": "pharmacy", "name": "Drogaria S\u00e3o Paulo"}}, {"type": "node", "id": 7108020105, "lat": -22.8329696, "lon": -47.0774331, "tags": {"amenity": "clinic", "healthcare": "clinic", "name": "Sabin"}}, {"type": "node", "id": 7108024143, "lat": -22.8974183, "lon": -47.0530009, "tags": {"addr:housenumber": "1193", "amenity": "pharmacy", "healthcare": "pharmacy", "name": "A Homeop\u00e1tica"}}, {"type": "node", "id": 7108024579, "lat": -22.9054775, "lon": -47.037013, "tags": {"amenity": "clinic", "healthcare": "clinic", "name": "Excelens"}}, {"type": "node", "id": 7108028313, "lat": -22.8113565, "lon": -47.0792126, "tags": {"amenity": "clinic", "healthcare": "clinic", "name": "Cl\u00ednica de Sa\u00fade Integral"}}, {"type": "node", "id": 7108029890, "lat": -22.904862, "lon": -47.0520194, "tags": {"amenity": "dentist", "healthcare": "dentist", "name": "Sorrif\u00e1cil"}}, {"type": "node", "id": 7179041607, "lat": -22.8981046, "lon": -47.0687488, "tags": {"amenity": "clinic", "healthcare": "clinic", "name": "Vital Brasil"}}, {"type": "node", "id": 7179045698, "lat": -22.8949415, "lon": -47.0661328, "tags": {"amenity": "clinic", "healthcare": "clinic", "name": "Raskin"}}, {"type": "node", "id": 7179056367, "lat": -22.8958226, "lon": -47.067232, "tags": {"amenity": "clinic", "healthcare": "clinic", "name": "CDE"}}, {"type": "node", "id": 7307067510, "lat": -22.968317, "lon": -47.1283988, "tags": {"addr:city": "Campinas", "addr:housenumber": "723", "addr:postcode": "13054105", "addr:street": "Avenida Sua\u00e7una", "addr:suburb": "Jardim Aeroporto", "air_conditioning": "yes", "amenity": "clinic", "email": "odontoouroverdecarlos@yahoo.com", "healthcare": "clinic", "healthcare:speciality": "dentist;orthodontics", "name": "Odonto Ouro Verde", "opening_hours": "Mo-Fr 08:00-19:00", "operator": "Carlos", "operator:type": "business", "wheelchair": "yes"}}, {"type": "node", "id": 7335079146, "lat": -22.8926541, "lon": -47.0642608}, {"type": "node", "id": 7335079147, "lat": -22.8932021, "lon": -47.0635255}, {"type": "node", "id": 7335079148, "lat": -22.8925911, "lon": -47.0630304}, {"type": "node", "id": 7335079149, "lat": -22.8920805, "lon": -47.0637509}, {"type": "node", "id": 7392400554, "lat": -22.9825852, "lon": -47.1206931, "tags": {"amenity": "pharmacy", "brand": "Farmahorro", "brand:wikidata": "Q20015002", "brand:wikipedia": "es:Farmahorro", "dispensing": "yes", "healthcare": "pharmacy", "name": "Farmahorro"}}, {"type": "node", "id": 7392400555, "lat": -22.9778008, "lon": -47.1279492, "tags": {"amenity": "pharmacy", "dispensing": "yes", "healthcare": "pharmacy", "name": "Farmadic"}}, {"type": "node", "id": 7428209524, "lat": -22.9315167, "lon": -47.0580871}, {"type": "node", "id": 7428209525, "lat": -22.9320055, "lon": -47.0580125}, {"type": "node", "id": 7428209526, "lat": -22.9321102, "lon": -47.0578263}, {"type": "node", "id": 7428209527, "lat": -22.9320855, "lon": -47.0577841}, {"type": "node", "id": 7428209528, "lat": -22.9325178, "lon": -47.0571175}, {"type": "node", "id": 7428209529, "lat": -22.9323547, "lon": -47.0565972}, {"type": "node", "id": 7428209530, "lat": -22.9324066, "lon": -47.0564577}, {"type": "node", "id": 7428209531, "lat": -22.9324424, "lon": -47.0563363}, {"type": "node", "id": 7428209532, "lat": -22.9324684, "lon": -47.0562129}, {"type": "node", "id": 7428209533, "lat": -22.9324665, "lon": -47.0561365}, {"type": "node", "id": 7428209534, "lat": -22.9316989, "lon": -47.0563839}, {"type": "node", "id": 7428209535, "lat": -22.9312172, "lon": -47.0565556}, {"type": "node", "id": 7428209536, "lat": -22.9310492, "lon": -47.0566361}, {"type": "node", "id": 7428209537, "lat": -22.9310078, "lon": -47.0566706}, {"type": "node", "id": 7428209538, "lat": -22.9309767, "lon": -47.0566897}, {"type": "node", "id": 7428209539, "lat": -22.9309297, "lon": -47.0566998}, {"type": "node", "id": 7428209540, "lat": -22.930926, "lon": -47.0567014}, {"type": "node", "id": 7428209541, "lat": -22.9309244, "lon": -47.0567035}, {"type": "node", "id": 7428209542, "lat": -22.9309242, "lon": -47.0567058}, {"type": "node", "id": 7428209543, "lat": -22.9309248, "lon": -47.0567075}, {"type": "node", "id": 7428209544, "lat": -22.9309262, "lon": -47.0567088}, {"type": "node", "id": 7428209545, "lat": -22.9309588, "lon": -47.0567234}, {"type": "node", "id": 7428209546, "lat": -22.9309848, "lon": -47.0567484}, {"type": "node", "id": 7428209547, "lat": -22.9311258, "lon": -47.0569304}, {"type": "node", "id": 7428209548, "lat": -22.9308572, "lon": -47.0570377}, {"type": "node", "id": 7428209549, "lat": -22.931056, "lon": -47.057371}, {"type": "node", "id": 7428209550, "lat": -22.931287, "lon": -47.0577586}, {"type": "node", "id": 7428209551, "lat": -22.9314732, "lon": -47.0580704}, {"type": "node", "id": 7428209552, "lat": -22.9314797, "lon": -47.0580796}, {"type": "node", "id": 7428209553, "lat": -22.9314875, "lon": -47.0580846}, {"type": "node", "id": 7428209554, "lat": -22.9314996, "lon": -47.0580875}, {"type": "node", "id": 7590085392, "lat": -22.9882441, "lon": -47.1496135}, {"type": "node", "id": 7590085393, "lat": -22.9882874, "lon": -47.1493829}, {"type": "node", "id": 7590085394, "lat": -22.9885898, "lon": -47.1494498}, {"type": "node", "id": 7590085395, "lat": -22.9885465, "lon": -47.1496805}, {"type": "node", "id": 7726371185, "lat": -22.9084111, "lon": -47.0547145}, {"type": "node", "id": 7730683241, "lat": -22.8266705, "lon": -47.0655046}, {"type": "node", "id": 7730683242, "lat": -22.8262988, "lon": -47.0656711}, {"type": "node", "id": 7730683243, "lat": -22.8249527, "lon": -47.0641221}, {"type": "node", "id": 7730683244, "lat": -22.8249082, "lon": -47.0641691}, {"type": "node", "id": 7730683245, "lat": -22.8269193, "lon": -47.0631847}, {"type": "node", "id": 7730683246, "lat": -22.826965, "lon": -47.0631941}, {"type": "node", "id": 7730683247, "lat": -22.8248896, "lon": -47.0642227}, {"type": "node", "id": 7730726420, "lat": -22.8264466, "lon": -47.0633166}, {"type": "node", "id": 7730726421, "lat": -22.8259653, "lon": -47.06359}, {"type": "node", "id": 7730726434, "lat": -22.825771, "lon": -47.0657234}, {"type": "node", "id": 7730726435, "lat": -22.8258476, "lon": -47.0657381}, {"type": "node", "id": 7730726436, "lat": -22.8258136, "lon": -47.065722}, {"type": "node", "id": 7730726437, "lat": -22.8259193, "lon": -47.0658039}, {"type": "node", "id": 7844348542, "lat": -23.0426565, "lon": -47.1288401}, {"type": "node", "id": 7844348543, "lat": -23.0426969, "lon": -47.1288118}, {"type": "node", "id": 7844348544, "lat": -23.042672, "lon": -47.1287358}, {"type": "node", "id": 7844348545, "lat": -23.0426445, "lon": -47.1287755}, {"type": "node", "id": 7844348546, "lat": -23.042634, "lon": -47.1287958}, {"type": "node", "id": 8144938271, "lat": -22.8476959, "lon": -47.1199282}, {"type": "node", "id": 8224738073, "lat": -22.9028011, "lon": -47.0464966}, {"type": "node", "id": 8224738074, "lat": -22.9028003, "lon": -47.0464165}, {"type": "node", "id": 8224738075, "lat": -22.902832, "lon": -47.0463554}, {"type": "node", "id": 8224738076, "lat": -22.9028641, "lon": -47.0463629}, {"type": "node", "id": 8224738077, "lat": -22.9028681, "lon": -47.0464978}, {"type": "node", "id": 8224738080, "lat": -22.9028423, "lon": -47.0464973}, {"type": "node", "id": 8224738081, "lat": -22.902133, "lon": -47.0465512}, {"type": "node", "id": 8224738082, "lat": -22.9020702, "lon": -47.0463421}, {"type": "node", "id": 8224738083, "lat": -22.9021638, "lon": -47.0463031}, {"type": "node", "id": 8224738088, "lat": -22.9022442, "lon": -47.0464908}, {"type": "node", "id": 8224738089, "lat": -22.9022397, "lon": -47.0465104}, {"type": "node", "id": 8224738090, "lat": -22.9022427, "lon": -47.0464761}, {"type": "node", "id": 8284769508, "lat": -22.9786436, "lon": -47.1220454, "tags": {"amenity": "clinic", "healthcare": "clinic", "name": "C.S. DIC III"}}, {"type": "node", "id": 8445430718, "lat": -22.8909854, "lon": -47.0760621, "tags": {"amenity": "pharmacy", "brand": "Droga Raia", "brand:wikidata": "Q10357101", "brand:wikipedia": "pt:RaiaDrogasil", "dispensing": "yes", "healthcare": "pharmacy", "name": "Droga Raia"}}, {"type": "node", "id": 8445432262, "lat": -22.8901093, "lon": -47.0763042, "tags": {"amenity": "pharmacy", "brand": "Drogaria S\u00e3o Paulo", "brand:wikidata": "Q5308184", "brand:wikipedia": "en:Grupo DPSP", "dispensing": "yes", "healthcare": "pharmacy", "name": "Drogaria S\u00e3o Paulo"}}, {"type": "node", "id": 8446736865, "lat": -22.8895517, "lon": -47.0719597, "tags": {"addr:city": "Campinas", "addr:housenumber": "389", "addr:postcode": "13073-210", "addr:street": "Rua Pereira Tangerino", "addr:suburb": "Jardim Guanabara", "amenity": "veterinary", "name": "Itacamp Cl\u00ednica Veterin\u00e1ria"}}, {"type": "node", "id": 8446736873, "lat": -22.8907423, "lon": -47.0768626, "tags": {"addr:city": "Campinas", "addr:housenumber": "2181", "addr:postcode": "13013-160", "addr:street": "Avenida Andrade Neves", "addr:suburb": "Centro", "amenity": "pharmacy", "dispensing": "yes", "healthcare": "pharmacy", "name": "Drog\u00e3o Popular", "phone": "+55 19 35007077", "website": "https://www.drogaonet.com.br/nossas-lojas"}}, {"type": "node", "id": 8446736881, "lat": -22.8894475, "lon": -47.07764, "tags": {"addr:city": "Campinas", "addr:housenumber": "2339", "addr:postcode": "13070-001", "addr:street": "Avenida Andrade Neves", "addr:suburb": "Jardim Chapad\u00e3o", "amenity": "pharmacy", "dispensing": "yes", "healthcare": "pharmacy", "name": "Farm\u00e1xima Castelo", "phone": "+55 19 32123318", "website": "https://www.farmaximacastelo.com.br/"}}, {"type": "node", "id": 8476110879, "lat": -22.8810124, "lon": -47.069457, "tags": {"amenity": "pharmacy", "dispensing": "yes", "healthcare": "pharmacy", "name": "Farma Zanca"}}, {"type": "node", "id": 8476144456, "lat": -22.8846323, "lon": -47.06966, "tags": {"amenity": "pharmacy", "dispensing": "yes", "healthcare": "pharmacy", "name": "Farm\u00e1cia Carcajon"}}, {"type": "node", "id": 8476144458, "lat": -22.885316, "lon": -47.0700737, "tags": {"amenity": "social_facility", "name": "Casa Maria de Nazar\u00e9", "website": "https://www.casademariadenazare.org.br/"}}, {"type": "node", "id": 8711011348, "lat": -22.8254363, "lon": -47.063858}, {"type": "node", "id": 8872621746, "lat": -22.9026641, "lon": -47.0705114}, {"type": "node", "id": 8872621749, "lat": -22.9027806, "lon": -47.0704514}, {"type": "node", "id": 8872621758, "lat": -22.9031092, "lon": -47.0700518}, {"type": "node", "id": 8872621759, "lat": -22.9031549, "lon": -47.0701616}, {"type": "node", "id": 8872627801, "lat": -22.9026063, "lon": -47.0705447}, {"type": "node", "id": 8872702518, "lat": -22.9033613, "lon": -47.0706268}, {"type": "node", "id": 8872702521, "lat": -22.9033791, "lon": -47.070238}, {"type": "node", "id": 8872702522, "lat": -22.9034704, "lon": -47.0701861}, {"type": "node", "id": 8872702523, "lat": -22.9036137, "lon": -47.0704834}, {"type": "node", "id": 8872702524, "lat": -22.9030734, "lon": -47.0707805}, {"type": "node", "id": 8872702525, "lat": -22.9029838, "lon": -47.0705786}, {"type": "node", "id": 8872702529, "lat": -22.9033198, "lon": -47.0706517}, {"type": "node", "id": 8872702530, "lat": -22.9027539, "lon": -47.0706613}, {"type": "node", "id": 8872702533, "lat": -22.9029423, "lon": -47.0705534}, {"type": "node", "id": 8872702535, "lat": -22.9025251, "lon": -47.0707849}, {"type": "node", "id": 8872702536, "lat": -22.9027335, "lon": -47.0706701}, {"type": "node", "id": 8880579531, "lat": -22.9038577, "lon": -47.0687976}, {"type": "node", "id": 8880579532, "lat": -22.9035778, "lon": -47.068206}, {"type": "node", "id": 8880579533, "lat": -22.9036438, "lon": -47.0681692}, {"type": "node", "id": 8880579557, "lat": -22.9043743, "lon": -47.0689658}, {"type": "node", "id": 8880579568, "lat": -22.9044012, "lon": -47.0689506}, {"type": "node", "id": 8880579576, "lat": -22.9045471, "lon": -47.0684877}, {"type": "node", "id": 8880579577, "lat": -22.9042385, "lon": -47.0678524}, {"type": "node", "id": 8880589297, "lat": -22.9046969, "lon": -47.0687967}, {"type": "node", "id": 8880589298, "lat": -22.9045236, "lon": -47.0688871}, {"type": "node", "id": 8880589299, "lat": -22.904464, "lon": -47.0689179}, {"type": "node", "id": 8880614997, "lat": -22.9042916, "lon": -47.0677778}, {"type": "node", "id": 8880614998, "lat": -22.9046508, "lon": -47.0676009}, {"type": "node", "id": 8880614999, "lat": -22.9050838, "lon": -47.0685813}, {"type": "node", "id": 8987545751, "lat": -22.9027138, "lon": -47.070088, "tags": {"barrier": "gate"}}, {"type": "node", "id": 9024265413, "lat": -22.9038903, "lon": -47.0688553, "tags": {"barrier": "gate"}}, {"type": "node", "id": 9094247325, "lat": -22.8556631, "lon": -47.0665305}, {"type": "node", "id": 9094247326, "lat": -22.8556903, "lon": -47.0662032}, {"type": "node", "id": 9094247327, "lat": -22.8563846, "lon": -47.0658071}, {"type": "node", "id": 9094247328, "lat": -22.856527, "lon": -47.0659052}, {"type": "node", "id": 9094247329, "lat": -22.8564643, "lon": -47.0662501}, {"type": "node", "id": 9094247330, "lat": -22.8557711, "lon": -47.0666139}, {"type": "node", "id": 9094247335, "lat": -22.8517054, "lon": -47.068282}, {"type": "node", "id": 9094247336, "lat": -22.8515991, "lon": -47.06805}, {"type": "node", "id": 9094247337, "lat": -22.8516473, "lon": -47.0680192}, {"type": "node", "id": 9094247338, "lat": -22.8517264, "lon": -47.0680473}, {"type": "node", "id": 9094247339, "lat": -22.8518092, "lon": -47.0682257}, {"type": "node", "id": 9097620159, "lat": -22.8944649, "lon": -47.0952952, "tags": {"addr:city": "Campinas", "addr:housenumber": "1470", "addr:postcode": "13070-173", "addr:street": "Avenida Marechal Rondom", "addr:suburb": "Chapad\u00e3o", "amenity": "veterinary", "name": "Clinica Veterin\u00e1ria Bicho de Estima\u00e7\u00e3o", "name:pt": "Clinica Veterin\u00e1ria Bicho de Estima\u00e7\u00e3o", "opening_hours": "Seg-sexta 8:30 \u00e0s 18:00 e Sab 8:30 \u00e0s 15:00", "opening_hours:covid19": "o mesmo", "phone": "+5519981259020", "website": "https://estimacaopetshop.com.br", "wheelchair": "yes"}}, {"type": "node", "id": 9135598267, "lat": -22.9015059, "lon": -47.092243}, {"type": "node", "id": 9135598268, "lat": -22.9014904, "lon": -47.0923261}, {"type": "node", "id": 9135598269, "lat": -22.9014451, "lon": -47.0923374}, {"type": "node", "id": 9135598270, "lat": -22.9014291, "lon": -47.0922172}, {"type": "node", "id": 9135598271, "lat": -22.9014749, "lon": -47.0921942}, {"type": "node", "id": 9216432125, "lat": -22.8996787, "lon": -47.0706192, "tags": {"amenity": "clinic", "healthcare": "clinic", "name": "Clinica de Ortopedia de Campinas"}}, {"type": "node", "id": 9216460420, "lat": -22.8994358, "lon": -47.0707204, "tags": {"addr:housenumber": "935", "amenity": "clinic", "description": "DETRAN", "healthcare": "clinic", "name": "Central de M\u00e9dicos Campinas", "phone": "01932352204"}}, {"type": "node", "id": 9283782413, "lat": -22.8878412, "lon": -47.0645123, "tags": {"addr:city": "Campinas", "addr:housenumber": "132", "addr:postcode": "13073-013", "addr:street": "Rua Doutor Pelagio Lobo", "addr:suburb": "Jardim Guanabara", "amenity": "doctors", "healthcare": "doctor", "healthcare:speciality": "cardiology", "name": "Cl\u00ednica de Cardiologia e Reabilita\u00e7\u00e3o", "opening_hours": "Mo-Fr 07:30-18:00", "phone": "+55 19 3794-1300", "website": "https://ccr.med.br/"}}, {"type": "node", "id": 9531302754, "lat": -22.8827444, "lon": -46.9714975}, {"type": "node", "id": 9531302755, "lat": -22.8828196, "lon": -46.9713964}, {"type": "node", "id": 9531302756, "lat": -22.8829536, "lon": -46.97151}, {"type": "node", "id": 9531302757, "lat": -22.882916, "lon": -46.9715632}, {"type": "node", "id": 9531302758, "lat": -22.8828899, "lon": -46.971549}, {"type": "node", "id": 9531302759, "lat": -22.8828637, "lon": -46.9715951}, {"type": "node", "id": 9678695650, "lat": -22.9461604, "lon": -47.0598648}, {"type": "node", "id": 9678695651, "lat": -22.9461562, "lon": -47.0596843}, {"type": "node", "id": 9678695652, "lat": -22.946363, "lon": -47.0596721}, {"type": "node", "id": 9678695653, "lat": -22.9463658, "lon": -47.0598497}, {"type": "node", "id": 9678695654, "lat": -22.9462517, "lon": -47.0597617, "tags": {"amenity": "clinic", "healthcare": "clinic", "name": "Centro de Sa\u00fade - Jaime C\u00e9sar Correa Lima (Parque da Figueira)"}}, {"type": "node", "id": 9689913179, "lat": -22.8095944, "lon": -47.0659171}, {"type": "node", "id": 9689913181, "lat": -22.8099682, "lon": -47.0664127}, {"type": "node", "id": 9689913182, "lat": -22.8101648, "lon": -47.0666589}, {"type": "node", "id": 9689913183, "lat": -22.8103584, "lon": -47.0665373}, {"type": "node", "id": 9689913184, "lat": -22.8103342, "lon": -47.0666769}, {"type": "node", "id": 9689913185, "lat": -22.8104608, "lon": -47.0666556}, {"type": "node", "id": 9689913186, "lat": -22.8092868, "lon": -47.0653959}, {"type": "node", "id": 9689913187, "lat": -22.8088478, "lon": -47.0647692}, {"type": "node", "id": 9689913188, "lat": -22.8088807, "lon": -47.0647152}, {"type": "node", "id": 9689913189, "lat": -22.8088949, "lon": -47.0644059}, {"type": "node", "id": 9689913190, "lat": -22.8090717, "lon": -47.0643163}, {"type": "node", "id": 9689913191, "lat": -22.8091273, "lon": -47.064409}, {"type": "node", "id": 9689917922, "lat": -22.8077571, "lon": -47.0628896}, {"type": "node", "id": 9689917923, "lat": -22.8082331, "lon": -47.063464}, {"type": "node", "id": 9689917925, "lat": -22.8077058, "lon": -47.0636188}, {"type": "node", "id": 9689917928, "lat": -22.8080742, "lon": -47.0628786}, {"type": "node", "id": 9689917938, "lat": -22.8063579, "lon": -47.0610705}, {"type": "node", "id": 9689917939, "lat": -22.8062248, "lon": -47.0610161}, {"type": "node", "id": 9698414487, "lat": -22.8053031, "lon": -47.06302}, {"type": "node", "id": 9698414488, "lat": -22.8069999, "lon": -47.0623085}, {"type": "node", "id": 9698414489, "lat": -22.807893, "lon": -47.0615393}, {"type": "node", "id": 9705286438, "lat": -22.8861259, "lon": -46.9717714}, {"type": "node", "id": 9705286439, "lat": -22.8859554, "lon": -46.9715695}, {"type": "node", "id": 9705286440, "lat": -22.8863914, "lon": -46.9711173}, {"type": "node", "id": 9705286441, "lat": -22.886507, "lon": -46.9712618}, {"type": "node", "id": 9705286442, "lat": -22.8863387, "lon": -46.9714341}, {"type": "node", "id": 9705286443, "lat": -22.8863989, "lon": -46.9715281}, {"type": "node", "id": 9712796306, "lat": -22.9413207, "lon": -47.1218223}, {"type": "node", "id": 9712796307, "lat": -22.941311, "lon": -47.1217709}, {"type": "node", "id": 9712796308, "lat": -22.941317, "lon": -47.1218453}, {"type": "node", "id": 9712796309, "lat": -22.9412954, "lon": -47.1217467}, {"type": "node", "id": 9712796310, "lat": -22.9407797, "lon": -47.1214789}, {"type": "node", "id": 9712796311, "lat": -22.9407522, "lon": -47.1214799}, {"type": "node", "id": 9712796312, "lat": -22.9407039, "lon": -47.1215057}, {"type": "node", "id": 9712796313, "lat": -22.9406869, "lon": -47.1215282}, {"type": "node", "id": 9712796314, "lat": -22.9406727, "lon": -47.1215838}, {"type": "node", "id": 9712796315, "lat": -22.9408063, "lon": -47.1214865}, {"type": "node", "id": 9712796316, "lat": -22.9407261, "lon": -47.1214892}, {"type": "node", "id": 9712796317, "lat": -22.9406767, "lon": -47.1216126}, {"type": "node", "id": 9712796318, "lat": -22.9409002, "lon": -47.1223086}, {"type": "node", "id": 9712796319, "lat": -22.9410559, "lon": -47.1223661}, {"type": "node", "id": 9712796320, "lat": -22.9411165, "lon": -47.1223347}, {"type": "node", "id": 9712796321, "lat": -22.9410324, "lon": -47.1223636}, {"type": "node", "id": 9712796322, "lat": -22.9411003, "lon": -47.1223502}, {"type": "node", "id": 9712796323, "lat": -22.9411287, "lon": -47.1223153}, {"type": "node", "id": 9721328156, "lat": -22.8521833, "lon": -47.1079029}, {"type": "node", "id": 9721328157, "lat": -22.8523308, "lon": -47.1077782}, {"type": "node", "id": 9721328158, "lat": -22.8524553, "lon": -47.1079341}, {"type": "node", "id": 9721328159, "lat": -22.8525376, "lon": -47.1078447}, {"type": "node", "id": 9721328160, "lat": -22.852551, "lon": -47.1078676}, {"type": "node", "id": 9721328161, "lat": -22.8525913, "lon": -47.1078323}, {"type": "node", "id": 9721328162, "lat": -22.8523538, "lon": -47.1075621}, {"type": "node", "id": 9721328163, "lat": -22.8521105, "lon": -47.1078115}, {"type": "node", "id": 9731255065, "lat": -22.9858906, "lon": -47.1019344}, {"type": "node", "id": 9731255066, "lat": -22.9859252, "lon": -47.101846}, {"type": "node", "id": 9731255067, "lat": -22.9860716, "lon": -47.1019366}, {"type": "node", "id": 9731255068, "lat": -22.9860899, "lon": -47.1019057}, {"type": "node", "id": 9731255069, "lat": -22.9862045, "lon": -47.1019685}, {"type": "node", "id": 9731255070, "lat": -22.9861895, "lon": -47.1019984}, {"type": "node", "id": 9731255071, "lat": -22.9863319, "lon": -47.1020824}, {"type": "node", "id": 9731255072, "lat": -22.9862932, "lon": -47.1021707}, {"type": "node", "id": 9731255073, "lat": -22.9861509, "lon": -47.1020802}, {"type": "node", "id": 9731255074, "lat": -22.9861448, "lon": -47.1020956}, {"type": "node", "id": 9731255075, "lat": -22.9861123, "lon": -47.1020824}, {"type": "node", "id": 9731255076, "lat": -22.9861041, "lon": -47.1021001}, {"type": "node", "id": 9731255077, "lat": -22.9860544, "lon": -47.1020759}, {"type": "node", "id": 9731255078, "lat": -22.9860411, "lon": -47.1020216}, {"type": "node", "id": 9731255079, "lat": -22.9860591, "lon": -47.1020628}, {"type": "node", "id": 9731255080, "lat": -22.9860358, "lon": -47.1020547}, {"type": "node", "id": 9731256404, "lat": -22.9853496, "lon": -47.1012512}, {"type": "node", "id": 9731256405, "lat": -22.9854598, "lon": -47.10128}, {"type": "node", "id": 9731256406, "lat": -22.9854626, "lon": -47.1012391}, {"type": "node", "id": 9731256407, "lat": -22.985358, "lon": -47.1012088}, {"type": "node", "id": 9737996355, "lat": -22.8316164, "lon": -47.0784252}, {"type": "node", "id": 9737996356, "lat": -22.8316208, "lon": -47.0783831}, {"type": "node", "id": 9791815007, "lat": -22.9177326, "lon": -47.0726815}, {"type": "node", "id": 9791815008, "lat": -22.9173749, "lon": -47.0730134}, {"type": "node", "id": 9791815009, "lat": -22.9177182, "lon": -47.0735448}, {"type": "node", "id": 9791815010, "lat": -22.9176743, "lon": -47.0735613}, {"type": "node", "id": 9791815011, "lat": -22.9176205, "lon": -47.073573}, {"type": "node", "id": 9791815012, "lat": -22.9175596, "lon": -47.0735769}, {"type": "node", "id": 9791815013, "lat": -22.9174977, "lon": -47.073574}, {"type": "node", "id": 9791815014, "lat": -22.9174117, "lon": -47.0735613}, {"type": "node", "id": 9791815015, "lat": -22.9173543, "lon": -47.073535}, {"type": "node", "id": 9791815016, "lat": -22.9172942, "lon": -47.073499}, {"type": "node", "id": 9791827517, "lat": -22.9172458, "lon": -47.0734688}, {"type": "node", "id": 9791827518, "lat": -22.9171929, "lon": -47.073409}, {"type": "node", "id": 9791827519, "lat": -22.917097, "lon": -47.0732426}, {"type": "node", "id": 9791827520, "lat": -22.9170934, "lon": -47.0732314}, {"type": "node", "id": 9791827521, "lat": -22.9170939, "lon": -47.0732226}, {"type": "node", "id": 9791827522, "lat": -22.9170988, "lon": -47.0732124}, {"type": "node", "id": 9791827523, "lat": -22.9171114, "lon": -47.073189}, {"type": "node", "id": 9791827524, "lat": -22.9170226, "lon": -47.0730786}, {"type": "node", "id": 9791827525, "lat": -22.9170141, "lon": -47.0730275}, {"type": "node", "id": 9791827526, "lat": -22.9170065, "lon": -47.0729691}, {"type": "node", "id": 9791827527, "lat": -22.9169984, "lon": -47.0729102}, {"type": "node", "id": 9791827528, "lat": -22.9169836, "lon": -47.0727983}, {"type": "node", "id": 9791827529, "lat": -22.9169832, "lon": -47.0727287}, {"type": "node", "id": 9791827530, "lat": -22.9169872, "lon": -47.0726766}, {"type": "node", "id": 9791827531, "lat": -22.9169944, "lon": -47.0726391}, {"type": "node", "id": 9791827532, "lat": -22.9170092, "lon": -47.072606}, {"type": "node", "id": 9791827533, "lat": -22.917028, "lon": -47.0725812}, {"type": "node", "id": 9791827534, "lat": -22.9170872, "lon": -47.0725219}, {"type": "node", "id": 9791827535, "lat": -22.9173117, "lon": -47.0723}, {"type": "node", "id": 9791827536, "lat": -22.9175385, "lon": -47.0720883}, {"type": "node", "id": 9791827537, "lat": -22.9175663, "lon": -47.0720659}, {"type": "node", "id": 9791827538, "lat": -22.9175892, "lon": -47.0720493}, {"type": "node", "id": 9791827539, "lat": -22.9176317, "lon": -47.0720279}, {"type": "node", "id": 9791827540, "lat": -22.9176842, "lon": -47.0720075}, {"type": "node", "id": 9791827541, "lat": -22.9177151, "lon": -47.0720931}, {"type": "node", "id": 9791827542, "lat": -22.9177254, "lon": -47.0721282}, {"type": "node", "id": 9791827543, "lat": -22.9177375, "lon": -47.0721559}, {"type": "node", "id": 9791827544, "lat": -22.9177568, "lon": -47.072189}, {"type": "node", "id": 9791827545, "lat": -22.9178209, "lon": -47.0722863}, {"type": "node", "id": 9791827546, "lat": -22.9178303, "lon": -47.0723068}, {"type": "node", "id": 9791827547, "lat": -22.9178312, "lon": -47.0723189}, {"type": "node", "id": 9791827548, "lat": -22.9178258, "lon": -47.0723321}, {"type": "node", "id": 9791827549, "lat": -22.917768, "lon": -47.0723871}, {"type": "node", "id": 9791827550, "lat": -22.9178446, "lon": -47.0724893}, {"type": "node", "id": 9791827551, "lat": -22.917872, "lon": -47.072464}, {"type": "node", "id": 9791827552, "lat": -22.9178832, "lon": -47.0724591}, {"type": "node", "id": 9791827553, "lat": -22.9178984, "lon": -47.0724625}, {"type": "node", "id": 9791827554, "lat": -22.9179119, "lon": -47.0724761}, {"type": "node", "id": 9791827555, "lat": -22.9179433, "lon": -47.0725267}, {"type": "node", "id": 9791827556, "lat": -22.9179657, "lon": -47.0725783}, {"type": "node", "id": 9791827557, "lat": -22.9179845, "lon": -47.0726766}, {"type": "node", "id": 9791827558, "lat": -22.9179908, "lon": -47.0727593}, {"type": "node", "id": 9791827559, "lat": -22.9179899, "lon": -47.0728333}, {"type": "node", "id": 9791827560, "lat": -22.9179836, "lon": -47.0729735}, {"type": "node", "id": 9798112982, "lat": -22.9000059, "lon": -47.053088}, {"type": "node", "id": 9798112983, "lat": -22.9002107, "lon": -47.0529733}, {"type": "node", "id": 9798112984, "lat": -22.900334, "lon": -47.0532328}, {"type": "node", "id": 9798112985, "lat": -22.9000514, "lon": -47.0533911}, {"type": "node", "id": 9800636497, "lat": -22.9000702, "lon": -47.0532232}, {"type": "node", "id": 9800636498, "lat": -22.8999923, "lon": -47.0532668}, {"type": "node", "id": 9807609314, "lat": -22.893683, "lon": -47.0751513, "tags": {"addr:city": "Campinas", "addr:housenumber": "1811", "addr:postcode": "13090000", "addr:street": "Avenida Andrade Neves", "addr:suburb": "Jardim Chapad\u00e3o", "amenity": "dentist", "healthcare": "dentist", "name": "Yappy Centro de Odontologia"}}, {"type": "node", "id": 9816402922, "lat": -22.8991583, "lon": -47.0630009}, {"type": "node", "id": 9816402923, "lat": -22.8997216, "lon": -47.0632263}, {"type": "node", "id": 9816402924, "lat": -22.8989606, "lon": -47.0629272}, {"type": "node", "id": 9816402925, "lat": -22.8986271, "lon": -47.0634247}, {"type": "node", "id": 9816402926, "lat": -22.8991521, "lon": -47.0638271}, {"type": "node", "id": 9816402927, "lat": -22.8992534, "lon": -47.0637801}, {"type": "node", "id": 9816402928, "lat": -22.8995944, "lon": -47.0638834}, {"type": "node", "id": 9816402929, "lat": -22.8998069, "lon": -47.0632611}, {"type": "node", "id": 9816523327, "lat": -22.9509283, "lon": -47.1900921}, {"type": "node", "id": 9816523328, "lat": -22.9516001, "lon": -47.1900035}, {"type": "node", "id": 9816523329, "lat": -22.9515594, "lon": -47.1900357}, {"type": "node", "id": 9816523330, "lat": -22.951505, "lon": -47.1900961}, {"type": "node", "id": 9816523331, "lat": -22.9513037, "lon": -47.1892968}, {"type": "node", "id": 9816523332, "lat": -22.9512389, "lon": -47.1892726}, {"type": "node", "id": 9816523333, "lat": -22.9509295, "lon": -47.1895945}, {"type": "node", "id": 9816523334, "lat": -22.9512728, "lon": -47.1892753}, {"type": "node", "id": 9816523335, "lat": -22.9513334, "lon": -47.1893263}, {"type": "node", "id": 9816523336, "lat": -22.9515878, "lon": -47.1898433}, {"type": "node", "id": 9816523337, "lat": -22.951647, "lon": -47.189974}, {"type": "node", "id": 9816523338, "lat": -22.9510481, "lon": -47.1906433}, {"type": "node", "id": 9816523339, "lat": -22.9509258, "lon": -47.1905346}, {"type": "node", "id": 9819040766, "lat": -22.9148045, "lon": -47.0648443}, {"type": "node", "id": 9819040767, "lat": -22.9147946, "lon": -47.0648818}, {"type": "node", "id": 9819040768, "lat": -22.9150028, "lon": -47.0649228}, {"type": "node", "id": 9819040769, "lat": -22.9149497, "lon": -47.0651199}, {"type": "node", "id": 9819040770, "lat": -22.9151201, "lon": -47.0651105}, {"type": "node", "id": 9832165536, "lat": -22.9162393, "lon": -47.0692317}, {"type": "node", "id": 9832165537, "lat": -22.9161417, "lon": -47.06917}, {"type": "node", "id": 9832165538, "lat": -22.9163134, "lon": -47.0692478}, {"type": "node", "id": 9832165539, "lat": -22.916889, "lon": -47.0676398}, {"type": "node", "id": 9832165540, "lat": -22.9162072, "lon": -47.0674306}, {"type": "node", "id": 9832165541, "lat": -22.9158144, "lon": -47.0686027}, {"type": "node", "id": 9873654464, "lat": -22.9181403, "lon": -47.0595784}, {"type": "node", "id": 9873654465, "lat": -22.9181416, "lon": -47.0595483}, {"type": "node", "id": 9873654466, "lat": -22.9181274, "lon": -47.0595355}, {"type": "node", "id": 9873654467, "lat": -22.9180903, "lon": -47.0595228}, {"type": "node", "id": 9873654473, "lat": -22.9170311, "lon": -47.0603308}, {"type": "node", "id": 9873654474, "lat": -22.9174535, "lon": -47.0608968}, {"type": "node", "id": 9873655955, "lat": -22.9181447, "lon": -47.0595617}, {"type": "node", "id": 9873680755, "lat": -22.9176228, "lon": -47.0593719}, {"type": "node", "id": 9873680756, "lat": -22.9175684, "lon": -47.0593826}, {"type": "node", "id": 9873680757, "lat": -22.917545, "lon": -47.0594054}, {"type": "node", "id": 9873680758, "lat": -22.9174795, "lon": -47.0595101}, {"type": "node", "id": 9873680759, "lat": -22.9174276, "lon": -47.0596026}, {"type": "node", "id": 9873680760, "lat": -22.9175128, "lon": -47.059451}, {"type": "node", "id": 9873680761, "lat": -22.9175919, "lon": -47.0593719}, {"type": "node", "id": 9882380906, "lat": -22.9041352, "lon": -47.0620021}, {"type": "node", "id": 9882380907, "lat": -22.9043799, "lon": -47.0618836}, {"type": "node", "id": 9882380908, "lat": -22.904556, "lon": -47.0623119}, {"type": "node", "id": 9882380909, "lat": -22.9045139, "lon": -47.0623323}, {"type": "node", "id": 9882380910, "lat": -22.9045618, "lon": -47.0624488}, {"type": "node", "id": 9882380911, "lat": -22.9043592, "lon": -47.062547}, {"type": "node", "id": 9882818608, "lat": -22.9041703, "lon": -47.0678578}, {"type": "node", "id": 9882818609, "lat": -22.9042114, "lon": -47.0678407}, {"type": "node", "id": 9882818610, "lat": -22.9042265, "lon": -47.0678423}, {"type": "node", "id": 9882818611, "lat": -22.9040362, "lon": -47.0691365}, {"type": "node", "id": 9882818612, "lat": -22.9042141, "lon": -47.0690446}, {"type": "node", "id": 9882818613, "lat": -22.9043068, "lon": -47.068999}, {"type": "node", "id": 9883062039, "lat": -22.904607, "lon": -47.0675969}, {"type": "node", "id": 9883062040, "lat": -22.9047478, "lon": -47.0687691}, {"type": "node", "id": 9883069048, "lat": -22.9044952, "lon": -47.0676613, "tags": {"entrance": "yes"}}, {"type": "node", "id": 9884724358, "lat": -22.9075647, "lon": -47.0547776}, {"type": "node", "id": 9884724359, "lat": -22.9075663, "lon": -47.0547927}, {"type": "node", "id": 9884724360, "lat": -22.9075703, "lon": -47.0548061}, {"type": "node", "id": 9884724361, "lat": -22.9078356, "lon": -47.0554207}, {"type": "node", "id": 9884724362, "lat": -22.9078455, "lon": -47.0554267}, {"type": "node", "id": 9884724363, "lat": -22.9078288, "lon": -47.0554093}, {"type": "node", "id": 9884724364, "lat": -22.9075724, "lon": -47.0547612}, {"type": "node", "id": 9884724365, "lat": -22.9082636, "lon": -47.0543461}, {"type": "node", "id": 9884724366, "lat": -22.9085385, "lon": -47.0550328}, {"type": "node", "id": 9884724367, "lat": -22.907856, "lon": -47.0554287}, {"type": "node", "id": 9884976186, "lat": -22.9030501, "lon": -47.0699157}, {"type": "node", "id": 9884976187, "lat": -22.9032252, "lon": -47.0703153}, {"type": "node", "id": 9884976188, "lat": -22.9027578, "lon": -47.0700652}, {"type": "node", "id": 9885085536, "lat": -22.8279607, "lon": -47.0693386}, {"type": "node", "id": 9886340822, "lat": -22.902967, "lon": -47.0705393}, {"type": "node", "id": 9886340823, "lat": -22.9024547, "lon": -47.0706286}, {"type": "node", "id": 9886340824, "lat": -22.9026381, "lon": -47.0701251}, {"type": "node", "id": 10209826818, "lat": -22.9009047, "lon": -47.0638098, "tags": {"addr:housenumber": "42", "addr:street": "Rua J\u00falio Frank", "amenity": "clinic", "name": "SMT Cl\u00ednica de Servi\u00e7os", "name:pt": "SMT Cl\u00ednica de Servi\u00e7os de Medicina do Trabalho"}}, {"type": "node", "id": 10594107526, "lat": -22.8916333, "lon": -47.0711114, "tags": {"addr:city": "Campinas", "addr:housenumber": "234", "addr:postcode": "13073-212", "addr:street": "Rua Barbosa de Andrade", "addr:suburb": "Jardim Guanabara", "amenity": "doctors", "healthcare": "doctor", "healthcare:speciality": "medicina_do_trabalho", "name": "Grupo TBS", "phone": "+55 19 31147900"}}, {"type": "node", "id": 10925033694, "lat": -22.8982531, "lon": -47.0687055, "tags": {"addr:city": "Campinas", "addr:housenumber": "610", "addr:postcode": "13020-430", "addr:street": "Avenida Bar\u00e3o de Itapura", "addr:suburb": "Vila Itapura", "amenity": "doctors", "contact:facebook": "https://www.facebook.com/alergoccampinas", "description": "Cl\u00ednica de Alergia, Imunologia e Especialidades M\u00e9dicas no Edif\u00edcio MedPlex Campinas.", "email": "alergocentrocampinas@gmail.com", "healthcare": "doctor", "healthcare:speciality": "alergista;imunologista;gastrocirurgi\u00e3o;gastropediatra;pediatra;neuropediatra;nutricionista_materno_infantil;psiquiatra;endocrinologista_pedi\u00e1trica", "level": "10\u00ba,sala_1007", "name": "Alergo Centro Campinas", "opening_hours": "Mo-Fr 08:00-17:00", "operator": "Edif\u00edcio MedPlex Campinas", "phone": "(19) 2018-7052 e (19) 98300-3333", "start_date": "01-06-2022", "website": "https://alergo-centro-campinas.negocio.site/?utm_source=gmb&utm_medium=referral", "wheelchair": "yes"}}, {"type": "node", "id": 10925100421, "lat": -22.8983227, "lon": -47.0687018, "tags": {"addr:city": "Campinas", "addr:housenumber": "610", "addr:postcode": "13020-430", "addr:street": "Avenida Bar\u00e3o de Itapura", "addr:suburb": "Vila Itapura", "amenity": "doctors", "contact:facebook": "https://www.facebook.com/draanaflaviabernardesalergista", "description": "Realiza\u00e7\u00e3o de consultas m\u00e9dicas presencial e por teleatendimento, al\u00e9m de exames relacionados a alergias respirat\u00f3rias e cut\u00e2neas. M\u00e9dica Assistente no Ambulat\u00f3rio de Alergia Alimentar e Esofagite Eosinof\u00edlica da UNICAMP.", "email": "anaflavia.bsousa@gmail.com", "healthcare": "doctor", "healthcare:speciality": "allergology", "level": "10\u00ba_sala_1007", "name": "Dra. Ana Flavia Bernardes - Alergista", "opening_hours": "Mo-Fr 08:00-17:00", "operator": "Edif\u00edcio MedPlex Campinas", "phone": "(19) 2018-7052 e (19) 98300-3333", "start_date": "11-12-2012", "website": "https://dra-ana-flavia-bernardes-alergista.negocio.site/", "wheelchair": "yes"}}, {"type": "node", "id": 11055875746, "lat": -22.9010694, "lon": -47.0558881}, {"type": "node", "id": 11090166681, "lat": -22.9063895, "lon": -47.0469008, "tags": {"addr:housenumber": "515", "addr:street": "Rua Bar\u00e3o de Paranapanema", "amenity": "veterinary", "email": "hpvo.princesa@gmail.com", "name": "Veterin\u00e1ria Princesa D'Oeste", "phone": "+55 19 2512 3306"}}, {"type": "node", "id": 11162021080, "lat": -22.8567529, "lon": -47.0553397, "tags": {"addr:city": "Campinas", "addr:housenumber": "39", "addr:postcode": "13087-727", "addr:street": "R. Paulo C\u00e9zar Fidelis", "addr:suburb": "Parque Alto Taquaral", "amenity": "doctors", "contact:facebook": "https://www.facebook.com/dranayarafraccari", "description": "Hoje atuo como Cardiologista em Campinas realizando consultas e exames de eletrocardiograma, MAPA e teste ergom\u00e9trico.", "healthcare": "doctor", "healthcare:speciality": "cardiology", "level": "6\u00ba", "mobile": "+55 19 99882-1080", "name": "Dra Nayara Fraccari, Cardiologista", "opening_hours": "Mo-Fr 09:00-17:00", "phone": "+55 19 99882-1080", "start_date": "03/01/2012", "website": "https://dra-nayara-fraccari-cardiologista.negocio.site/"}}, {"type": "way", "id": 147532513, "nodes": [9712796323, 9712796320, 9712796322, 1607435098, 9712796319, 9712796321, 1607435097, 9712796318, 9712796317, 9712796314, 1607435099, 9712796313, 9712796312, 9712796316, 9712796311, 9712796310, 9712796315, 9712796309, 9712796307, 1607435096, 9712796306, 9712796308, 9712796323], "tags": {"amenity": "clinic", "emergency": "no", "healthcare": "clinic", "name": "Posto de Sa\u00fade - Vila Uni\u00e3o"}}, {"type": "way", "id": 154548818, "nodes": [1670800170, 1670800173, 1670800176, 1670800177, 1670800170], "tags": {"addr:housenumber": "1725", "addr:postcode": "13010-142", "addr:street": "Avenida Benjamin Constant", "amenity": "hospital", "building": "hospital", "healthcare": "hospital", "healthcare:speciality": "cardiology", "name": "Hospital do Cora\u00e7\u00e3o de Campinas", "phone": "+55 19 3519 3829", "source": "Bing", "website": "https://hospitaldocoracao.com/"}}, {"type": "way", "id": 154548819, "nodes": [1670800191, 1670800194, 1670800197, 1670800200, 1670800207, 1670800208, 1670800210, 1670800212, 1670800214, 1670800219, 1670800222, 1670800226, 11055875746, 1670800230, 1670800191], "tags": {"addr:housenumber": "571", "addr:postcode": "13024-180", "addr:street": "Avenida J\u00falio de Mesquita", "addr:suburb": "Cambu\u00ed", "amenity": "hospital", "emergency": "yes", "healthcare": "hospital", "name": "Hospital Irm\u00e3os Penteado e Santa Casa", "operator": "Irmandade de Miseric\u00f3rdia de Campinas", "operator:type": "private_non_profit", "phone": "+55 19 2515 3100", "ref:CNES": "9867325", "ref:vatin": "BR18501766000115", "source": "Bing", "website": "https://santacasacampinas.com.br/"}}, {"type": "way", "id": 157779532, "nodes": [1700436578, 9135598267, 9135598268, 9135598269, 9135598270, 9135598271, 1700436573, 1700436580, 1700436566, 1700436578], "tags": {"addr:city": "Campinas", "addr:housenumber": "38", "addr:street": "Rua Luiz Ant\u00f4nio de Assun\u00e7\u00e3o Leite", "addr:suburb": "Vila Proost", "amenity": "clinic", "building": "yes", "emergency": "no", "emergency_telephone_code": "+551932435182", "link": "http://sistema.saude.sp.gov.br/consulta_cnes/", "name": "Posto de Sa\u00fade - Jardim Aur\u00e9lia", "opening_hours": "07:00-19:00", "operator:type": "public"}}, {"type": "way", "id": 256670127, "nodes": [2623061788, 4699213426, 5191983951, 7730683247, 7730683244, 7730683243, 8711011348, 7730726421, 4118977675, 4118977672, 4118977678, 7730726420, 4118977680, 7730683245, 7730683246, 915413847, 5191946929, 5366509487, 5366509488, 5366509491, 2623061791, 2623061792, 7730683241, 7730683242, 5366509438, 7730726437, 7730726435, 7730726436, 7730726434, 2623061788], "tags": {"amenity": "hospital", "emergency": "yes", "healthcare": "hospital", "name": "Hospital das Cl\u00ednicas", "short_name": "HC", "website": "https://www.hc.unicamp.br/"}}, {"type": "way", "id": 284933924, "nodes": [1557585296, 8144938271, 2933355706, 2886373323, 2886373324, 2933355707, 2886373325, 2886373326, 1557585163, 1557585296], "tags": {"amenity": "hospital", "emergency": "no", "healthcare": "hospital", "name": "Centro de Sa\u00fade S\u00e3o Marcos"}}, {"type": "way", "id": 285569177, "nodes": [2892304293, 2892304301, 2892304302, 2892304303, 2892304304, 2892304295, 2892304294, 2892304293], "tags": {"addr:city": "Campinas", "addr:country": "BR", "addr:housenumber": "670", "addr:postcode": "13068-219", "addr:street": "Avenida Papa Jo\u00e3o Paulo II", "addr:suburb": "Vila Padre Anchieta", "amenity": "hospital", "contact:email": "saude.pspadreanchieta@campinas.sp.gov.br", "contact:phone": "+5519 3282 6478;+55 19 3281 6635", "email": "pspadreanchieta@gmail.com", "emergency": "yes", "healthcare": "hospital", "healthcare:speciality": "general;paediatrics", "name": "Pronto Atendimento de Sa\u00fade Vila Padre Anchieta", "phone": "+55 19 3281 3170"}}, {"type": "way", "id": 317265374, "nodes": [3235148359, 3235148360, 3235151161, 3235151162, 3235151163, 3235148359], "tags": {"addr:city": "Campinas", "addr:housenumber": "1400", "addr:postcode": "13056-399", "addr:street": "Rua Igarap\u00e9", "addr:suburb": "DIC I", "amenity": "clinic", "building": "yes", "healthcare": "clinic", "name": "Centro de Sa\u00fade DIC I", "smoking": "outside"}}, {"type": "way", "id": 317276466, "nodes": [3235231481, 3243837177, 3235235864, 3243837178, 3243837179, 3235235863, 3243837181, 3243837180, 3243837183, 3243837182, 3243837184, 3235231482, 3235235862, 3235294069, 3235294070, 3235294074, 3235294071, 3235294073, 3235294076, 3235294075, 3235294077, 3235294078, 3235294072, 3235291546, 3235291545, 3235231483, 3235291544, 3235231484, 3235231485, 3235231486, 3235231487, 3252971676, 3252971675, 3235231488, 3243837187, 3243837188, 3243837190, 3243837189, 3243837191, 3243837192, 3243837185, 3243837186, 3235235865, 3235231481], "tags": {"addr:city": "Campinas", "addr:housenumber": "3434", "addr:postcode": "13060-646", "addr:street": "Avenida Ruy Rodrigues", "addr:suburb": "Jardim Yeda", "amenity": "hospital", "emergency": "yes", "healthcare": "hospital", "name": "Complexo Hospitalar Prefeito Edivaldo Orsi", "old_name": "Complexo Hospitalar Ouro Verde", "operator": "SDPM", "operator:ref:vatin": "BR47018676000176", "phone": "+55 19 3306 3525", "ref:CNES": "6053858", "source": "https://www.spdm.org.br/onde-estamos/hospitais/complexo-hospitalar-ouro-verde-campinas"}}, {"type": "way", "id": 318724642, "nodes": [3250954372, 3250954373, 3250954375, 3250954376, 3250954372], "tags": {"addr:city": "Campinas", "addr:postcode": "13070-091", "addr:street": "Avenida Papa Pio XII", "addr:suburb": "Jardim Chapad\u00e3o", "amenity": "hospital", "healthcare": "hospital", "name": "Posto Medico Militar de Campinas"}}, {"type": "way", "id": 323731642, "nodes": [3305148361, 3305148362, 3305148363, 3305148364, 3305148361], "tags": {"addr:city": "Campinas", "addr:street": "Avenida Coacyara", "amenity": "pharmacy", "building": "yes", "healthcare": "pharmacy"}}, {"type": "way", "id": 383713408, "nodes": [3870155703, 3870155704, 3870155705, 3870155706, 3870155707, 3870155703], "tags": {"addr:city": "Campinas", "addr:housenumber": "50", "addr:postcode": "13060-484", "addr:street": "Rua S\u00e3o Benedito", "addr:suburb": "Jardim Santa L\u00facia", "amenity": "clinic", "emergency": "no", "healthcare": "clinic", "name": "Posto de Sa\u00fade Jardim Santa L\u00facia", "operator": "Prefeitura Municipal de Campinas - Secretaria da Saude"}}, {"type": "way", "id": 404606169, "nodes": [4068903157, 9819040767, 9819040766, 9819040768, 9819040769, 4068903158, 9819040770, 4156225289, 4068903159, 4068903160, 4068903161, 4068903162, 4068903163, 4068903164, 4068903157], "tags": {"addr:city": "Campinas", "addr:housenumber": "369", "addr:street": "Rua S\u00e3o Carlos", "addr:suburb": "Vila Industrial", "amenity": "hospital", "healthcare": "hospital", "name": "Centro do Cora\u00e7\u00e3o", "phone": "+55-19-32727000", "ref:CNES": "2084325", "ref:vatin": "BR07034709000157"}}, {"type": "way", "id": 404727749, "nodes": [4069975908, 4069975909, 4267563210, 4267563211, 4069975910, 4069975911, 5221359327, 5221359326, 4069975908], "tags": {"addr:city": "Campinas", "addr:housenumber": "311", "addr:postcode": "13084-759", "addr:street": "Rua Alberto de Salvo", "addr:suburb": "Barao Geraldo", "amenity": "hospital", "emergency": "yes", "healthcare": "hospital", "name": "Centro de Oncologia Campinas", "ref:CNES": "3186407", "ref:vatin": "BR61709481000101", "website": "https://oncologia.com.br/"}}, {"type": "way", "id": 432450447, "nodes": [4069975897, 4314962481, 4314962482, 4314962483, 9737996356, 9737996355, 4069975897], "tags": {"addr:city": "Campinas", "addr:housenumber": "856", "addr:postcode": "13084-008", "addr:street": "Avenida Albino Jos\u00e9 Barbosa de Oliveira", "addr:suburb": "Barao Geraldo", "amenity": "doctors", "building": "yes", "building:levels": "2", "description": "Benavitta \u2013 Preven\u00e7\u00e3o e Sa\u00fade (by Loema)", "healthcare": "doctor", "name": "Benavitta", "phone": "+551933678600", "website": "http://benavitta.com.br/"}}, {"type": "way", "id": 455631066, "nodes": [4520056681, 4520056682, 4520056683, 4520056684, 2596047154, 4520056681], "tags": {"addr:city": "Campinas", "addr:housenumber": "125", "addr:postcode": "13053-636", "addr:street": "Rua V\u00edtor Baranauskas Filho", "addr:suburb": "Jardim Fernanda", "amenity": "hospital", "emergency": "no", "healthcare": "hospital", "name": "Posto de Sa\u00fade jardim Fernanda", "operator:ref:vatin": "BR51885242000140", "ref:CNES": "6032338"}}, {"type": "way", "id": 505169116, "nodes": [4951828659, 4951828660, 4951828661, 4951828662, 4951828663, 4951828664, 4951828665, 4951828666, 4951828667, 4951828659], "tags": {"amenity": "clinic", "building": "yes", "healthcare": "clinic"}}, {"type": "way", "id": 505169350, "nodes": [4951830971, 4951830972, 4951830973, 4951830974, 4951830971], "tags": {"amenity": "clinic", "building": "yes", "healthcare": "clinic"}}, {"type": "way", "id": 535358096, "nodes": [5189446011, 5189446012, 5189446013, 5189446014, 5189446011], "tags": {"amenity": "hospital", "healthcare": "hospital", "name": "Hospital e Maternidade Madre Theodora"}}, {"type": "way", "id": 537114945, "nodes": [5201872277, 5201872278, 5201872279, 5201872280, 5201872281, 5201872282, 5201872283, 5201872284, 5201872285, 9885085536, 5201872287, 5201872288, 5201872289, 5201872277], "tags": {"amenity": "hospital", "healthcare": "hospital", "name": "SOBRAPAR - Instituto de Cirurgia Pl\u00e1stica Cr\u00e2nio Facial"}}, {"type": "way", "id": 538743968, "nodes": [5214154829, 5214154830, 5214154831, 5214154832, 5214154829], "tags": {"addr:street": "Avenida Albino Jos\u00e9 Barbosa de Oliveira", "amenity": "clinic", "building": "yes", "healthcare": "clinic", "name": "Posto de Sa\u00fade - At\u00edlio Vicentin", "opening_hours": "Mo-Fr 07:00-21:00"}}, {"type": "way", "id": 539418559, "nodes": [5219639798, 6350339151, 6350339152, 9698414489, 6350339153, 6350339154, 6350339155, 6350339156, 9698414488, 6350339157, 5219639799, 9698414487, 5219639800, 5219639802, 9689917939, 9689917938, 5219639798], "tags": {"amenity": "hospital", "healthcare": "hospital", "name": "Boldrini"}}, {"type": "way", "id": 539418560, "nodes": [5219639804, 5219639805, 5219639806, 9689913187, 9689913188, 9689913189, 9689913190, 9689913191, 5219639807, 5219639808, 5219639809, 9689913186, 9689913179, 9689913181, 9689913183, 9689913185, 9689913184, 9689913182, 5219639810, 5219639811, 5219639812, 5219639804], "tags": {"amenity": "hospital", "healthcare": "hospital", "name": "Centro M\u00e9dico de Campinas"}}, {"type": "way", "id": 546712957, "nodes": [5283056040, 5283056043, 5283056044, 5283056045, 5283056041, 5283056042, 5283056040], "tags": {"addr:city": "Campinas", "addr:housenumber": "200", "addr:postcode": "13023-075", "addr:street": "Avenida Brasil", "addr:suburb": "Vila Itapura", "amenity": "hospital", "emergency": "yes", "healthcare": "hospital", "healthcare:speciality": "dentistry", "name": "Uniodonto Campinas", "phone": "+55 19 3322-4000", "ref:CNES": "6066372", "ref:vatin": "BR51304798000104", "website": "https://www.uniodontocampinas.com.br/"}}, {"type": "way", "id": 556321055, "nodes": [5366509494, 5366509495, 5366509496, 5366509497, 5366509476, 5366509473, 5366509472, 5366509471, 5366509498, 5366509499, 5366509500, 5366509467, 5366509466, 5366509465, 5366509464, 5366509462, 5366509461, 5366509448, 5366509494], "tags": {"amenity": "hospital", "healthcare": "hospital"}}, {"type": "way", "id": 556327706, "nodes": [5366585640, 5366585637, 5366585638, 5366585639, 5366585640], "tags": {"amenity": "hospital", "healthcare": "hospital", "name": "Hospital Dia", "website": "https://www.hc.unicamp.br/node/76"}}, {"type": "way", "id": 562288735, "nodes": [5420735178, 5420735179, 5420735180, 5420735181, 5420735178], "tags": {"addr:city": "Campinas", "addr:street": "Avenida Moraes Sales", "amenity": "clinic", "building": "yes", "healthcare": "clinic", "name": "Amil", "operator": "Amil"}}, {"type": "way", "id": 605604157, "nodes": [5743530648, 5743530649, 5743530650, 5743530651, 5743530648], "tags": {"addr:city": "Campinas", "addr:housenumber": "127", "addr:postcode": "13097-670", "addr:street": "Rodovia Dom Pedro I", "addr:suburb": "Jardim Nil\u00f3polis", "amenity": "pharmacy", "building": "yes", "dispensing": "yes", "healthcare": "pharmacy", "name": "Carrefour Drogaria Campinas D. Pedro"}}, {"type": "way", "id": 627162729, "nodes": [5920553074, 5920553075, 5920553076, 5920553077, 5920553078, 5920553079, 5920553074], "tags": {"amenity": "clinic", "building": "yes", "healthcare": "clinic", "name": "Esta\u00e7\u00e3o Boldrini"}}, {"type": "way", "id": 627167447, "nodes": [5920601450, 5920601451, 5920601452, 5920601453, 5920601450], "tags": {"amenity": "social_facility", "building": "yes", "name": "Casa Florida", "social_facility": "nursing_home", "social_facility:for": "senior"}}, {"type": "way", "id": 633390101, "nodes": [5978943607, 5978943608, 5978943609, 5978943610, 5978943611, 5978943613, 5978943607], "tags": {"amenity": "pharmacy", "building": "yes", "dispensing": "yes", "healthcare": "pharmacy"}}, {"type": "way", "id": 639858067, "nodes": [6028629601, 6028629602, 6028629603, 6028629604, 6028629605, 6028629601], "tags": {"amenity": "pharmacy", "brand": "Drogasil", "brand:wikidata": "Q5308185", "brand:wikipedia": "pt:Drogasil", "building": "yes", "dispensing": "yes", "healthcare": "pharmacy", "height": "7.7", "name": "Drogasil", "wheelchair": "yes"}}, {"type": "way", "id": 643194361, "nodes": [6053439023, 6053439024, 6053439025, 6053439026, 6053439027, 6053439028, 6053439029, 6053439030, 6053439023], "tags": {"amenity": "clinic", "building": "yes", "healthcare": "clinic", "name": "Posto de sa\u00fade Santo Antonio"}}, {"type": "way", "id": 681530665, "nodes": [6382443429, 6382443430, 6382443431, 6382443432, 6382443429], "tags": {"addr:city": "Campinas", "addr:street": "Avenida Santa Genebra", "addr:suburb": "Jardim Santa Genebra", "amenity": "dentist", "building": "yes", "healthcare": "dentist", "healthcare:speciality": "dentistry", "name": "Odontoclinic", "opening_hours": "Mo-Fr 08:00-17:00", "payment:cash": "yes", "payment:credit_cards": "yes", "payment:debit_cards": "yes", "payment:mastercard": "yes", "payment:visa": "yes"}}, {"type": "way", "id": 706820708, "nodes": [6641981504, 6641981503, 6641981502, 6641981501, 6641981500, 6641981497, 6641981496, 6641981499, 6641981495, 6641981494, 6641981498, 6641981504], "tags": {"amenity": "clinic", "healthcare": "clinic"}}, {"type": "way", "id": 785098113, "nodes": [7335079146, 7335079147, 7335079148, 7335079149, 7335079146], "tags": {"addr:housenumber": "1444", "addr:postcode": "13020-432", "addr:street": "Avenida Bar\u00e3o de Itapura", "addr:suburb": "Jardim Guanabara", "amenity": "hospital", "emergency": "yes", "healthcare": "hospital", "healthcare:speciality": "general;gynaecology;paediatrics;orthopaedics", "name": "Hospital Renascen\u00e7a Campinas", "operator": "Grupo NotreDame Interm\u00e9dica (GNDI)", "operator:type": "private", "phone": "+55 19 3727 5200", "ref:CNES": "7044666", "ref:vatin": "BR44649812019238", "website": "http://www.renascencacampinas.com.br"}}, {"type": "way", "id": 794217723, "nodes": [7428209524, 7428209525, 7428209526, 7428209527, 7428209528, 7428209529, 7428209530, 7428209531, 7428209532, 7428209533, 7428209534, 7428209535, 7428209536, 7428209537, 7428209538, 7428209539, 7428209540, 7428209541, 7428209542, 7428209543, 7428209544, 7428209545, 7428209546, 7428209547, 7428209548, 7428209549, 7428209550, 7428209551, 7428209552, 7428209553, 7428209554, 7428209524], "tags": {"addr:housenumber": "256", "addr:postcode": "13040-565", "addr:street": "Avenida S\u00e3o Jos\u00e9 dos Campos", "addr:suburb": "Jardim Nova Europa", "amenity": "hospital", "emergency": "yes", "healthcare": "hospital", "healthcare:speciality": "maternity;paediatrics;gynaecology;obstetrics", "name": "Hospital Samaritano", "phone": "+55 19 3738 8100", "website": "http://www.samaritanosaude.com.br/rede/campinas2"}}, {"type": "way", "id": 812621466, "nodes": [7590085392, 7590085393, 7590085394, 7590085395, 7590085392], "tags": {"addr:street": "Rua Roodnei Ricci", "air_conditioning": "yes", "amenity": "clinic", "building": "yes", "healthcare": "clinic", "name": "centro de saude s\u00e3o cristov\u00e3o", "wheelchair": "yes"}}, {"type": "way", "id": 840656980, "nodes": [7844348542, 7844348543, 7844348544, 7844348545, 7844348546, 7844348542], "tags": {"amenity": "pharmacy", "building": "yes", "dispensing": "yes", "healthcare": "pharmacy"}}, {"type": "way", "id": 884416590, "nodes": [8224738073, 8224738074, 8224738075, 8224738076, 8224738077, 8224738080, 8224738073], "tags": {"addr:city": "Campinas", "addr:housenumber": "330", "addr:postcode": "13092-123", "addr:street": "Avenida Jos\u00e9 de Souza Campos", "amenity": "pharmacy", "brand": "Drogasil", "brand:wikidata": "Q5308185", "brand:wikipedia": "pt:Drogasil", "building": "yes", "dispensing": "yes", "healthcare": "pharmacy", "height": "4", "name": "Drogasil", "opening_hours": "Mo- Su,PH 07:00-23:00", "phone": "+55 19 3253-7364", "wheelchair": "yes"}}, {"type": "way", "id": 884416592, "nodes": [8224738081, 8224738082, 8224738083, 8224738090, 8224738088, 8224738089, 8224738081], "tags": {"addr:city": "Campinas", "addr:housenumber": "380", "addr:postcode": "13092-123", "addr:street": "Avenida Jos\u00e9 de Souza Campos", "amenity": "pharmacy", "brand": "Drogaria S\u00e3o Paulo", "brand:wikidata": "Q5308184", "brand:wikipedia": "en:Grupo DPSP", "building": "yes", "dispensing": "yes", "healthcare": "pharmacy", "height": "5", "name": "Drogaria S\u00e3o Paulo"}}, {"type": "way", "id": 959818113, "nodes": [8880579532, 8880579531, 9024265413, 9882818611, 9882818612, 9882818613, 8880579557, 1833666083, 8880579568, 8880589299, 8880589298, 8880589297, 8880579576, 8880579577, 9882818610, 9882818609, 9882818608, 8880579533, 8880579532], "tags": {"amenity": "hospital", "healthcare": "hospital", "healthcare:speciality": "general", "name": "Benefic\u00eancia Portuguesa"}}, {"type": "way", "id": 959822895, "nodes": [9883062040, 1645056308, 8880614997, 9883069048, 9883062039, 8880614998, 8880614999, 9883062040], "tags": {"addr:housenumber": "495", "addr:street": "Rua Onze de Agosto", "amenity": "hospital", "healthcare": "hospital", "name": "Hospital Vera Cruz", "phone": "+55 19 3734 3000", "website": "http://www.hospitalveracruz.com.br", "wikidata": "Q10298505"}}, {"type": "way", "id": 983593271, "nodes": [9094247325, 9094247326, 9094247327, 9094247328, 9094247329, 9094247330, 9094247325], "tags": {"addr:city": "Campinas", "addr:housenumber": "s/n", "addr:street": "Rua Joaquim Manoel de Macedo", "addr:suburb": "Vila Costa e Silva", "amenity": "clinic", "building": "yes", "healthcare": "clinic", "name": "Centro de Sa\u00fade da Vila Costa e Silva (\"Dr. Luiz de Tella\")", "operator": "Prefeitura Municipal de Campinas", "operator:type": "government"}}, {"type": "way", "id": 983593273, "nodes": [9094247335, 9094247336, 9094247337, 9094247338, 9094247339, 9094247335], "tags": {"amenity": "pharmacy", "building": "yes", "dispensing": "yes", "healthcare": "pharmacy", "name": "Drograria Santa Genebra"}}, {"type": "way", "id": 1034666285, "nodes": [9531302754, 9531302755, 9531302756, 9531302757, 9531302758, 9531302759, 9531302754], "tags": {"addr:housenumber": "681", "addr:street": "Avenida Ant\u00f4nio Carlos Couto de Barros", "addr:suburb": "Jardim S\u00e3o Francisco", "amenity": "pharmacy", "brand": "Drogasil", "brand:wikidata": "Q5308185", "brand:wikipedia": "pt:Drogasil", "building": "yes", "dispensing": "yes", "drive_through": "no", "healthcare": "pharmacy", "name": "Drogasil", "opening_hours": "24/7", "wheelchair": "yes"}}, {"type": "way", "id": 1053182350, "nodes": [9678695650, 9678695651, 9678695652, 9678695653, 9678695650], "tags": {"amenity": "clinic", "building": "yes", "healthcare": "clinic", "name": "Centro de Sa\u00fade - Jaime C\u00e9sar Correa Lima (Parque da Figueira)"}}, {"type": "way", "id": 1054423746, "nodes": [5219639804, 9689917925, 6350339164, 9689917922, 9689917928, 6350339162, 9689917923, 6350339165, 6350339166, 6350339167, 6350339168, 6350339169, 9689913190, 9689913189, 9689913188, 9689913187, 5219639806, 5219639805, 5219639804], "tags": {"amenity": "hospital", "healthcare": "hospital"}}, {"type": "way", "id": 1056228266, "nodes": [9705286438, 9705286439, 9705286440, 9705286441, 9705286442, 9705286443, 9705286438], "tags": {"addr:city": "Campinas", "addr:housenumber": "82", "addr:postcode": "13105-552", "addr:street": "Rua Ant\u00f4nio Giusepe Beltramelli", "addr:suburb": "Vila Bourbon (Sousas)", "amenity": "hospital", "contact:phone": "01932585993", "contact:website": "https://www.centromedicodesousas.com.br/", "healthcare": "hospital", "name": "Centro M\u00e9dico De Sousas"}}, {"type": "way", "id": 1057978116, "nodes": [9721328156, 9721328157, 9721328158, 9721328159, 9721328160, 9721328161, 9721328162, 9721328163, 9721328156], "tags": {"addr:housenumber": "297", "addr:postcode": "13082-125", "addr:street": "Rua Olivio Manuel de Camargo", "addr:suburb": "Santa M\u00f4nica", "amenity": "clinic", "building": "yes", "healthcare": "clinic", "name": "Centro de Sa\u00fade Jardim Santa Monica", "opening_hours": "Mo-Fr 07:00-19:00; Sa,Su,PH off", "phone": "+55 19 3246 1072"}}, {"type": "way", "id": 1059090018, "nodes": [9731255065, 9731255066, 9731255067, 9731255068, 9731255069, 9731255070, 9731255071, 9731255072, 9731255073, 9731255074, 9731255075, 9731255076, 9731255077, 9731255079, 9731255080, 9731255078, 9731255065], "tags": {"addr:housenumber": "368", "addr:postcode": "13052-576", "addr:street": "Rua Ant\u00f4nio Carlos Folegatti", "addr:suburb": "Jardim San Diego", "amenity": "clinic", "building": "yes", "healthcare": "clinic", "healthcare:speciality": "general;vaccination;paediatrics;gynaecology", "loc_name": "Centro de Sa\u00fade Jardim San Diego", "name": "Centro de Sa\u00fade Geraldo Elias", "opening_hours": "Mo-Fr 08:00-17:00; Sa,Su,PH off", "phone": "+55 19 3269 3491", "ref": "CNES-9294481", "source": "CNES"}}, {"type": "way", "id": 1059091182, "nodes": [9731256404, 9731256405, 9731256406, 9731256407, 9731256404], "tags": {"addr:street": "Rua Gesulmino Lizard", "addr:suburb": "Jardim San Diego", "amenity": "pharmacy", "building": "yes", "dispensing": "yes", "healthcare": "pharmacy", "name": "Drogaria San Diego"}}, {"type": "way", "id": 1066316150, "nodes": [9791827560, 9791827559, 9791827558, 9791827557, 9791827556, 9791827555, 9791827554, 9791827553, 9791827552, 9791827551, 9791827550, 5916647186, 9791827549, 9791827548, 9791827547, 9791827546, 9791827545, 9791827544, 9791827543, 9791827542, 9791827541, 9791827540, 9791827539, 9791827538, 9791827537, 9791827536, 9791827535, 9791827534, 9791827533, 9791827532, 9791827531, 9791827530, 9791827529, 9791827528, 9791827527, 9791827526, 9791827525, 9791827524, 9791827523, 9791827522, 9791827521, 9791827520, 9791827519, 9791827518, 9791827517, 9791815016, 9791815015, 9791815014, 9791815013, 9791815012, 9791815011, 9791815010, 9791815009, 9791815008, 9791815007, 9791827560], "tags": {"amenity": "hospital", "healthcare": "hospital", "name": "Hospital", "name:pt": "Instituto de Preven\u00e7\u00e3o Hospital de Amor"}}, {"type": "way", "id": 1067103971, "nodes": [9798112985, 9798112984, 4559198495, 9798112983, 9798112982, 9800636497, 9800636498, 9798112985], "tags": {"addr:housenumber": "1991", "addr:postcode": "13025-005", "addr:street": "Avenida Benjamin Constant", "addr:suburb": "Cambu\u00ed", "amenity": "hospital", "healthcare": "hospital", "name": "Campinas Day Hospital", "ref:CNES": "3109216", "ref:vatin": "BR02965843000158"}}, {"type": "way", "id": 1069486621, "nodes": [9816402929, 9816402928, 9816402927, 9816402926, 9816402925, 9816402924, 9816402922, 1607085667, 9816402923, 9816402929], "tags": {"addr:street": "Avenida Orosimbo Maia", "amenity": "hospital", "contact:phone": "019 3306 6000", "healthcare": "hospital", "name": "Maternidade de Campinas", "wikidata": "Q10327324"}}, {"type": "way", "id": 1069501962, "nodes": [9816523339, 9816523338, 9816523330, 9816523329, 9816523328, 9816523337, 9816523336, 9816523335, 9816523331, 9816523334, 9816523332, 5046258422, 9816523333, 9816523327, 9816523339], "tags": {"addr:street": "Rua Manoel Machado Pereira", "amenity": "hospital", "healthcare": "hospital", "name": "UPA - Pronto Atendimento Doutor S\u00e9rgio Arouca Campo Grande", "name:pt": "UPA Campo Grande", "phone": "19 32218505"}}, {"type": "way", "id": 1071415300, "nodes": [9832165541, 3664805141, 9832165540, 9832165539, 9832165538, 9832165536, 9832165537, 9832165541], "tags": {"addr:city": "Campinas", "addr:housenumber": "340", "addr:postcode": "13036-902", "addr:street": "Avenida Prefeito Faria Lima", "addr:suburb": "Parque It\u00e1lia", "amenity": "hospital", "email": "imprensa@hmmg.sp.gov.br", "emergency": "yes", "healthcare": "hospital", "name": "Hospital Municipal Doutor Mario Gatti", "operator": "Municipal", "operator:ref:vatin": "BR47018676000176", "phone": "+55 19 3772 5700", "ref:CNES": "2081490", "website": "http://www.hmmg.sp.gov.br/"}}, {"type": "way", "id": 1076748020, "nodes": [9873654474, 9873654473, 9873680759, 9873680758, 9873680760, 9873680757, 9873680756, 9873680761, 9873680755, 5728964521, 9873654467, 9873654466, 9873654465, 9873655955, 9873654464, 9873654474], "tags": {"amenity": "hospital", "healthcare": "hospital", "name": "Hospital Samaritano Campinas"}}, {"type": "way", "id": 1077861681, "nodes": [9882380911, 9882380910, 9882380909, 9882380908, 9882380907, 9882380906, 6379754644, 9882380911], "tags": {"addr:city": "Campinas", "addr:housenumber": "804", "addr:postcode": "13010-151", "addr:street": "Rua Bernardino de Campos", "addr:suburb": "Centro", "amenity": "hospital", "healthcare": "hospital", "name": "Hospital e Maternidade Santa Tereza", "ref:CNES": "2081938", "ref:vatin": "BR51879500000186"}}, {"type": "way", "id": 1078161258, "nodes": [9884724367, 9884724366, 7726371185, 9884724365, 9884724364, 9884724358, 9884724359, 9884724360, 1704640226, 9884724363, 9884724361, 9884724362, 9884724367], "tags": {"addr:housenumber": "28", "addr:postcode": "13015-240", "addr:street": "Rua Duque de Caxias", "alt_name": "Centro de Saude", "amenity": "hospital", "emergency": "yes", "healthcare": "hospital", "internet_access": "wlan", "name": "Casa de Sa\u00fade Campinas", "name:pt": "Vera Cruz\u00a0- Casa de Sa\u00fade Campinas", "opening_hours": "24/7", "phone": "55 19 37363400", "ref:CNES": "2081946", "ref:vatin": "BR46009718001030", "website": "http://www.casadesaudecampinas.com.br/", "wikidata": "Q9698341"}}, {"type": "way", "id": 1078184676, "nodes": [9884976188, 8987545751, 9886340824, 8872621749, 8872621746, 8872627801, 9886340823, 8872702535, 8872702536, 8872702530, 8872702533, 9886340822, 8872702525, 8872702524, 8872702529, 8872702518, 8872702523, 8872702522, 8872702521, 9884976187, 8872621759, 8872621758, 9884976186, 1616184097, 9884976188], "tags": {"addr:housenumber": "683", "addr:street": "Avenida Andrade Neves", "alt_name": "Intituto de Olhos Penido Burnier", "amenity": "hospital", "emergency": "yes", "healthcare": "hospital", "name": "Instituto Penido Burnier", "website": "https://www.penidoburnier.com.br/"}}]}