{"version": 0.6, "generator": "Overpass API 0.7.61.5 4133829e", "osm3s": {"timestamp_osm_base": "2023-09-28T01:18:57Z", "copyright": "The data included in this document is from www.openstreetmap.org. The data is made available under ODbL."}, "elements": [{"type": "node", "id": 1102452092, "lat": -22.816963, "lon": -47.0688107}, {"type": "node", "id": 1102452137, "lat": -22.8168332, "lon": -47.068629}, {"type": "node", "id": 1102452140, "lat": -22.8168233, "lon": -47.0687088}, {"type": "node", "id": 1102452158, "lat": -22.8168851, "lon": -47.0685713}, {"type": "node", "id": 1102452196, "lat": -22.8169941, "lon": -47.0685715}, {"type": "node", "id": 1102452215, "lat": -22.8168549, "lon": -47.0685956}, {"type": "node", "id": 1102452236, "lat": -22.8170459, "lon": -47.0687406}, {"type": "node", "id": 1102452255, "lat": -22.8170232, "lon": -47.0685948}, {"type": "node", "id": 1102452279, "lat": -22.8170564, "lon": -47.068703}, {"type": "node", "id": 1102452292, "lat": -22.8169584, "lon": -47.0685587}, {"type": "node", "id": 1102452337, "lat": -22.8170254, "lon": -47.0687729}, {"type": "node", "id": 1102452339, "lat": -22.8170445, "lon": -47.0686266}, {"type": "node", "id": 1102452373, "lat": -22.816836, "lon": -47.0687472}, {"type": "node", "id": 1102452374, "lat": -22.8168593, "lon": -47.0687793}, {"type": "node", "id": 1102452377, "lat": -22.8169208, "lon": -47.0685586}, {"type": "node", "id": 1102452379, "lat": -22.8170559, "lon": -47.0686638}, {"type": "node", "id": 1102452408, "lat": -22.8169969, "lon": -47.0687971}, {"type": "node", "id": 1102452418, "lat": -22.8168223, "lon": -47.068668}, {"type": "node", "id": 1102452421, "lat": -22.8169269, "lon": -47.0688126}, {"type": "node", "id": 1403336267, "lat": -22.8900861, "lon": -47.077442, "tags": {"amenity": "bank", "branch": "S A", "brand": "Ita\u00fa Unibanco", "brand:wikidata": "Q1424293", "name": "Ita\u00fa"}}, {"type": "node", "id": 1403336269, "lat": -22.8900762, "lon": -47.0778068, "tags": {"amenity": "bank", "brand": "Banco do Brasil", "brand:wikidata": "Q610817", "name": "Banco do Brasil"}}, {"type": "node", "id": 1403336275, "lat": -22.8891277, "lon": -47.0799405, "tags": {"addr:housenumber": "288", "addr:street": "Avenida Jo\u00e3o Erbolato", "amenity": "post_office", "name": "ACF Jardim Chapad\u00e3o"}}, {"type": "node", "id": 1553133815, "lat": -22.9196228, "lon": -47.109064, "tags": {"amenity": "bank", "atm": "yes", "brand": "Bradesco", "brand:wikidata": "Q806181", "brand:wikipedia": "en:Banco Bradesco", "name": "Bradesco", "source": "Telelistas"}}, {"type": "node", "id": 1594736107, "lat": -22.8903608, "lon": -47.0634115, "tags": {"amenity": "bank", "atm": "yes", "brand": "Caixa Econ\u00f4mica Federal", "brand:wikidata": "Q835283", "brand:wikipedia": "pt:Caixa Econ\u00f4mica Federal", "name": "Caixa Econ\u00f4mica Federal"}}, {"type": "node", "id": 1594736132, "lat": -22.8882256, "lon": -47.0656483, "tags": {"amenity": "bank", "brand": "Santander", "brand:wikidata": "Q5835668", "brand:wikipedia": "en:Santander Bank", "name": "Santander"}}, {"type": "node", "id": 1594743807, "lat": -22.8971219, "lon": -47.0679749, "tags": {"amenity": "bank", "atm": "yes", "brand": "Banco do Brasil", "brand:wikidata": "Q610817", "brand:wikipedia": "en:Banco do Brasil", "name": "Banco do Brasil"}}, {"type": "node", "id": 1603737901, "lat": -22.9063154, "lon": -47.0639774, "tags": {"addr:city": "Campinas", "addr:street": "Avenida Senador Saraiva", "amenity": "bank", "atm": "yes", "brand": "Santander", "brand:wikidata": "Q5835668", "brand:wikipedia": "en:Santander Bank", "name": "Santander"}}, {"type": "node", "id": 1603737957, "lat": -22.9065554, "lon": -47.0638157, "tags": {"addr:city": "Campinas", "addr:street": "Avenida Senador Saraiva", "amenity": "bank", "atm": "yes", "brand": "Ita\u00fa Unibanco", "brand:wikidata": "Q1424293", "brand:wikipedia": "pt:Ita\u00fa Unibanco", "name": "Ita\u00fa", "operator": "Ita\u00fa - Unibanco"}}, {"type": "node", "id": 1603760118, "lat": -22.9050494, "lon": -47.0595487, "tags": {"amenity": "bank", "atm": "yes", "brand": "Ita\u00fa Unibanco", "brand:wikidata": "Q1424293", "brand:wikipedia": "pt:Ita\u00fa Unibanco", "name": "Ita\u00fa"}}, {"type": "node", "id": 1603760170, "lat": -22.9058603, "lon": -47.0595128, "tags": {"amenity": "bank", "atm": "yes", "name": "Banco Safra"}}, {"type": "node", "id": 1603760207, "lat": -22.9063982, "lon": -47.0606896, "tags": {"amenity": "bank", "atm": "yes", "brand": "Ita\u00fa Unibanco", "brand:wikidata": "Q1424293", "brand:wikipedia": "pt:Ita\u00fa Unibanco", "name": "Ita\u00fa"}}, {"type": "node", "id": 1603760236, "lat": -22.9067457, "lon": -47.0586504, "tags": {"amenity": "bank", "atm": "yes", "brand": "Santander", "brand:wikidata": "Q5835668", "brand:wikipedia": "en:Santander Bank", "name": "Santander"}}, {"type": "node", "id": 1603874389, "lat": -22.9038212, "lon": -47.0597739, "tags": {"amenity": "bank", "atm": "yes", "brand": "Ita\u00fa Unibanco", "brand:wikidata": "Q1424293", "brand:wikipedia": "pt:Ita\u00fa Unibanco", "name": "Ita\u00fa"}}, {"type": "node", "id": 1605780015, "lat": -22.8918478, "lon": -47.0773056, "tags": {"amenity": "bank", "brand": "Bradesco", "brand:wikidata": "Q806181", "name": "Bradesco"}}, {"type": "node", "id": 1606408726, "lat": -22.8995479, "lon": -47.0818655, "tags": {"addr:street": "Avenida Doutor Alberto Sarmento", "amenity": "bank", "brand": "Ita\u00fa Unibanco", "brand:wikidata": "Q1424293", "brand:wikipedia": "pt:Ita\u00fa Unibanco", "name": "Ita\u00fa", "wheelchair": "yes"}}, {"type": "node", "id": 1607085669, "lat": -22.9008348, "lon": -47.0618845, "tags": {"amenity": "bank", "atm": "yes", "brand": "Banco do Brasil", "brand:wikidata": "Q610817", "brand:wikipedia": "en:Banco do Brasil", "name": "Banco do Brasil"}}, {"type": "node", "id": 1607085673, "lat": -22.8962349, "lon": -47.0675592, "tags": {"amenity": "bank", "atm": "yes", "branch": "Estilo", "brand": "Banco do Brasil", "brand:wikidata": "Q610817", "brand:wikipedia": "en:Banco do Brasil", "name": "Banco do Brasil"}}, {"type": "node", "id": 1607085677, "lat": -22.8952894, "lon": -47.0667261, "tags": {"amenity": "bank", "atm": "yes", "brand": "Ita\u00fa Unibanco", "brand:wikidata": "Q1424293", "brand:wikipedia": "pt:Ita\u00fa Unibanco", "name": "Ita\u00fa"}}, {"type": "node", "id": 1607085683, "lat": -22.8916397, "lon": -47.0633335, "tags": {"amenity": "bank", "atm": "yes", "brand": "Ita\u00fa Unibanco", "brand:wikidata": "Q1424293", "brand:wikipedia": "pt:Ita\u00fa Unibanco", "name": "Ita\u00fa"}}, {"type": "node", "id": 1607524392, "lat": -22.899186, "lon": -47.0835279, "tags": {"amenity": "post_office"}}, {"type": "node", "id": 1607649937, "lat": -22.8992456, "lon": -47.0832378, "tags": {"addr:street": "Avenida Governador Pedro de Toledo", "amenity": "bank", "brand": "Caixa Econ\u00f4mica Federal", "brand:wikidata": "Q835283", "brand:wikipedia": "pt:Caixa Econ\u00f4mica Federal", "name": "Caixa Econ\u00f4mica Federal"}}, {"type": "node", "id": 1607649946, "lat": -22.8994334, "lon": -47.0830768, "tags": {"addr:street": "Avenida Governador Pedro de Toledo", "amenity": "bank", "brand": "Bradesco", "brand:wikidata": "Q806181", "brand:wikipedia": "en:Banco Bradesco", "name": "Bradesco"}}, {"type": "node", "id": 1608008344, "lat": -22.9188551, "lon": -47.1097349, "tags": {"amenity": "bank", "brand": "Banco do Brasil", "brand:wikidata": "Q610817", "brand:wikipedia": "en:Banco do Brasil", "name": "Banco do Brasil"}}, {"type": "node", "id": 1608054947, "lat": -22.9000733, "lon": -47.0814379, "tags": {"amenity": "bank", "brand": "Banco do Brasil", "brand:wikidata": "Q610817", "brand:wikipedia": "en:Banco do Brasil", "name": "Banco do Brasil", "wheelchair": "yes"}}, {"type": "node", "id": 1608054949, "lat": -22.8997991, "lon": -47.0815128, "tags": {"addr:housenumber": "1082", "addr:street": "Avenida Governador Pedro de Toledo", "amenity": "bank", "brand": "Santander", "brand:wikidata": "Q5835668", "brand:wikipedia": "en:Santander Bank", "name": "Santander", "wheelchair": "yes"}}, {"type": "node", "id": 1609407375, "lat": -22.901381, "lon": -47.0616029, "tags": {"addr:city": "Campinas", "addr:street": "Avenida Francisco Glic\u00e9rio", "amenity": "bank", "atm": "yes", "branch": "Personalit\u00e9", "brand": "Ita\u00fa Unibanco", "brand:wikidata": "Q1424293", "brand:wikipedia": "pt:Ita\u00fa Unibanco", "name": "Ita\u00fa", "operator": "Ita\u00fa - Unibanco"}}, {"type": "node", "id": 1609407430, "lat": -22.9022829, "lon": -47.0609599, "tags": {"addr:street": "Avenida Francisco Glic\u00e9rio", "amenity": "bank", "atm": "yes", "brand": "Bradesco", "brand:wikidata": "Q806181", "brand:wikipedia": "en:Banco Bradesco", "name": "Bradesco"}}, {"type": "node", "id": 1609407460, "lat": -22.9017684, "lon": -47.0612354, "tags": {"addr:street": "Avenida Francisco Glic\u00e9rio", "amenity": "bank", "atm": "yes", "brand": "Caixa Econ\u00f4mica Federal", "brand:wikidata": "Q835283", "brand:wikipedia": "pt:Caixa Econ\u00f4mica Federal", "name": "Caixa Econ\u00f4mica Federal"}}, {"type": "node", "id": 1611005635, "lat": -22.9014077, "lon": -47.0568465}, {"type": "node", "id": 1611005637, "lat": -22.9002774, "lon": -47.0573348}, {"type": "node", "id": 1611005639, "lat": -22.9015422, "lon": -47.0572018}, {"type": "node", "id": 1611005641, "lat": -22.9004158, "lon": -47.0576996}, {"type": "node", "id": 1612269560, "lat": -22.9094455, "lon": -47.0937094, "tags": {"amenity": "bank", "brand": "Banco do Brasil", "brand:wikidata": "Q610817", "brand:wikipedia": "en:Banco do Brasil", "name": "Banco do Brasil"}}, {"type": "node", "id": 1622921619, "lat": -22.8962964, "lon": -47.0641311, "tags": {"amenity": "post_office", "name": "ACC Guanabara"}}, {"type": "node", "id": 1628774508, "lat": -22.904664, "lon": -47.0612954}, {"type": "node", "id": 1628774509, "lat": -22.9048881, "lon": -47.0611746}, {"type": "node", "id": 1628774510, "lat": -22.9046727, "lon": -47.0606631}, {"type": "node", "id": 1628774511, "lat": -22.9044489, "lon": -47.0607719}, {"type": "node", "id": 1629161115, "lat": -22.8239886, "lon": -47.0636255}, {"type": "node", "id": 1631931506, "lat": -22.9071677, "lon": -47.0584438, "tags": {"amenity": "bank", "atm": "yes", "brand": "Santander", "brand:wikidata": "Q5835668", "brand:wikipedia": "en:Santander Bank", "name": "Santander"}}, {"type": "node", "id": 1637953955, "lat": -22.8940752, "lon": -47.0657311, "tags": {"amenity": "bank", "atm": "yes", "branch": "Prime", "brand": "Bradesco", "brand:wikidata": "Q806181", "brand:wikipedia": "en:Banco Bradesco", "name": "Bradesco"}}, {"type": "node", "id": 1637953961, "lat": -22.8936606, "lon": -47.0650481, "tags": {"amenity": "bank", "branch": "Personalit\u00e9", "brand": "Ita\u00fa Unibanco", "brand:wikidata": "Q1424293", "brand:wikipedia": "pt:Ita\u00fa Unibanco", "name": "Ita\u00fa"}}, {"type": "node", "id": 1642528448, "lat": -22.905244, "lon": -47.0584371, "tags": {"amenity": "bank", "brand": "Caixa Econ\u00f4mica Federal", "brand:wikidata": "Q835283", "brand:wikipedia": "pt:Caixa Econ\u00f4mica Federal", "name": "Caixa Econ\u00f4mica Federal"}}, {"type": "node", "id": 1642528452, "lat": -22.9055365, "lon": -47.0595467, "tags": {"amenity": "police"}}, {"type": "node", "id": 1643741955, "lat": -22.8978018, "lon": -47.067617}, {"type": "node", "id": 1644453480, "lat": -22.8456565, "lon": -47.0681925, "tags": {"addr:city": "Campinas", "addr:suburb": "Jardim Santa Genebra", "amenity": "police", "opening_hours": "Mo-Su 09:00-21:00"}}, {"type": "node", "id": 1647222063, "lat": -22.9070719, "lon": -47.0601509, "tags": {"addr:housenumber": "792", "addr:street": "Rua Jos\u00e9 Paulino", "amenity": "fire_station", "email": "7gb@polmil.sp.gov.br", "name": "7\u00ba Grupamento de Bombeiros", "phone": "(19) 3739 3004", "website": "http://www.ccb.polmil.sp.gov.br"}}, {"type": "node", "id": 1647222066, "lat": -22.9157824, "lon": -47.0576235, "tags": {"addr:housenumber": "60", "addr:street": "Avenida do Ipiranga", "amenity": "police", "name": "1\u00ba BAEP"}}, {"type": "node", "id": 1647222067, "lat": -22.9042203, "lon": -47.0695408, "tags": {"addr:housenumber": "159", "addr:street": "Rua Sebasti\u00e3o de Souza", "amenity": "police", "name": "1\u00b0 Departamento de Pol\u00edcia Civil de Campinas", "phone": "(19) 3236 9800", "source": "http://www2.policiacivil.sp.gov.br"}}, {"type": "node", "id": 1647222068, "lat": -22.8999128, "lon": -47.0782943, "tags": {"addr:housenumber": "298", "addr:street": "Rua Luiz Gama", "amenity": "police", "contact:phone": "+55 19 3743-7001", "name": "Comando de Policiamento do Interior 2"}}, {"type": "node", "id": 1670800036, "lat": -22.9010218, "lon": -47.0581604, "tags": {"amenity": "bank", "atm": "yes", "brand": "Bradesco", "brand:wikidata": "Q806181", "brand:wikipedia": "en:Banco Bradesco", "name": "Bradesco"}}, {"type": "node", "id": 1670800259, "lat": -22.8991197, "lon": -47.0550976, "tags": {"amenity": "bank", "branch": "Prime", "brand": "Bradesco", "brand:wikidata": "Q806181", "brand:wikipedia": "en:Banco Bradesco", "name": "Bradesco"}}, {"type": "node", "id": 1670800277, "lat": -22.8997131, "lon": -47.0546454, "tags": {"amenity": "bank", "atm": "yes", "brand": "Caixa Econ\u00f4mica Federal", "brand:wikidata": "Q835283", "brand:wikipedia": "pt:Caixa Econ\u00f4mica Federal", "name": "Caixa Econ\u00f4mica Federal"}}, {"type": "node", "id": 1670800279, "lat": -22.9000237, "lon": -47.0545049, "tags": {"amenity": "bank", "atm": "yes", "brand": "Ita\u00fa Unibanco", "brand:wikidata": "Q1424293", "brand:wikipedia": "pt:Ita\u00fa Unibanco", "name": "Ita\u00fa"}}, {"type": "node", "id": 1688934611, "lat": -22.9103149, "lon": -47.0559503, "tags": {"amenity": "bank", "atm": "yes", "brand": "Caixa Econ\u00f4mica Federal", "brand:wikidata": "Q835283", "brand:wikipedia": "pt:Caixa Econ\u00f4mica Federal", "name": "Caixa Econ\u00f4mica Federal"}}, {"type": "node", "id": 1700436602, "lat": -22.9055733, "lon": -47.0961907, "tags": {"addr:housenumber": "794", "addr:street": "Avenida Jos\u00e9 P\u00e0ncetti", "amenity": "post_office"}}, {"type": "node", "id": 1706051401, "lat": -22.9274828, "lon": -47.0681035, "tags": {"amenity": "bank", "atm": "yes", "brand": "Caixa Econ\u00f4mica Federal", "brand:wikidata": "Q835283", "name": "Caixa Econ\u00f4mica Federal"}}, {"type": "node", "id": 1706051402, "lat": -22.9266583, "lon": -47.0676639, "tags": {"amenity": "bank", "atm": "yes", "brand": "Banco do Brasil", "brand:wikidata": "Q610817", "brand:wikipedia": "en:Banco do Brasil", "name": "Banco do Brasil"}}, {"type": "node", "id": 1712160690, "lat": -22.9029155, "lon": -47.0590723, "tags": {"addr:city": "Campinas", "addr:street": "Avenida Doutor Thomaz Alves", "addr:suburb": "Centro", "amenity": "bank", "atm": "yes", "brand": "Banco do Brasil", "brand:wikidata": "Q610817", "brand:wikipedia": "en:Banco do Brasil", "name": "Banco do Brasil"}}, {"type": "node", "id": 1712160691, "lat": -22.9028527, "lon": -47.0586354, "tags": {"amenity": "post_office", "brand": "Correios", "brand:wikidata": "Q3375004", "brand:wikipedia": "en:Correios", "name": "Correios", "operator": "Correios", "operator:wikidata": "Q3375004", "operator:wikipedia": "en:Correios"}}, {"type": "node", "id": 1712160734, "lat": -22.9026738, "lon": -47.0524876, "tags": {"amenity": "bank", "atm": "yes", "brand": "Banco do Brasil", "brand:wikidata": "Q610817", "brand:wikipedia": "en:Banco do Brasil", "name": "Banco do Brasil"}}, {"type": "node", "id": 1712160750, "lat": -22.901365, "lon": -47.0530695, "tags": {"amenity": "police", "name": "Pol\u00edcia Militar", "wheelchair": "limited"}}, {"type": "node", "id": 1719982521, "lat": -22.9046856, "lon": -47.0560626, "tags": {"amenity": "bank", "atm": "yes", "brand": "Banco do Brasil", "brand:wikidata": "Q610817", "brand:wikipedia": "en:Banco do Brasil", "name": "Banco do Brasil"}}, {"type": "node", "id": 1719982620, "lat": -22.9044193, "lon": -47.0596229, "tags": {"amenity": "bank", "atm": "yes", "brand": "Santander", "brand:wikidata": "Q5835668", "brand:wikipedia": "en:Santander Bank", "name": "Santander"}}, {"type": "node", "id": 1731828461, "lat": -22.9102537, "lon": -47.0557842, "tags": {"addr:housenumber": "465", "addr:street": "Avenida Aquidab\u00e3", "amenity": "courthouse", "name": "Justi\u00e7a Federal 3\u00aa regi\u00e3o"}}, {"type": "node", "id": 1734559242, "lat": -22.8882921, "lon": -47.0607174, "tags": {"addr:housenumber": "1992", "addr:street": "Avenida Bar\u00e3o de Itapura", "amenity": "bank", "atm": "yes", "brand": "Bradesco", "brand:wikidata": "Q806181", "brand:wikipedia": "en:Banco Bradesco", "name": "Bradesco"}}, {"type": "node", "id": 1734559292, "lat": -22.8870221, "lon": -47.0599677, "tags": {"amenity": "bank", "brand": "Ita\u00fa Unibanco", "brand:wikidata": "Q1424293", "name": "Ita\u00fa"}}, {"type": "node", "id": 1760449852, "lat": -22.9100728, "lon": -47.0930752, "tags": {"amenity": "bank", "brand": "Santander", "brand:wikidata": "Q5835668", "brand:wikipedia": "en:Santander Bank", "name": "Santander", "operator": "Santander"}}, {"type": "node", "id": 1760465045, "lat": -22.9184529, "lon": -47.1083638, "tags": {"amenity": "bank", "brand": "Ita\u00fa Unibanco", "brand:wikidata": "Q1424293", "name": "Ita\u00fa"}}, {"type": "node", "id": 1760465046, "lat": -22.9184381, "lon": -47.1082243, "tags": {"amenity": "post_office"}}, {"type": "node", "id": 1760495197, "lat": -22.9199179, "lon": -47.1109146, "tags": {"amenity": "bank", "brand": "Santander", "brand:wikidata": "Q5835668", "brand:wikipedia": "en:Santander Bank", "name": "Santander"}}, {"type": "node", "id": 1773909699, "lat": -22.9252405, "lon": -47.0812792, "tags": {"addr:housenumber": "2187", "addr:postcode": "13030-400", "addr:street": "Avenida das Amoreiras", "amenity": "bank", "atm": "yes", "brand": "Caixa Econ\u00f4mica Federal", "brand:wikidata": "Q835283", "brand:wikipedia": "pt:Caixa Econ\u00f4mica Federal", "description": "Ag. Amoreiras", "name": "Caixa Econ\u00f4mica Federal", "name:pt": "Caixa Econ\u00f4mica Federal"}}, {"type": "node", "id": 1774084754, "lat": -22.8785779, "lon": -46.9666173, "tags": {"amenity": "bank", "atm": "yes", "brand": "Ita\u00fa Unibanco", "brand:wikidata": "Q1424293", "name": "Ita\u00fa"}}, {"type": "node", "id": 1799695186, "lat": -22.8239625, "lon": -47.0350241, "tags": {"amenity": "post_office", "brand": "Correios", "brand:wikidata": "Q3375004", "brand:wikipedia": "en:Correios", "name": "Correios"}}, {"type": "node", "id": 2354979132, "lat": -22.8240615, "lon": -47.0346219, "tags": {"amenity": "bank", "brand": "Bradesco", "brand:wikidata": "Q806181", "brand:wikipedia": "en:Banco Bradesco", "name": "Bradesco"}}, {"type": "node", "id": 2354979133, "lat": -22.8234368, "lon": -47.0354114, "tags": {"amenity": "bank", "brand": "Santander", "brand:wikidata": "Q5835668", "brand:wikipedia": "en:Santander Bank", "name": "Santander"}}, {"type": "node", "id": 2403236205, "lat": -22.9415263, "lon": -47.0352947, "tags": {"amenity": "police", "name": "5\u00ba DP"}}, {"type": "node", "id": 2436069630, "lat": -22.8488942, "lon": -47.0414329}, {"type": "node", "id": 2436069634, "lat": -22.848855, "lon": -47.0415426}, {"type": "node", "id": 2436069636, "lat": -22.8483893, "lon": -47.0414108}, {"type": "node", "id": 2436069638, "lat": -22.848259, "lon": -47.0412208}, {"type": "node", "id": 2436069640, "lat": -22.8482264, "lon": -47.0409601}, {"type": "node", "id": 2436069642, "lat": -22.849057, "lon": -47.0383667}, {"type": "node", "id": 2436069645, "lat": -22.851512, "lon": -47.0392238}, {"type": "node", "id": 2436069648, "lat": -22.8509111, "lon": -47.0410813}, {"type": "node", "id": 2436069650, "lat": -22.8511399, "lon": -47.0411816}, {"type": "node", "id": 2436069652, "lat": -22.8508769, "lon": -47.0419321}, {"type": "node", "id": 2436069654, "lat": -22.8507303, "lon": -47.0420602}, {"type": "node", "id": 2436069657, "lat": -22.8505161, "lon": -47.0421527}, {"type": "node", "id": 2436069659, "lat": -22.8490802, "lon": -47.0415684}, {"type": "node", "id": 2436069661, "lat": -22.8490326, "lon": -47.041477}, {"type": "node", "id": 2637625372, "lat": -22.8783572, "lon": -46.9662915, "tags": {"amenity": "bank", "atm": "yes", "brand": "Banco do Brasil", "brand:wikidata": "Q610817", "name": "Banco do Brasil"}}, {"type": "node", "id": 2643035908, "lat": -22.9085527, "lon": -47.0540904, "tags": {"addr:city": "Campinas", "addr:street": "Rua Irm\u00e3 Serafina", "amenity": "bank", "atm": "yes", "brand": "Banco do Brasil", "brand:wikidata": "Q610817", "brand:wikipedia": "en:Banco do Brasil", "name": "Banco do Brasil"}}, {"type": "node", "id": 2681487640, "lat": -22.8924952, "lon": -47.0758196, "tags": {"amenity": "bank", "atm": "yes", "brand": "Santander", "brand:wikidata": "Q5835668", "brand:wikipedia": "en:Santander Bank", "name": "Santander"}}, {"type": "node", "id": 2933365639, "lat": -22.8809803, "lon": -47.0729599, "tags": {"amenity": "bank", "brand": "Banco do Brasil", "brand:wikidata": "Q610817", "name": "Banco do Brasil"}}, {"type": "node", "id": 2933365640, "lat": -22.8806096, "lon": -47.0723216, "tags": {"amenity": "bank", "brand": "Ita\u00fa Unibanco", "brand:wikidata": "Q1424293", "name": "Ita\u00fa"}}, {"type": "node", "id": 3013492598, "lat": -22.9340606, "lon": -47.0318434, "tags": {"addr:city": "Campinas", "addr:housenumber": "120", "addr:street": "Rua Macara\u00ed", "addr:suburb": "Santa Odila", "amenity": "police", "name": "1\u00aa Cia PM do 35\u00ba BPM/I"}}, {"type": "node", "id": 3047110442, "lat": -22.8624617, "lon": -47.0225901}, {"type": "node", "id": 3047110449, "lat": -22.8625511, "lon": -47.0228581}, {"type": "node", "id": 3047110455, "lat": -22.862587, "lon": -47.0225408}, {"type": "node", "id": 3047110464, "lat": -22.8626765, "lon": -47.0228088}, {"type": "node", "id": 3128760827, "lat": -22.8168906, "lon": -47.0688018}, {"type": "node", "id": 3243817666, "lat": -22.9683571, "lon": -47.128145}, {"type": "node", "id": 3243817667, "lat": -22.9683595, "lon": -47.1279237}, {"type": "node", "id": 3243817668, "lat": -22.9684657, "lon": -47.1279211}, {"type": "node", "id": 3243817669, "lat": -22.9684583, "lon": -47.128149}, {"type": "node", "id": 3243818437, "lat": -22.968404, "lon": -47.1281531}, {"type": "node", "id": 3248263728, "lat": -22.9131811, "lon": -47.0639004}, {"type": "node", "id": 3248263729, "lat": -22.9132651, "lon": -47.0637636}, {"type": "node", "id": 3248263730, "lat": -22.9135615, "lon": -47.0638468}, {"type": "node", "id": 3248263731, "lat": -22.9135171, "lon": -47.0640238}, {"type": "node", "id": 3305131368, "lat": -22.9656658, "lon": -47.1324583, "tags": {"addr:city": "Campinas", "addr:street": "Rua Armando Frederico Renganeschi", "amenity": "bank", "atm": "yes", "brand": "Bradesco", "brand:wikidata": "Q806181", "brand:wikipedia": "en:Banco Bradesco", "name": "Bradesco"}}, {"type": "node", "id": 3305131496, "lat": -22.9653139, "lon": -47.1321377, "tags": {"addr:city": "Campinas", "addr:street": "Rua Armando Frederico Renganeschi", "amenity": "bank", "atm": "yes", "brand": "Banco do Brasil", "brand:wikidata": "Q610817", "brand:wikipedia": "en:Banco do Brasil", "name": "Banco do Brasil", "operator": "Banco do Brasil"}}, {"type": "node", "id": 3305131816, "lat": -22.9685109, "lon": -47.1286595}, {"type": "node", "id": 3305131817, "lat": -22.9685007, "lon": -47.128389}, {"type": "node", "id": 3305131818, "lat": -22.9683916, "lon": -47.1283939}, {"type": "node", "id": 3305131819, "lat": -22.9684018, "lon": -47.1286643}, {"type": "node", "id": 3483183531, "lat": -23.012481, "lon": -47.1426409}, {"type": "node", "id": 3483183532, "lat": -23.0124114, "lon": -47.1425574}, {"type": "node", "id": 3483183533, "lat": -23.0126777, "lon": -47.1423881}, {"type": "node", "id": 3483183534, "lat": -23.0127524, "lon": -47.1425266}, {"type": "node", "id": 3484020914, "lat": -22.9075097, "lon": -47.0579489, "tags": {"amenity": "bank", "brand": "Bradesco", "brand:wikidata": "Q806181", "brand:wikipedia": "en:Banco Bradesco", "name": "Bradesco"}}, {"type": "node", "id": 3484020915, "lat": -22.9067139, "lon": -47.0590122, "tags": {"amenity": "post_office"}}, {"type": "node", "id": 3610663569, "lat": -22.82827, "lon": -47.0796478, "tags": {"amenity": "bank", "atm": "yes", "brand": "Banco do Brasil", "brand:wikidata": "Q610817", "brand:wikipedia": "en:Banco do Brasil", "name": "Banco do Brasil"}}, {"type": "node", "id": 3611196764, "lat": -22.9049197, "lon": -47.0559724, "tags": {"amenity": "bank", "atm": "yes", "brand": "Banco do Brasil", "brand:wikidata": "Q610817", "brand:wikipedia": "en:Banco do Brasil", "name": "Banco do Brasil"}}, {"type": "node", "id": 3611196765, "lat": -22.9057573, "lon": -47.0390172, "tags": {"amenity": "bank", "atm": "yes", "branch": "Prime", "brand": "Bradesco", "brand:wikidata": "Q806181", "brand:wikipedia": "en:Banco Bradesco", "name": "Bradesco"}}, {"type": "node", "id": 3611196766, "lat": -22.8787605, "lon": -46.9650464, "tags": {"amenity": "bank", "atm": "yes", "brand": "Bradesco", "brand:wikidata": "Q806181", "name": "Bradesco"}}, {"type": "node", "id": 3611196768, "lat": -22.8852983, "lon": -46.9736802, "tags": {"amenity": "bank", "atm": "yes", "brand": "Caixa Econ\u00f4mica Federal", "brand:wikidata": "Q835283", "name": "Caixa Econ\u00f4mica Federal", "wheelchair": "limited"}}, {"type": "node", "id": 3611196777, "lat": -22.9048803, "lon": -47.0515688, "tags": {"amenity": "bank", "atm": "yes", "brand": "Ita\u00fa Unibanco", "brand:wikidata": "Q1424293", "brand:wikipedia": "pt:Ita\u00fa Unibanco", "name": "Ita\u00fa"}}, {"type": "node", "id": 3699220485, "lat": -22.8138854, "lon": -47.044449, "tags": {"amenity": "bank", "atm": "yes", "brand": "Santander", "brand:wikidata": "Q5835668", "brand:wikipedia": "en:Santander Bank", "drive_through": "no", "name": "Santander", "operator": "Santander"}}, {"type": "node", "id": 3901953713, "lat": -22.8955107, "lon": -47.0665586, "tags": {"amenity": "bank", "atm": "yes", "brand": "Santander", "brand:wikidata": "Q5835668", "brand:wikipedia": "en:Santander Bank", "name": "Santander"}}, {"type": "node", "id": 4042200991, "lat": -22.9047964, "lon": -47.0577768, "tags": {"amenity": "bank", "atm": "yes", "brand": "Banco do Brasil", "brand:wikidata": "Q610817", "brand:wikipedia": "en:Banco do Brasil", "name": "Banco do Brasil"}}, {"type": "node", "id": 4068942858, "lat": -22.827768, "lon": -47.0793244, "tags": {"amenity": "bank", "brand": "Santander", "brand:wikidata": "Q5835668", "brand:wikipedia": "en:Santander Bank", "name": "Santander"}}, {"type": "node", "id": 4069900507, "lat": -22.8306089, "lon": -47.0812027, "tags": {"amenity": "townhall", "name": "SubPrefeitura de Bar\u00e3o Geraldo", "townhall:type": "village"}}, {"type": "node", "id": 4069975924, "lat": -22.8240335, "lon": -47.079831, "tags": {"amenity": "bank", "brand": "Bradesco", "brand:wikidata": "Q806181", "brand:wikipedia": "en:Banco Bradesco", "name": "Bradesco Prime"}}, {"type": "node", "id": 4070195692, "lat": -22.8949411, "lon": -47.0547861}, {"type": "node", "id": 4070195693, "lat": -22.8952784, "lon": -47.0546118}, {"type": "node", "id": 4070195694, "lat": -22.8953847, "lon": -47.054888}, {"type": "node", "id": 4070195695, "lat": -22.8950746, "lon": -47.0550691}, {"type": "node", "id": 4205522904, "lat": -22.8964455, "lon": -47.0570337, "tags": {"addr:city": "Campinas", "addr:street": "Avenida J\u00falio de Mesquita", "addr:suburb": "Cambu\u00ed", "amenity": "bank", "atm": "yes", "brand": "Ita\u00fa Unibanco", "brand:wikidata": "Q1424293", "brand:wikipedia": "pt:Ita\u00fa Unibanco", "name": "Ita\u00fa"}}, {"type": "node", "id": 4205522910, "lat": -22.8950369, "lon": -47.057033, "tags": {"addr:street": "Rua Olavo Bilac", "amenity": "bank", "name": "Safra"}}, {"type": "node", "id": 4549160281, "lat": -22.8966993, "lon": -47.0467942, "tags": {"amenity": "bank", "brand": "Bradesco", "brand:wikidata": "Q806181", "brand:wikipedia": "en:Banco Bradesco", "name": "Bradesco"}}, {"type": "node", "id": 4559125371, "lat": -22.8344402, "lon": -47.0780703, "tags": {"amenity": "police", "name": "8\u00ba Batalh\u00e3o da Pol\u00edcia Militar"}}, {"type": "node", "id": 4559198079, "lat": -22.9018435, "lon": -47.051749, "tags": {"addr:housenumber": "683", "addr:street": "Rua Coronel Quirino", "addr:suburb": "Cambu\u00ed", "amenity": "bank", "name": "Alfa"}}, {"type": "node", "id": 4559198083, "lat": -22.9021117, "lon": -47.0512238, "tags": {"addr:housenumber": "644", "addr:street": "Rua Coronel Quirino", "addr:suburb": "Cambu\u00ed", "amenity": "bank", "atm": "yes", "branch": "Estilo", "brand": "Banco do Brasil", "brand:wikidata": "Q610817", "brand:wikipedia": "en:Banco do Brasil", "drive_through": "no", "name": "Banco do Brasil"}}, {"type": "node", "id": 4559198088, "lat": -22.9007906, "lon": -47.0517833, "tags": {"amenity": "bank", "atm": "yes", "brand": "Bradesco", "brand:wikidata": "Q806181", "brand:wikipedia": "en:Banco Bradesco", "name": "Bradesco"}}, {"type": "node", "id": 4559198493, "lat": -22.8859716, "lon": -47.0588414, "tags": {"amenity": "bank", "brand": "Caixa Econ\u00f4mica Federal", "brand:wikidata": "Q835283", "name": "Caixa Econ\u00f4mica Federal"}}, {"type": "node", "id": 4559198494, "lat": -22.9002789, "lon": -47.0527135, "tags": {"addr:street": "Avenida Benjamin Constant", "amenity": "bank", "atm": "yes", "brand": "Caixa Econ\u00f4mica Federal", "brand:wikidata": "Q835283", "brand:wikipedia": "pt:Caixa Econ\u00f4mica Federal", "name": "Caixa Econ\u00f4mica Federal"}}, {"type": "node", "id": 4559198503, "lat": -22.9005579, "lon": -47.0518676, "tags": {"amenity": "bank", "brand": "Citibank", "brand:wikidata": "Q857063", "brand:wikipedia": "en:Citibank", "name": "Citibank", "short_name": "Citi"}}, {"type": "node", "id": 4559198567, "lat": -22.8992096, "lon": -47.0522403, "tags": {"addr:housenumber": "982", "addr:street": "Rua Coronel Quirino", "addr:suburb": "Cambu\u00ed", "amenity": "bank", "atm": "yes", "branch": "Select", "brand": "Santander", "brand:wikidata": "Q5835668", "brand:wikipedia": "en:Santander Bank", "name": "Santander"}}, {"type": "node", "id": 4559198568, "lat": -22.8998812, "lon": -47.0523885, "tags": {"addr:street": "Avenida Benjamin Constant", "amenity": "bank", "atm": "yes", "brand": "Santander", "brand:wikidata": "Q5835668", "brand:wikipedia": "en:Santander Bank", "name": "Santander"}}, {"type": "node", "id": 4559198569, "lat": -22.9017878, "lon": -47.0514559, "tags": {"amenity": "bank", "atm": "yes", "brand": "Santander", "brand:wikidata": "Q5835668", "brand:wikipedia": "en:Santander Bank", "name": "Santander"}}, {"type": "node", "id": 4566874109, "lat": -22.8985545, "lon": -47.0587771, "tags": {"amenity": "bank", "atm": "yes", "brand": "Ita\u00fa Unibanco", "brand:wikidata": "Q1424293", "brand:wikipedia": "pt:Ita\u00fa Unibanco", "name": "Ita\u00fa"}}, {"type": "node", "id": 4589623298, "lat": -22.8955898, "lon": -47.0561058, "tags": {"addr:housenumber": "112", "addr:street": "Avenida Coronel Silva Teles", "amenity": "bank", "brand": "Santander", "brand:wikidata": "Q5835668", "brand:wikipedia": "en:Santander Bank", "name": "Santander"}}, {"type": "node", "id": 4720526987, "lat": -22.8896589, "lon": -46.9848979, "tags": {"amenity": "bank", "brand": "Santander", "brand:wikidata": "Q5835668", "name": "Santander"}}, {"type": "node", "id": 4851830143, "lat": -22.8982681, "lon": -47.0487498, "tags": {"amenity": "police", "name": "13\u00aa Delegacia de Pol\u00edcia"}}, {"type": "node", "id": 4879494723, "lat": -22.8512965, "lon": -47.1585833, "tags": {"addr:street": "Rua Batista Raffi", "amenity": "bank", "brand": "Bradesco", "brand:wikidata": "Q806181", "brand:wikipedia": "en:Banco Bradesco", "fixme": "confirmar posi\u00e7\u00e3o", "name": "Bradesco", "opening_hours": "Mo-Fr 10:00-16:00"}}, {"type": "node", "id": 4879495222, "lat": -22.8540605, "lon": -47.1542684, "tags": {"addr:street": "Rua Batista Raffi", "amenity": "bank", "brand": "Banco do Brasil", "brand:wikidata": "Q610817", "brand:wikipedia": "en:Banco do Brasil", "name": "Banco do Brasil", "name:pt": "Banco do Brasil", "opening_hours": "Mo-Fr 10:00-16:00"}}, {"type": "node", "id": 4962930991, "lat": -22.8728675, "lon": -47.0448217}, {"type": "node", "id": 4962930992, "lat": -22.8728689, "lon": -47.0444236}, {"type": "node", "id": 4962930993, "lat": -22.8730722, "lon": -47.0444245}, {"type": "node", "id": 4962930994, "lat": -22.8730709, "lon": -47.0448226}, {"type": "node", "id": 5006144545, "lat": -22.8733778, "lon": -47.0589687}, {"type": "node", "id": 5006144546, "lat": -22.8740405, "lon": -47.0592429}, {"type": "node", "id": 5006144547, "lat": -22.8743151, "lon": -47.0584613}, {"type": "node", "id": 5006144548, "lat": -22.8736523, "lon": -47.0581871}, {"type": "node", "id": 5046261521, "lat": -22.9507778, "lon": -47.1867005, "tags": {"amenity": "bank", "brand": "Ita\u00fa Unibanco", "brand:wikidata": "Q1424293", "name": "Ita\u00fa", "name:pt": "Ita\u00fa"}}, {"type": "node", "id": 5046261621, "lat": -22.9494959, "lon": -47.1873252, "tags": {"amenity": "bank", "brand": "Bradesco", "brand:wikidata": "Q806181", "brand:wikipedia": "en:Banco Bradesco", "name": "Bradesco", "name:pt": "Bradesco"}}, {"type": "node", "id": 5046324423, "lat": -22.9402311, "lon": -47.153464, "tags": {"amenity": "police", "name": "Guarda Municipal", "name:pt": "Guarda Municipal"}}, {"type": "node", "id": 5046447325, "lat": -22.9492769, "lon": -47.1881496, "tags": {"amenity": "police", "name": "Policia Militar", "name:pt": "Policia Militar"}}, {"type": "node", "id": 5054161121, "lat": -22.9250585, "lon": -47.1273258, "tags": {"amenity": "police", "government": "tax", "name": "Receita Federal", "name:pt": "Receita Federal", "office": "government"}}, {"type": "node", "id": 5054190522, "lat": -22.9218281, "lon": -47.077563, "tags": {"amenity": "bank", "brand": "Caixa Econ\u00f4mica Federal", "brand:wikidata": "Q835283", "brand:wikipedia": "pt:Caixa Econ\u00f4mica Federal", "name": "Caixa Econ\u00f4mica Federal", "name:pt": "Caixa Econ\u00f4mica Federal"}}, {"type": "node", "id": 5054190622, "lat": -22.9246348, "lon": -47.081277, "tags": {"amenity": "bank", "brand": "Bradesco", "brand:wikidata": "Q806181", "brand:wikipedia": "en:Banco Bradesco", "name": "Bradesco", "name:pt": "Bradesco"}}, {"type": "node", "id": 5054190722, "lat": -22.9246955, "lon": -47.0807433, "tags": {"amenity": "bank", "brand": "Ita\u00fa Unibanco", "brand:wikidata": "Q1424293", "brand:wikipedia": "pt:Ita\u00fa Unibanco", "name": "Ita\u00fa", "name:pt": "Ita\u00fa"}}, {"type": "node", "id": 5054190723, "lat": -22.9245271, "lon": -47.0801904, "tags": {"amenity": "post_office"}}, {"type": "node", "id": 5054190921, "lat": -22.9249606, "lon": -47.0809976, "tags": {"amenity": "bank", "brand": "Santander", "brand:wikidata": "Q5835668", "brand:wikipedia": "en:Santander Bank", "name": "Santander", "name:pt": "Santander"}}, {"type": "node", "id": 5054191321, "lat": -22.924224, "lon": -47.0801315, "tags": {"addr:street": "Avenida das Amoreiras", "amenity": "bank", "brand": "Banco do Brasil", "brand:wikidata": "Q610817", "brand:wikipedia": "en:Banco do Brasil", "name": "Banco do Brasil", "name:pt": "Banco do Brasil"}}, {"type": "node", "id": 5054810323, "lat": -22.9295107, "lon": -47.0839669, "tags": {"amenity": "fire_station"}}, {"type": "node", "id": 5059095925, "lat": -22.9096249, "lon": -47.0944323, "tags": {"amenity": "bank", "brand": "Bradesco", "brand:wikidata": "Q806181", "brand:wikipedia": "en:Banco Bradesco", "name": "Bradesco", "name:pt": "Bradesco"}}, {"type": "node", "id": 5059119424, "lat": -22.9187015, "lon": -47.1089031, "tags": {"amenity": "bank", "brand": "Caixa Econ\u00f4mica Federal", "brand:wikidata": "Q835283", "name": "Caixa Econ\u00f4mica Federal", "name:pt": "Caixa Econ\u00f4mica Federal"}}, {"type": "node", "id": 5059185922, "lat": -22.9175246, "lon": -47.0681354, "tags": {"amenity": "courthouse", "name": "Receita Federal", "name:pt": "Receita Federal"}}, {"type": "node", "id": 5062216421, "lat": -22.9510241, "lon": -47.1874667, "tags": {"amenity": "post_office", "name": "Correios do Brasil"}}, {"type": "node", "id": 5066973423, "lat": -22.9324663, "lon": -47.089488, "tags": {"amenity": "bank", "atm": "yes", "brand": "Bradesco", "brand:wikidata": "Q806181", "brand:wikipedia": "en:Banco Bradesco", "drive_through": "no", "name": "Bradesco", "name:pt": "Bradesco"}}, {"type": "node", "id": 5066986121, "lat": -22.9330973, "lon": -47.0913894, "tags": {"amenity": "bank", "atm": "yes", "brand": "Ita\u00fa Unibanco", "brand:wikidata": "Q1424293", "brand:wikipedia": "pt:Ita\u00fa Unibanco", "drive_through": "no", "name": "Ita\u00fa", "name:pt": "Ita\u00fa"}}, {"type": "node", "id": 5066986122, "lat": -22.9309801, "lon": -47.0876635, "tags": {"amenity": "bank", "brand": "Ita\u00fa Unibanco", "brand:wikidata": "Q1424293", "brand:wikipedia": "pt:Ita\u00fa Unibanco", "name": "Ita\u00fa"}}, {"type": "node", "id": 5066986123, "lat": -22.9184048, "lon": -47.1065805, "tags": {"addr:city": "Campinas", "addr:postcode": "13060-080", "addr:street": "Rua Oswaldo Oscar Barthelson", "addr:suburb": "Jardim Paulic\u00e9ia", "amenity": "police", "name": "2\u00b0 Delegacia Seccional Pol\u00edcia C\u00edvil"}}, {"type": "node", "id": 5083781915, "lat": -22.8660095, "lon": -47.0493191, "tags": {"amenity": "fire_station", "name": "7\u00ba Grupamento de Bombeiros"}}, {"type": "node", "id": 5097957924, "lat": -22.9260291, "lon": -47.1075721, "tags": {"amenity": "post_office"}}, {"type": "node", "id": 5202235157, "lat": -22.8269006, "lon": -47.0662918}, {"type": "node", "id": 5202235158, "lat": -22.8270193, "lon": -47.0662331}, {"type": "node", "id": 5202235159, "lat": -22.826911, "lon": -47.0659754}, {"type": "node", "id": 5202235160, "lat": -22.8267923, "lon": -47.0660342}, {"type": "node", "id": 5287223326, "lat": -22.8606157, "lon": -47.1520569, "tags": {"addr:city": "Campinas", "addr:housenumber": "1199", "addr:postcode": "13068-971", "addr:street": "Avenida Papa Jo\u00e3o Paulo II", "addr:suburb": "Conjunto Habitacional Padre Anchieta", "amenity": "post_office", "brand": "Empresa Brasileira de Correios e Tel\u00e9grafos", "brand:short": "Correios", "brand:wikidata": "Q3375004", "brand:wikipedia": "en:Correios", "name": "Correios", "name:pt": "Correios Ag. P. Anchieta", "opening_hours": "Mo-Fr 09:00-17:00"}}, {"type": "node", "id": 5355122196, "lat": -22.8238227, "lon": -47.0632317}, {"type": "node", "id": 5355122197, "lat": -22.8237113, "lon": -47.0632869}, {"type": "node", "id": 5355122198, "lat": -22.8238773, "lon": -47.0636807}, {"type": "node", "id": 5355122203, "lat": -22.8136071, "lon": -47.0706345}, {"type": "node", "id": 5355122204, "lat": -22.8134411, "lon": -47.0703199}, {"type": "node", "id": 5355122205, "lat": -22.8136001, "lon": -47.0702285}, {"type": "node", "id": 5355122206, "lat": -22.8137615, "lon": -47.0705406}, {"type": "node", "id": 5355122207, "lat": -22.8135756, "lon": -47.0698558}, {"type": "node", "id": 5355122208, "lat": -22.8133996, "lon": -47.0698452}, {"type": "node", "id": 5355122209, "lat": -22.8133917, "lon": -47.0699989}, {"type": "node", "id": 5355122210, "lat": -22.8135678, "lon": -47.0700095}, {"type": "node", "id": 5355122219, "lat": -22.8242528, "lon": -47.064808}, {"type": "node", "id": 5355122220, "lat": -22.8242017, "lon": -47.0647186}, {"type": "node", "id": 5355122321, "lat": -22.8242528, "lon": -47.0646817}, {"type": "node", "id": 5355122322, "lat": -22.8242656, "lon": -47.0646154}, {"type": "node", "id": 5355122323, "lat": -22.8242074, "lon": -47.0645184}, {"type": "node", "id": 5355122324, "lat": -22.8242883, "lon": -47.0644691}, {"type": "node", "id": 5355122325, "lat": -22.8243551, "lon": -47.0645784}, {"type": "node", "id": 5355122326, "lat": -22.8243977, "lon": -47.0645923}, {"type": "node", "id": 5355122327, "lat": -22.824365, "lon": -47.064731}, {"type": "node", "id": 5355122328, "lat": -22.8243167, "lon": -47.0647217}, {"type": "node", "id": 5355122329, "lat": -22.8243289, "lon": -47.0647501}, {"type": "node", "id": 5355122330, "lat": -22.8248865, "lon": -47.0663396}, {"type": "node", "id": 5355122331, "lat": -22.8247986, "lon": -47.0661921}, {"type": "node", "id": 5355122332, "lat": -22.8250091, "lon": -47.0660445}, {"type": "node", "id": 5355122333, "lat": -22.825097, "lon": -47.0661921}, {"type": "node", "id": 5355259093, "lat": -22.8248521, "lon": -47.0662819, "tags": {"entrance": "main"}}, {"type": "node", "id": 5355259094, "lat": -22.824379, "lon": -47.0646716, "tags": {"entrance": "main"}}, {"type": "node", "id": 5436431447, "lat": -22.8280834, "lon": -47.0797364, "tags": {"amenity": "bank", "brand": "Bradesco", "brand:wikidata": "Q806181", "brand:wikipedia": "en:Banco Bradesco", "name": "Bradesco"}}, {"type": "node", "id": 5646528603, "lat": -22.9079569, "lon": -47.0825915, "tags": {"amenity": "police"}}, {"type": "node", "id": 5728963222, "lat": -22.9148715, "lon": -47.063617, "tags": {"amenity": "police", "name": "8- Batalh\u00e3o da Pol\u00edcia Militar"}}, {"type": "node", "id": 5906738087, "lat": -22.9328115, "lon": -47.0790343, "tags": {"amenity": "bank", "atm": "yes", "brand": "Banco do Brasil", "brand:wikidata": "Q610817", "brand:wikipedia": "en:Banco do Brasil", "description": "Ag\u00eancia dentro do Poupatempo", "drive_through": "no", "name": "Banco do Brasil"}}, {"type": "node", "id": 5906738089, "lat": -22.93146, "lon": -47.079703, "tags": {"amenity": "post_office"}}, {"type": "node", "id": 5920601438, "lat": -22.819423, "lon": -47.0745228}, {"type": "node", "id": 5920601439, "lat": -22.8195413, "lon": -47.0744037}, {"type": "node", "id": 5920601440, "lat": -22.8197329, "lon": -47.0746115}, {"type": "node", "id": 5920601441, "lat": -22.8196059, "lon": -47.0747352}, {"type": "node", "id": 5922485003, "lat": -22.8807244, "lon": -47.0719728, "tags": {"amenity": "bank", "brand": "Bradesco", "brand:wikidata": "Q806181", "name": "Bradesco"}}, {"type": "node", "id": 5926754620, "lat": -22.8260683, "lon": -47.0808663}, {"type": "node", "id": 5926754621, "lat": -22.8261433, "lon": -47.080799}, {"type": "node", "id": 5926754622, "lat": -22.8262607, "lon": -47.0809512}, {"type": "node", "id": 5926754623, "lat": -22.8261792, "lon": -47.0810185}, {"type": "node", "id": 5973389690, "lat": -22.9139908, "lon": -47.0634415, "tags": {"amenity": "bank", "brand": "Caixa Econ\u00f4mica Federal", "brand:wikidata": "Q835283", "brand:wikipedia": "pt:Caixa Econ\u00f4mica Federal", "name": "Caixa Econ\u00f4mica Federal"}}, {"type": "node", "id": 6153910650, "lat": -22.9107166, "lon": -47.0551208, "tags": {"amenity": "bank", "brand": "Caixa Econ\u00f4mica Federal", "brand:wikidata": "Q835283", "brand:wikipedia": "pt:Caixa Econ\u00f4mica Federal", "name": "Caixa Econ\u00f4mica Federal"}}, {"type": "node", "id": 6153910836, "lat": -22.899909, "lon": -47.0545609, "tags": {"amenity": "bank", "branch": "Personalitte", "brand": "Ita\u00fa Unibanco", "brand:wikidata": "Q1424293", "brand:wikipedia": "pt:Ita\u00fa Unibanco", "name": "Ita\u00fa"}}, {"type": "node", "id": 6356551085, "lat": -22.9353539, "lon": -47.0509979, "tags": {"amenity": "police", "name": "Pol\u00edcia Militar do Estado de S\u00e3o Paulo"}}, {"type": "node", "id": 6356551086, "lat": -22.9352094, "lon": -47.0510219, "tags": {"amenity": "bank", "atm": "yes", "brand": "Caixa Econ\u00f4mica Federal", "brand:wikidata": "Q835283", "brand:wikipedia": "pt:Caixa Econ\u00f4mica Federal", "drive_through": "no", "name": "Caixa Econ\u00f4mica Federal"}}, {"type": "node", "id": 6362794502, "lat": -22.8940001, "lon": -47.0493513, "tags": {"amenity": "bank", "atm": "yes", "brand": "Bradesco", "brand:wikidata": "Q806181", "brand:wikipedia": "en:Banco Bradesco", "name": "Bradesco"}}, {"type": "node", "id": 6415497686, "lat": -22.906128, "lon": -47.0600001, "tags": {"amenity": "bank", "brand": "Banco do Brasil", "brand:wikidata": "Q610817", "brand:wikipedia": "en:Banco do Brasil", "name": "Banco do Brasil"}}, {"type": "node", "id": 6415956088, "lat": -22.9055424, "lon": -47.0686606, "tags": {"amenity": "bank", "brand": "Ita\u00fa Unibanco", "brand:wikidata": "Q1424293", "brand:wikipedia": "pt:Ita\u00fa Unibanco", "name": "Ita\u00fa"}}, {"type": "node", "id": 6415988085, "lat": -22.9056802, "lon": -47.0686056, "tags": {"amenity": "bank", "brand": "Bradesco", "brand:wikidata": "Q806181", "brand:wikipedia": "en:Banco Bradesco", "name": "Bradesco"}}, {"type": "node", "id": 6462084085, "lat": -22.9041536, "lon": -47.0605819, "tags": {"amenity": "bank", "name": "Agibank"}}, {"type": "node", "id": 6482978647, "lat": -22.8834423, "lon": -47.0331546, "tags": {"amenity": "bank", "brand": "Ita\u00fa Unibanco", "brand:wikidata": "Q1424293", "name": "Ita\u00fa"}}, {"type": "node", "id": 6482978648, "lat": -22.8848871, "lon": -47.0314681, "tags": {"amenity": "bank", "brand": "Santander", "brand:wikidata": "Q5835668", "brand:wikipedia": "en:Santander Bank", "name": "Santander"}}, {"type": "node", "id": 6781270482, "lat": -22.7982735, "lon": -47.0316739}, {"type": "node", "id": 6781270483, "lat": -22.7976101, "lon": -47.0316104}, {"type": "node", "id": 6781270484, "lat": -22.797581, "lon": -47.0321117}, {"type": "node", "id": 6781297785, "lat": -22.7980628, "lon": -47.032127}, {"type": "node", "id": 6781316870, "lat": -23.0114795, "lon": -47.0908239}, {"type": "node", "id": 6781316871, "lat": -23.0116666, "lon": -47.0895128}, {"type": "node", "id": 6781316872, "lat": -23.0110103, "lon": -47.0904991}, {"type": "node", "id": 6781316873, "lat": -23.0109856, "lon": -47.0904905}, {"type": "node", "id": 6781316874, "lat": -23.0109444, "lon": -47.0905027}, {"type": "node", "id": 6781316875, "lat": -23.0105871, "lon": -47.0907975}, {"type": "node", "id": 6781316876, "lat": -23.010748, "lon": -47.0907162}, {"type": "node", "id": 6781316877, "lat": -23.0108434, "lon": -47.0907019}, {"type": "node", "id": 6781316878, "lat": -23.0109631, "lon": -47.0907141}, {"type": "node", "id": 6781316879, "lat": -23.0114257, "lon": -47.0899004}, {"type": "node", "id": 6781316880, "lat": -23.0114781, "lon": -47.0897667}, {"type": "node", "id": 7107978968, "lat": -22.8264678, "lon": -47.0795095, "tags": {"amenity": "bank", "brand": "Caixa Econ\u00f4mica Federal", "brand:wikidata": "Q835283", "name": "Caixa Econ\u00f4mica Federal"}}, {"type": "node", "id": 7108020621, "lat": -22.8262641, "lon": -47.0795689, "tags": {"amenity": "bank", "name": "Ita\u00fa Personalitt\u00e9"}}, {"type": "node", "id": 7108023043, "lat": -22.8845225, "lon": -47.0543546, "tags": {"amenity": "bank", "brand": "Caixa Econ\u00f4mica Federal", "brand:wikidata": "Q835283", "name": "Caixa Econ\u00f4mica Federal"}}, {"type": "node", "id": 7108027734, "lat": -22.9001286, "lon": -47.0520093, "tags": {"amenity": "bank", "name": "Original"}}, {"type": "node", "id": 7179032734, "lat": -22.8963869, "lon": -47.0672861, "tags": {"amenity": "bank", "branch": "Select", "brand": "Santander", "brand:wikidata": "Q5835668", "brand:wikipedia": "en:Santander Bank", "name": "Santander"}}, {"type": "node", "id": 7392400565, "lat": -22.9720262, "lon": -47.1284497, "tags": {"amenity": "police"}}, {"type": "node", "id": 7392663809, "lat": -22.9681783, "lon": -47.1288284, "tags": {"amenity": "bank", "brand": "Caixa Econ\u00f4mica Federal", "brand:wikidata": "Q835283", "brand:wikipedia": "pt:Caixa Econ\u00f4mica Federal", "name": "Caixa Econ\u00f4mica Federal"}}, {"type": "node", "id": 7392663847, "lat": -22.9652556, "lon": -47.1309206, "tags": {"amenity": "post_office", "brand": "Correios", "brand:wikidata": "Q3375004", "brand:wikipedia": "en:Correios", "name": "Correios"}}, {"type": "node", "id": 7419129091, "lat": -22.8818155, "lon": -47.051703}, {"type": "node", "id": 7419129092, "lat": -22.8819339, "lon": -47.0515171}, {"type": "node", "id": 7419129093, "lat": -22.8823168, "lon": -47.0518015}, {"type": "node", "id": 7419129094, "lat": -22.8821959, "lon": -47.0520066}, {"type": "node", "id": 7422385994, "lat": -22.8834754, "lon": -47.0524014}, {"type": "node", "id": 7422385995, "lat": -22.8835893, "lon": -47.0524867}, {"type": "node", "id": 7422385996, "lat": -22.883722, "lon": -47.0522778}, {"type": "node", "id": 7422385997, "lat": -22.8836081, "lon": -47.0521926}, {"type": "node", "id": 7422385999, "lat": -22.884043, "lon": -47.0535187}, {"type": "node", "id": 7422386000, "lat": -22.8843155, "lon": -47.0537191}, {"type": "node", "id": 7422386001, "lat": -22.8844462, "lon": -47.0535177}, {"type": "node", "id": 7422386002, "lat": -22.8841902, "lon": -47.0532854}, {"type": "node", "id": 7531161307, "lat": -23.0127148, "lon": -47.1425811}, {"type": "node", "id": 7531161308, "lat": -23.0127025, "lon": -47.1425583}, {"type": "node", "id": 7605307351, "lat": -22.8974781, "lon": -47.0675701}, {"type": "node", "id": 7605307352, "lat": -22.897698, "lon": -47.0674051}, {"type": "node", "id": 7605307353, "lat": -22.8977475, "lon": -47.0674789}, {"type": "node", "id": 7605307354, "lat": -22.8977215, "lon": -47.0674977}, {"type": "node", "id": 7605307355, "lat": -22.897593, "lon": -47.0677538}, {"type": "node", "id": 7795636030, "lat": -23.0124463, "lon": -47.1397911}, {"type": "node", "id": 7795636031, "lat": -23.0125754, "lon": -47.1406387}, {"type": "node", "id": 7795636032, "lat": -23.0127913, "lon": -47.1408724}, {"type": "node", "id": 7795636033, "lat": -23.0123293, "lon": -47.1413761}, {"type": "node", "id": 7795636034, "lat": -23.0120659, "lon": -47.1416633}, {"type": "node", "id": 7795636035, "lat": -23.011835, "lon": -47.1414133}, {"type": "node", "id": 7795636036, "lat": -23.0119416, "lon": -47.1412971}, {"type": "node", "id": 7795636037, "lat": -23.0118569, "lon": -47.1412053}, {"type": "node", "id": 7795636038, "lat": -23.0120011, "lon": -47.1410482}, {"type": "node", "id": 7795636039, "lat": -23.0119061, "lon": -47.1404769}, {"type": "node", "id": 7795636040, "lat": -23.0120777, "lon": -47.1404435}, {"type": "node", "id": 7795636041, "lat": -23.011985, "lon": -47.1398809}, {"type": "node", "id": 7795636042, "lat": -23.012518, "lon": -47.1386342}, {"type": "node", "id": 7795636043, "lat": -23.0122084, "lon": -47.1386644}, {"type": "node", "id": 7795636044, "lat": -23.0121592, "lon": -47.1380683}, {"type": "node", "id": 7795636045, "lat": -23.0124121, "lon": -47.1380436}, {"type": "node", "id": 7795636046, "lat": -23.0124506, "lon": -47.1385097}, {"type": "node", "id": 7795636047, "lat": -23.0125073, "lon": -47.1385042}, {"type": "node", "id": 7795636048, "lat": -23.0123439, "lon": -47.1379528}, {"type": "node", "id": 7795636049, "lat": -23.0122796, "lon": -47.1376188}, {"type": "node", "id": 7795636050, "lat": -23.0120912, "lon": -47.1376616}, {"type": "node", "id": 7795636051, "lat": -23.0121114, "lon": -47.1377663}, {"type": "node", "id": 7795636052, "lat": -23.0120647, "lon": -47.137777}, {"type": "node", "id": 7795636053, "lat": -23.0120819, "lon": -47.1378666}, {"type": "node", "id": 7795636054, "lat": -23.012047, "lon": -47.1378745}, {"type": "node", "id": 7795636055, "lat": -23.0120823, "lon": -47.1380579}, {"type": "node", "id": 7795636056, "lat": -23.0121729, "lon": -47.1380373}, {"type": "node", "id": 7795636057, "lat": -23.0121645, "lon": -47.1379936}, {"type": "node", "id": 7795639109, "lat": -23.0096991, "lon": -47.1479379, "tags": {"amenity": "police", "name": "Policia militar"}}, {"type": "node", "id": 8179077383, "lat": -22.8506392, "lon": -47.0421188}, {"type": "node", "id": 8446736875, "lat": -22.8906429, "lon": -47.0761964, "tags": {"addr:city": "Campinas", "addr:housenumber": "2170", "addr:postcode": "13013-160", "addr:street": "Avenida Andrade Neves", "addr:suburb": "Jardim Chapad\u00e3o", "amenity": "bank", "brand": "Sicoob", "brand:wikidata": "Q28679754", "name": "Sicoob", "phone": "+55 19 38005710", "website": "http://www.sicoobunicoob.com.br/"}}, {"type": "node", "id": 8863852860, "lat": -22.9151885, "lon": -47.0663684}, {"type": "node", "id": 8863852861, "lat": -22.9152179, "lon": -47.0659791}, {"type": "node", "id": 8863852862, "lat": -22.915772, "lon": -47.0661454}, {"type": "node", "id": 8863852863, "lat": -22.9156808, "lon": -47.0665453}, {"type": "node", "id": 8961112163, "lat": -23.0121538, "lon": -47.1380417}, {"type": "node", "id": 8961112164, "lat": -23.0123188, "lon": -47.1386536}, {"type": "node", "id": 9342595840, "lat": -22.8735458, "lon": -47.0584935}, {"type": "node", "id": 9342595841, "lat": -22.873568, "lon": -47.0584345}, {"type": "node", "id": 9579560717, "lat": -23.0091367, "lon": -47.1412702, "tags": {"amenity": "police", "email": "aeroviracopos.cas.sp@dpf.gov.br", "name": "Pol\u00edcia Federal do Brasil", "operator": "Pol\u00edcia Federal do Brasil", "operator:en": "Federal Police of Brazil", "operator:wikidata": "Q2289697", "operator:wikipedia": "pt:Pol\u00edcia Federal do Brasil", "phone": "+55 19 3725 6413"}}, {"type": "node", "id": 9681507370, "lat": -22.9184999, "lon": -47.1067459}, {"type": "node", "id": 9681507371, "lat": -22.9183468, "lon": -47.1064795}, {"type": "node", "id": 9681507372, "lat": -22.9184465, "lon": -47.106412}, {"type": "node", "id": 9681507373, "lat": -22.9184555, "lon": -47.1064276}, {"type": "node", "id": 9681507374, "lat": -22.918748, "lon": -47.1062293}, {"type": "node", "id": 9681507375, "lat": -22.9188507, "lon": -47.106263}, {"type": "node", "id": 9681507376, "lat": -22.9189521, "lon": -47.1064395}, {"type": "node", "id": 9681507377, "lat": -22.9188026, "lon": -47.1062753, "tags": {"addr:city": "Campinas", "addr:housenumber": "590", "addr:postcode": "13060-090", "addr:street": "Rua Ferdinando Panatonni", "addr:suburb": "Jardim Paulic\u00e9ia", "amenity": "police", "name": "2\u00aa Delegacia de Defesa da Mulher de Campinas", "opening_hours": "24/7"}}, {"type": "node", "id": 9681507404, "lat": -22.9196076, "lon": -47.1091481}, {"type": "node", "id": 9681507405, "lat": -22.9195817, "lon": -47.1091334}, {"type": "node", "id": 9681507406, "lat": -22.9195365, "lon": -47.109151}, {"type": "node", "id": 9681507407, "lat": -22.9194943, "lon": -47.1090237}, {"type": "node", "id": 9681507408, "lat": -22.9197105, "lon": -47.1089393}, {"type": "node", "id": 9681507414, "lat": -22.9197677, "lon": -47.1091124}, {"type": "node", "id": 9681507415, "lat": -22.9196154, "lon": -47.1091718}, {"type": "node", "id": 9681507435, "lat": -22.9188561, "lon": -47.1062724}, {"type": "node", "id": 9681507473, "lat": -22.9184048, "lon": -47.1065805}, {"type": "node", "id": 9690194792, "lat": -22.8796854, "lon": -46.9643285}, {"type": "node", "id": 9690194793, "lat": -22.8795768, "lon": -46.9643161}, {"type": "node", "id": 9690194794, "lat": -22.8795573, "lon": -46.9645163}, {"type": "node", "id": 9690194795, "lat": -22.8796659, "lon": -46.9645288}, {"type": "node", "id": 9881170053, "lat": -22.7975802, "lon": -47.0319073}, {"type": "node", "id": 9881170056, "lat": -22.7981307, "lon": -47.031637}, {"type": "node", "id": 9972810487, "lat": -22.850133, "lon": -47.0412344}, {"type": "node", "id": 9972810488, "lat": -22.8501725, "lon": -47.041136}, {"type": "node", "id": 9972810489, "lat": -22.8502302, "lon": -47.0411593}, {"type": "node", "id": 9972810490, "lat": -22.8502022, "lon": -47.041263}, {"type": "node", "id": 9972810491, "lat": -22.8503785, "lon": -47.0413095}, {"type": "node", "id": 9972810492, "lat": -22.8503225, "lon": -47.0414919}, {"type": "node", "id": 9972810493, "lat": -22.848907, "lon": -47.0409948}, {"type": "node", "id": 9972810494, "lat": -22.8489548, "lon": -47.0408231}, {"type": "node", "id": 9972810495, "lat": -22.84966, "lon": -47.0410699}, {"type": "node", "id": 9972810496, "lat": -22.8496897, "lon": -47.0409626}, {"type": "node", "id": 9972810497, "lat": -22.8497408, "lon": -47.0409805}, {"type": "node", "id": 9972810498, "lat": -22.8497128, "lon": -47.0410878}, {"type": "node", "id": 9972814940, "lat": -22.8488625, "lon": -47.0405066}, {"type": "node", "id": 9972814941, "lat": -22.8489136, "lon": -47.0403421}, {"type": "node", "id": 9972814942, "lat": -22.8498017, "lon": -47.0406568}, {"type": "node", "id": 9972814943, "lat": -22.849754, "lon": -47.0408106}, {"type": "node", "id": 9972835771, "lat": -22.8512469, "lon": -47.04036}, {"type": "node", "id": 9972835772, "lat": -22.8511876, "lon": -47.0403367}, {"type": "node", "id": 9972835773, "lat": -22.8512782, "lon": -47.0400775}, {"type": "node", "id": 9972835774, "lat": -22.851438, "lon": -47.0401293}, {"type": "node", "id": 9972835775, "lat": -22.8513424, "lon": -47.040453}, {"type": "node", "id": 9972835776, "lat": -22.8512304, "lon": -47.040419}, {"type": "node", "id": 10841763105, "lat": -22.8996331, "lon": -47.0431754, "tags": {"addr:housenumber": "789", "addr:street": "Avenida Doutor Jesuino Marcondes Machado", "amenity": "bank", "email": "age4053@bb.com.br", "name": "Banco do Brasil Estilo", "website": "http://www.bb.com.br"}}, {"type": "node", "id": 11178055852, "lat": -22.921466, "lon": -47.0516133}, {"type": "node", "id": 11178055853, "lat": -22.9219095, "lon": -47.0510673}, {"type": "node", "id": 11178055854, "lat": -22.9219961, "lon": -47.0511466}, {"type": "node", "id": 11178055855, "lat": -22.921765, "lon": -47.0514547}, {"type": "node", "id": 11178055856, "lat": -22.9220131, "lon": -47.0516945}, {"type": "node", "id": 11178055857, "lat": -22.9218942, "lon": -47.0518273}, {"type": "node", "id": 11178055858, "lat": -22.9218432, "lon": -47.0517867}, {"type": "node", "id": 11178055859, "lat": -22.9217667, "lon": -47.0518587}, {"type": "node", "id": 11178055860, "lat": -22.9215765, "lon": -47.0516613}, {"type": "node", "id": 11178055861, "lat": -22.9215476, "lon": -47.0516945}, {"type": "node", "id": 11178056688, "lat": -22.9045515, "lon": -47.0607018}, {"type": "node", "id": 11178056689, "lat": -22.9047823, "lon": -47.0612361}, {"type": "node", "id": 11178063460, "lat": -22.9214124, "lon": -47.050369}, {"type": "node", "id": 11178063461, "lat": -22.9217352, "lon": -47.0507047}, {"type": "node", "id": 11178063462, "lat": -22.9217913, "lon": -47.0506586}, {"type": "node", "id": 11178063463, "lat": -22.9217777, "lon": -47.0506143}, {"type": "node", "id": 11178063464, "lat": -22.9218677, "lon": -47.0505055}, {"type": "node", "id": 11178063465, "lat": -22.9219, "lon": -47.0505313}, {"type": "node", "id": 11178063466, "lat": -22.9219493, "lon": -47.0504631}, {"type": "node", "id": 11178063467, "lat": -22.9216095, "lon": -47.0501126}, {"type": "way", "id": 95011157, "nodes": [3128760827, 1102452421, 1102452092, 1102452408, 1102452337, 1102452236, 1102452279, 1102452379, 1102452339, 1102452255, 1102452196, 1102452292, 1102452377, 1102452158, 1102452215, 1102452137, 1102452418, 1102452140, 1102452373, 1102452374, 3128760827], "tags": {"amenity": "bank", "brand": "Banco Santander", "brand:en": "Santander Bank", "brand:es": "Banco Santander", "brand:wikidata": "Q6496310", "brand:wikipedia": "es:Banco Santander", "building": "yes", "name": "Banco Santander", "name:en": "Santander Bank", "name:es": "Banco Santander", "official_name": "Santander Group"}}, {"type": "way", "id": 147988771, "nodes": [1611005641, 1611005639, 1611005635, 1611005637, 1611005641], "tags": {"addr:housenumber": "200", "addr:street": "Avenida Anchieta", "alt_name": "Pal\u00e1cio dos Jequitib\u00e1s", "amenity": "townhall", "name": "Pal\u00e1cio dos Jequitib\u00e1s", "phone": "+55 19 3755 6010", "website": "https://portal.campinas.sp.gov.br/", "wheelchair": "yes", "wikidata": "Q10344077", "wikipedia": "pt:Pal\u00e1cio dos Jequitib\u00e1s"}}, {"type": "way", "id": 149941764, "nodes": [1628774508, 11178056689, 1628774509, 1628774510, 11178056688, 1628774511, 1628774508], "tags": {"amenity": "courthouse", "building": "yes", "name": "Pal\u00e1cio de Justi\u00e7a", "source": "Bing"}}, {"type": "way", "id": 235562608, "nodes": [2436069630, 2436069634, 2436069636, 2436069638, 2436069640, 2436069642, 2436069645, 2436069648, 2436069650, 2436069652, 2436069654, 8179077383, 2436069657, 2436069659, 2436069661, 2436069630], "tags": {"addr:city": "Campinas", "addr:housenumber": "340", "addr:postcode": "13088-902", "addr:street": "Avenida Francisco Xavier de Arruda Camargo", "amenity": "courthouse", "name": "Cidade Judici\u00e1ria", "phone": "(19) 3296-5412"}}, {"type": "way", "id": 300627483, "nodes": [3047110464, 3047110449, 3047110442, 3047110455, 3047110464], "tags": {"amenity": "bank", "brand": "Ita\u00fa Unibanco", "brand:wikidata": "Q1424293", "building": "yes", "name": "Ita\u00fa"}}, {"type": "way", "id": 318024094, "nodes": [3243817666, 3243817667, 3243817668, 3243817669, 3243818437, 3243817666], "tags": {"addr:city": "Campinas", "addr:street": "Avenida Sua\u00e7una", "amenity": "bank", "atm": "yes", "brand": "Ita\u00fa Unibanco", "brand:wikidata": "Q1424293", "building": "yes", "name": "Ita\u00fa", "operator": "Ita\u00fa - Unibanco"}}, {"type": "way", "id": 318420945, "nodes": [3248263728, 3248263729, 3248263730, 3248263731, 3248263728], "tags": {"addr:city": "Campinas", "addr:street": "Avenida Jo\u00e3o Jorge", "amenity": "bank", "atm": "yes", "brand": "Bradesco", "brand:wikidata": "Q806181", "brand:wikipedia": "en:Banco Bradesco", "building": "yes", "name": "Bradesco", "operator": "Bradesco"}}, {"type": "way", "id": 323730439, "nodes": [3305131816, 3305131817, 3305131818, 3305131819, 3305131816], "tags": {"addr:city": "Campinas", "addr:street": "Avenida Sua\u00e7una", "amenity": "bank", "atm": "yes", "brand": "Bradesco", "brand:wikidata": "Q806181", "brand:wikipedia": "en:Banco Bradesco", "building": "yes", "name": "Bradesco"}}, {"type": "way", "id": 341088336, "nodes": [3483183531, 3483183532, 3483183533, 3483183534, 7531161308, 7531161307, 3483183531], "tags": {"amenity": "police", "building": "yes", "name": "Pol\u00edcia Militar"}}, {"type": "way", "id": 404753074, "nodes": [4070195692, 4070195693, 4070195694, 4070195695, 4070195692], "tags": {"addr:street": "Avenida Coronel Silva Teles", "amenity": "bank", "atm": "yes", "brand": "Bradesco", "brand:wikidata": "Q806181", "brand:wikipedia": "en:Banco Bradesco", "building": "yes", "name": "Bradesco"}}, {"type": "way", "id": 506583175, "nodes": [4962930991, 4962930992, 4962930993, 4962930994, 4962930991], "tags": {"amenity": "police", "building": "yes", "name": "4\u00ba DP"}}, {"type": "way", "id": 511865423, "nodes": [9342595840, 5006144545, 5006144546, 5006144547, 5006144548, 9342595841], "tags": {"barrier": "fence"}}, {"type": "way", "id": 537160840, "nodes": [5202235157, 5202235158, 5202235159, 5202235160, 5202235157], "tags": {"amenity": "bank", "brand": "Banco Santander", "brand:en": "Santander Bank", "brand:es": "Banco Santander", "brand:wikidata": "Q6496310", "brand:wikipedia": "es:Banco Santander", "building": "yes", "name": "Banco Santander", "name:en": "Santander Bank", "name:es": "Banco Santander", "official_name": "Santander Group"}}, {"type": "way", "id": 554951137, "nodes": [1629161115, 5355122196, 5355122197, 5355122198, 1629161115], "tags": {"amenity": "bank", "brand": "Banco do Brasil", "brand:wikidata": "Q610817", "brand:wikipedia": "en:Banco do Brasil", "building": "yes", "building:levels": "2", "name": "Banco do Brasil"}}, {"type": "way", "id": 554951139, "nodes": [5355122203, 5355122204, 5355122205, 5355122206, 5355122203], "tags": {"amenity": "bank", "brand": "Banco do Brasil", "brand:wikidata": "Q610817", "building": "yes", "name": "Banco do Brasil"}}, {"type": "way", "id": 554951140, "nodes": [5355122207, 5355122208, 5355122209, 5355122210, 5355122207], "tags": {"amenity": "post_office", "brand": "Correios", "brand:wikidata": "Q3375004", "brand:wikipedia": "en:Correios", "building": "yes", "name": "Correios"}}, {"type": "way", "id": 554951143, "nodes": [5355122219, 5355122220, 5355122321, 5355122322, 5355122323, 5355122324, 5355122325, 5355122326, 5355259094, 5355122327, 5355122328, 5355122329, 5355122219], "tags": {"amenity": "bank", "branch": "Select", "brand": "Santander", "brand:wikidata": "Q5835668", "building": "yes", "name": "Santander"}}, {"type": "way", "id": 554951144, "nodes": [5355122330, 5355259093, 5355122331, 5355122332, 5355122333, 5355122330], "tags": {"amenity": "bank", "atm": "yes", "brand": "Santander", "brand:wikidata": "Q5835668", "brand:wikipedia": "en:Santander Bank", "building": "yes", "drive_through": "no", "name": "Santander"}}, {"type": "way", "id": 627167444, "nodes": [5920601438, 5920601439, 5920601440, 5920601441, 5920601438], "tags": {"addr:city": "Campinas", "addr:housenumber": "791", "amenity": "police", "building": "yes", "name": "7\u00ba Distrito Policial de Campinas"}}, {"type": "way", "id": 627798928, "nodes": [5926754620, 5926754621, 5926754622, 5926754623, 5926754620], "tags": {"amenity": "post_office", "building": "yes", "name": "Correios"}}, {"type": "way", "id": 722968085, "nodes": [6781270482, 9881170056, 6781270483, 9881170053]}, {"type": "way", "id": 722972852, "nodes": [6781316876, 6781316877, 6781316878, 6781316870, 6781316871]}, {"type": "way", "id": 793448637, "nodes": [7419129091, 7419129092, 7419129093, 7419129094, 7419129091], "tags": {"addr:city": "Campinas", "addr:housenumber": "1089", "addr:postcode": "13076061", "addr:street": "Rua Paula Bueno", "addr:suburb": "Taquaral", "amenity": "bank", "atm": "yes", "brand": "Ita\u00fa Unibanco", "brand:wikidata": "Q1424293", "building": "yes", "drive_through": "no", "name": "Ita\u00fa", "operator": "Ita\u00fa Unibanco"}}, {"type": "way", "id": 793605732, "nodes": [7422385994, 7422385995, 7422385996, 7422385997, 7422385994], "tags": {"addr:city": "Campinas", "addr:housenumber": "918", "addr:street": "Rua Paula Bueno", "addr:suburb": "Taquaral", "amenity": "bank", "atm": "yes", "brand": "Banco do Brasil", "brand:wikidata": "Q610817", "brand:wikipedia": "en:Banco do Brasil", "building": "yes", "name": "Banco do Brasil", "operator": "Banco do Brasil"}}, {"type": "way", "id": 793605733, "nodes": [7422385999, 7422386000, 7422386001, 7422386002, 7422385999], "tags": {"addr:city": "Campinas", "addr:housenumber": "811", "addr:postcode": "13076061", "addr:street": "Rua Paula Bueno", "addr:suburb": "Taquaral", "amenity": "bank", "brand": "Ita\u00fa Unibanco", "brand:wikidata": "Q1424293", "brand:wikipedia": "pt:Ita\u00fa Unibanco", "building": "yes", "description": "Ag\u00eancia Personnalit\u00e9", "name": "Ita\u00fa", "operator": "Ita\u00fa Unibanco"}}, {"type": "way", "id": 814141760, "nodes": [7605307355, 1643741955, 7605307354, 7605307353, 7605307352, 7605307351, 7605307355], "tags": {"addr:city": "Campinas", "addr:postcode": "13020-450", "addr:street": "Rua Doutor Ant\u00f4nio \u00c1lvares Lobo", "amenity": "police", "building": "yes", "email": "dpf.cm.cas.srsp@dpf.gov.br", "name": "Pol\u00edcia Federal", "operator": "Pol\u00edcia Federal do Brasil", "operator:en": "Federal Police of Brazil", "operator:wikidata": "Q2289697", "operator:wikipedia": "pt:Pol\u00edcia Federal do Brasil", "phone": "+55 19 3345 2200"}}, {"type": "way", "id": 835161489, "nodes": [7795636030, 7795636031, 7795636032, 7795636033, 7795636034, 7795636035, 7795636036, 7795636037, 7795636038, 7795636039, 7795636040, 7795636041, 7795636030], "tags": {"amenity": "post_office", "brand": "FedEx", "brand:wikidata": "Q459477", "brand:wikipedia": "en:FedEx", "building": "yes", "name": "FedEx"}}, {"type": "way", "id": 835161490, "nodes": [7795636042, 8961112164, 7795636043, 7795636044, 7795636045, 7795636046, 7795636047, 7795636042], "tags": {"amenity": "post_office", "brand": "DHL", "brand:wikidata": "Q489815", "brand:wikipedia": "en:DHL", "building": "yes", "name": "DHL"}}, {"type": "way", "id": 835161491, "nodes": [7795636048, 7795636049, 7795636050, 7795636051, 7795636052, 7795636053, 7795636054, 7795636055, 8961112163, 7795636056, 7795636057, 7795636048], "tags": {"amenity": "post_office", "building": "yes", "name": "UPS"}}, {"type": "way", "id": 957947839, "nodes": [8863852860, 8863852861, 8863852862, 8863852863, 8863852860], "tags": {"addr:city": "Campinas", "addr:housenumber": "191", "addr:street": "Avenida das Amoreiras", "addr:suburb": "Parque It\u00e1lia", "amenity": "police", "building": "yes", "name": "Pol\u00edcia Militar Ambiental"}}, {"type": "way", "id": 1012660650, "nodes": [9342595841, 9342595840]}, {"type": "way", "id": 1053486551, "nodes": [9681507370, 9681507473, 9681507371, 9681507372, 9681507373, 9681507374, 9681507375, 9681507435, 9681507376, 9681507370], "tags": {"addr:city": "Campinas", "addr:housenumber": "713", "addr:postcode": "13060-080", "addr:street": "Rua Oswaldo Oscar Barthelson", "addr:suburb": "Jardim Paulic\u00e9ia", "amenity": "police", "name": "2\u00b0 Delegacia Seccional Pol\u00edcia C\u00edvil", "roof:colour": "white"}}, {"type": "way", "id": 1053486558, "nodes": [9681507408, 9681507414, 9681507415, 9681507404, 9681507405, 9681507406, 9681507407, 9681507408], "tags": {"addr:city": "Campinas", "addr:housenumber": "1505", "addr:postcode": "13060-190", "addr:street": "Rua Dom\u00edcio Pacheco e Silva", "addr:suburb": "Jardim Novo Campos El\u00edseos", "amenity": "bank", "atm": "yes", "brand": "Bradesco", "brand:wikidata": "Q806181", "brand:wikipedia": "en:Banco Bradesco", "building": "yes", "name": "Bradesco"}}, {"type": "way", "id": 1054492737, "nodes": [9690194792, 9690194793, 9690194794, 9690194795, 9690194792], "tags": {"addr:city": "Campinas", "addr:housenumber": "63", "addr:street": "Rua Siqueira Campos", "amenity": "post_office", "building": "yes", "operator": "Correios", "operator:wikidata": "Q3375004"}}, {"type": "way", "id": 1077708083, "nodes": [9881170053, 6781270484, 6781297785]}, {"type": "way", "id": 1077708084, "nodes": [6781297785, 6781270482]}, {"type": "way", "id": 1088522733, "nodes": [9972810487, 9972810488, 9972810489, 9972810490, 9972810491, 9972810492, 9972810493, 9972810494, 9972810495, 9972810496, 9972810497, 9972810498, 9972810487], "tags": {"amenity": "courthouse", "building": "yes", "name": "TJ Campinas"}}, {"type": "way", "id": 1088522818, "nodes": [9972814940, 9972814941, 9972814942, 9972814943, 9972814940], "tags": {"amenity": "courthouse", "building": "yes", "name": "TJ Campinas"}}, {"type": "way", "id": 1088522885, "nodes": [9972835771, 9972835772, 9972835773, 9972835774, 9972835775, 9972835776, 9972835771], "tags": {"amenity": "courthouse", "building": "yes", "name": "OAB Campinas"}}, {"type": "way", "id": 1089697421, "nodes": [6781316874, 6781316875, 6781316876]}, {"type": "way", "id": 1089697422, "nodes": [6781316871, 6781316880, 6781316879, 6781316872, 6781316873, 6781316874]}, {"type": "way", "id": 1206300971, "nodes": [11178063460, 11178063461, 11178063462, 11178063463, 11178063464, 11178063465, 11178063466, 11178063467, 11178063460], "tags": {"addr:street": "Avenida da Saudade", "amenity": "bank", "brand": "Ita\u00fa Unibanco", "brand:wikidata": "Q1424293", "building": "yes", "name": "Ita\u00fa"}}, {"type": "way", "id": 1206301511, "nodes": [11178055852, 11178055853, 11178055854, 11178055855, 11178055856, 11178055857, 11178055858, 11178055859, 11178055860, 11178055861, 11178055852], "tags": {"addr:housenumber": "1004", "addr:postcode": "13041-670", "addr:street": "Avenida da Saudade", "addr:suburb": "Ponte Preta", "amenity": "townhall", "building": "yes", "email": "faleconosco@campinas.sp.leg.br", "name": "C\u00e3mara Municipal de Campinas", "opening_hours": "Mo-Fr 09:00-18:00; PH off", "phone": "+55 19 3736 1300", "townhall:type": "city", "website": "https://www.campinas.sp.leg.br/pagina_inicial"}}, {"type": "relation", "id": 13556082, "members": [{"type": "way", "ref": 1012660650, "role": "outer"}, {"type": "way", "ref": 511865423, "role": "outer"}], "tags": {"amenity": "police", "name": "Guarda Municipal de Campinas", "type": "multipolygon"}}, {"type": "relation", "id": 14344653, "members": [{"type": "way", "ref": 1077708084, "role": "outer"}, {"type": "way", "ref": 722968085, "role": "outer"}, {"type": "way", "ref": 1077708083, "role": "outer"}], "tags": {"amenity": "police", "name": "Pol\u00edcia Militar Rodovi\u00e1ria - 4\u00ba BPRv - 2\u00aa Cia", "police": "traffic_police", "type": "multipolygon"}}, {"type": "relation", "id": 14509949, "members": [{"type": "way", "ref": 722972852, "role": "outer"}, {"type": "way", "ref": 1089697422, "role": "outer"}, {"type": "way", "ref": 1089697421, "role": "outer"}], "tags": {"amenity": "police", "name": "Pol\u00edcia Militar Rodovi\u00e1ria - Base SP-348/2 - km 85,0 Sul - Campinas", "police": "traffic_police", "type": "multipolygon"}}]}